{"type":"FeatureCollection","features":[{"type":"Feature","geometry":{"type":"Point","coordinates":[76.8512,43.222]},"properties":{"kind":"circle","radius_m":400,"label":"5 min walk"}},{"type":"Feature","geometry":{"type":"Point","coordinates":[76.8512,43.222]},"properties":{"kind":"circle","radius_m":800,"label":"10 min walk"}},{"type":"Feature","geometry":{"type":"Point","coordinates":[76.8512,43.222]},"properties":{"kind":"circle","radius_m":1200,"label":"15 min walk"}},{"type":"Feature","geometry":{"type":"Point","coordinates":[76.8582159,43.223714]},"properties":{"kind":"poi","name":"Сарыарқа","category":"transit","color":"#0369a1","fa_icon":"fa-bus","wikidata":"Q4408837"}},{"type":"Feature","geometry":{"type":"Point","coordinates":[76.8565959,43.2298926]},"properties":{"kind":"poi","name":"Маркет Плаза","category":"market","color":"#65a30d","fa_icon":"fa-store"}},{"type":"Feature","geometry":{"type":"Point","coordinates":[76.8400395,43.2214204]},"properties":{"kind":"poi","name":"МТГУ","category":"university","color":"#0891b2","fa_icon":"fa-graduation-cap","courses_url":"https://discover.bcs.org/media/xteha3qf/standard-operating-procedures-template.pdf"}}]}