{"type":"FeatureCollection","features":[{"type":"Feature","geometry":{"type":"Point","coordinates":[35.9284,31.9454]},"properties":{"kind":"circle","radius_m":400,"label":"5 min walk"}},{"type":"Feature","geometry":{"type":"Point","coordinates":[35.9284,31.9454]},"properties":{"kind":"circle","radius_m":800,"label":"10 min walk"}},{"type":"Feature","geometry":{"type":"Point","coordinates":[35.9284,31.9454]},"properties":{"kind":"circle","radius_m":1200,"label":"15 min walk"}},{"type":"Feature","geometry":{"type":"Point","coordinates":[35.9211777,31.9511145]},"properties":{"kind":"poi","name":"متحف الحياة البرلمانية","category":"museum","color":"#b45309","fa_icon":"fa-landmark","ticket_url":"https://kb-it.sandisk.com/app/answers/detail/a_id/17328/~/come-ricevere-notifiche-via-ssd-dashboard"}},{"type":"Feature","geometry":{"type":"Point","coordinates":[35.9355474,31.9500152]},"properties":{"kind":"poi","name":"سوق الخضرا","category":"market","color":"#65a30d","fa_icon":"fa-store"}}]}