{"type":"FeatureCollection","features":[{"type":"Feature","geometry":{"type":"Point","coordinates":[4.9041,52.3676]},"properties":{"kind":"circle","radius_m":400,"label":"5 min walk"}},{"type":"Feature","geometry":{"type":"Point","coordinates":[4.9041,52.3676]},"properties":{"kind":"circle","radius_m":800,"label":"10 min walk"}},{"type":"Feature","geometry":{"type":"Point","coordinates":[4.9041,52.3676]},"properties":{"kind":"circle","radius_m":1200,"label":"15 min walk"}},{"type":"Feature","geometry":{"type":"Point","coordinates":[4.8930549,52.3688053]},"properties":{"kind":"poi","name":"Allard Pierson Museum","category":"museum","color":"#b45309","fa_icon":"fa-landmark","wikidata":"Q1244372","website":"https://allardpierson.nl/","ticket_url":"https://allardpierson.nl/"}},{"type":"Feature","geometry":{"type":"Point","coordinates":[4.911154,52.3664388]},"properties":{"kind":"poi","name":"Hollandsche Schouwburg","category":"museum","color":"#b45309","fa_icon":"fa-landmark","wikidata":"Q2206529","website":"https://www.hollandscheschouwburg.nl/en","ticket_url":"https://www.hollandscheschouwburg.nl/en"}},{"type":"Feature","geometry":{"type":"Point","coordinates":[4.9019685,52.3695688]},"properties":{"kind":"poi","name":"Amsterdamse Hogeschool voor de Kunsten","category":"university","color":"#0891b2","fa_icon":"fa-graduation-cap","wikidata":"Q641087","courses_url":"https://github.com/features/copilot"}},{"type":"Feature","geometry":{"type":"Point","coordinates":[4.8993657,52.3751725]},"properties":{"kind":"poi","name":"Ons' Lieve Heer op Solder","category":"museum","color":"#b45309","fa_icon":"fa-landmark","wikidata":"Q493160","website":"https://www.opsolder.nl/","ticket_url":"https://www.opsolder.nl/"}},{"type":"Feature","geometry":{"type":"Point","coordinates":[4.9147861,52.3720101]},"properties":{"kind":"poi","name":"Het Scheepvaartmuseum","category":"museum","color":"#b45309","fa_icon":"fa-landmark","wikidata":"Q1616123","website":"https://www.hetscheepvaartmuseum.nl","ticket_url":"https://www.hetscheepvaartmuseum.nl"}},{"type":"Feature","geometry":{"type":"Point","coordinates":[4.8933781,52.363464]},"properties":{"kind":"poi","name":"Museum Van Loon","category":"museum","color":"#b45309","fa_icon":"fa-landmark","wikidata":"Q2191110","website":"https://www.museumvanloon.nl/","ticket_url":"https://www.museumvanloon.nl/"}},{"type":"Feature","geometry":{"type":"Point","coordinates":[4.9006803,52.3650527]},"properties":{"kind":"poi","name":"Collectie Six","category":"museum","color":"#b45309","fa_icon":"fa-landmark","wikidata":"Q2370540","website":"https://collectiesix.nl","ticket_url":"https://collectiesix.nl"}},{"type":"Feature","geometry":{"type":"Point","coordinates":[4.9079744,52.3611848]},"properties":{"kind":"poi","name":"Weesperplein","category":"transit","color":"#0369a1","fa_icon":"fa-bus","wikidata":"Q7979626","website":"https://gvb.nl/reisinformatie/halte/NL:S:30009510"}},{"type":"Feature","geometry":{"type":"Point","coordinates":[4.9000551,52.3592415]},"properties":{"kind":"poi","name":"De Nieuwe Schatkamer","category":"museum","color":"#b45309","fa_icon":"fa-landmark","website":"https://www.denieuweschatkamer.nl/","ticket_url":"https://www.denieuweschatkamer.nl/"}}]}