{"type":"FeatureCollection","features":[{"type":"Feature","geometry":{"type":"Point","coordinates":[100.5018,13.7563]},"properties":{"kind":"circle","radius_m":400,"label":"5 min walk"}},{"type":"Feature","geometry":{"type":"Point","coordinates":[100.5018,13.7563]},"properties":{"kind":"circle","radius_m":800,"label":"10 min walk"}},{"type":"Feature","geometry":{"type":"Point","coordinates":[100.5018,13.7563]},"properties":{"kind":"circle","radius_m":1200,"label":"15 min walk"}},{"type":"Feature","geometry":{"type":"Point","coordinates":[100.5009642,13.7501169]},"properties":{"kind":"poi","name":"วัดสุทัศนเทพวรารามราชวรมหาวิหาร","category":"monument","color":"#be123c","fa_icon":"fa-monument","wikidata":"Q2166761","wikipedia_url":"https://th.wikipedia.org/wiki/%E0%B8%A7%E0%B8%B1%E0%B8%94"}},{"type":"Feature","geometry":{"type":"Point","coordinates":[100.5042531,13.7548368]},"properties":{"kind":"poi","name":"วัดราชนัดดารามวรวิหาร","category":"monument","color":"#be123c","fa_icon":"fa-monument","wikidata":"Q1554856","wikipedia_url":"https://th.wikipedia.org/wiki/%E0%B8%A7%E0%B8%B1%E0%B8%94"}},{"type":"Feature","geometry":{"type":"Point","coordinates":[100.4993781,13.7547351]},"properties":{"kind":"poi","name":"วัดมหรรณพารามวรวิหาร","category":"monument","color":"#be123c","fa_icon":"fa-monument","wikidata":"Q48729769","wikipedia_url":"https://th.wikipedia.org/wiki/%E0%B8%A7%E0%B8%B1%E0%B8%94"}},{"type":"Feature","geometry":{"type":"Point","coordinates":[100.4956176,13.7495389]},"properties":{"kind":"poi","name":"วัดราชประดิษฐสถิตมหาสีมารามราชวรวิหาร","category":"monument","color":"#be123c","fa_icon":"fa-monument","wikidata":"Q2552382","wikipedia_url":"https://th.wikipedia.org/wiki/%E0%B8%A7%E0%B8%B1%E0%B8%94"}},{"type":"Feature","geometry":{"type":"Point","coordinates":[100.4973194,13.7589035]},"properties":{"kind":"poi","name":"ถนนข้าวสาร","category":"monument","color":"#be123c","fa_icon":"fa-monument","wikidata":"Q1203550","wikipedia_url":"https://th.wikipedia.org/wiki/%E0%B8%96%E0%B8%99%E0%B8%99"}},{"type":"Feature","geometry":{"type":"Point","coordinates":[100.5087637,13.7609774]},"properties":{"kind":"poi","name":"เวทีราชดำเนิน","category":"stadium","color":"#ea580c","fa_icon":"fa-futbol","wikidata":"Q2631915","website":"https://rajadamnern.com/"}},{"type":"Feature","geometry":{"type":"Point","coordinates":[100.4930693,13.7551616]},"properties":{"kind":"poi","name":"สนามหลวง","category":"park","color":"#16a34a","fa_icon":"fa-tree","wikidata":"Q767544"}},{"type":"Feature","geometry":{"type":"Point","coordinates":[100.4963944,13.7637572]},"properties":{"kind":"poi","name":"พิพิธบางลำพู","category":"museum","color":"#b45309","fa_icon":"fa-landmark","website":"http://banglamphumuseum.treasury.go.th","ticket_url":"http://banglamphumuseum.treasury.go.th"}}]}