{"type":"FeatureCollection","features":[{"type":"Feature","geometry":{"type":"Point","coordinates":[13.405,52.52]},"properties":{"kind":"circle","radius_m":400,"label":"5 min walk"}},{"type":"Feature","geometry":{"type":"Point","coordinates":[13.405,52.52]},"properties":{"kind":"circle","radius_m":800,"label":"10 min walk"}},{"type":"Feature","geometry":{"type":"Point","coordinates":[13.405,52.52]},"properties":{"kind":"circle","radius_m":1200,"label":"15 min walk"}},{"type":"Feature","geometry":{"type":"Point","coordinates":[13.4032794,52.5164279]},"properties":{"kind":"poi","name":"Hochschule für Musik Hanns Eisler Berlin","category":"university","color":"#0891b2","fa_icon":"fa-graduation-cap","wikidata":"Q569460","website":"https://www.hfm-berlin.de/","courses_url":"https://www.hfm-berlin.de/"}},{"type":"Feature","geometry":{"type":"Point","coordinates":[13.3930145,52.5252246]},"properties":{"kind":"poi","name":"Oranienburger Straße","category":"transit","color":"#0369a1","fa_icon":"fa-bus","wikidata":"Q480249"}},{"type":"Feature","geometry":{"type":"Point","coordinates":[13.4104868,52.5276951]},"properties":{"kind":"poi","name":"Rosa-Luxemburg-Platz","category":"transit","color":"#0369a1","fa_icon":"fa-bus","wikidata":"Q658790"}},{"type":"Feature","geometry":{"type":"Point","coordinates":[13.4165412,52.5243656]},"properties":{"kind":"poi","name":"Lernort Keibelstraße","category":"museum","color":"#b45309","fa_icon":"fa-landmark","wikidata":"Q84322842","ticket_url":"https://github.com/features/copilot"}},{"type":"Feature","geometry":{"type":"Point","coordinates":[13.3948424,52.5157591]},"properties":{"kind":"poi","name":"St. Hedwigs-Kathedrale Berlin","category":"monument","color":"#be123c","fa_icon":"fa-monument","wikidata":"Q170123","wikipedia_url":"https://en.wikipedia.org/wiki/St._Hedwig%27s_Cathedral"}},{"type":"Feature","geometry":{"type":"Point","coordinates":[13.3983173,52.5208337]},"properties":{"kind":"poi","name":"Alte Nationalgalerie","category":"museum","color":"#b45309","fa_icon":"fa-landmark","wikidata":"Q162111","website":"https://www.smb.museum/en/museums-institutions/alte-nationalgalerie/home/","ticket_url":"https://www.smb.museum/en/museums-institutions/alte-nationalgalerie/home/"}},{"type":"Feature","geometry":{"type":"Point","coordinates":[13.4094213,52.5208198]},"properties":{"kind":"poi","name":"Berliner Fernsehturm","category":"monument","color":"#be123c","fa_icon":"fa-monument","wikidata":"Q151356","wikipedia_url":"https://de.wikipedia.org/wiki/Berliner_Fernsehturm"}},{"type":"Feature","geometry":{"type":"Point","coordinates":[13.4603442,52.4731643]},"properties":{"kind":"poi","name":"Humboldt Universität zu Berlin","category":"university","color":"#0891b2","fa_icon":"fa-graduation-cap","wikidata":"Q152087","courses_url":"https://www.hu-berlin.de/en"}},{"type":"Feature","geometry":{"type":"Point","coordinates":[13.4101754,52.5123348]},"properties":{"kind":"poi","name":"Märkisches Museum","category":"transit","color":"#0369a1","fa_icon":"fa-bus","wikidata":"Q657871"}},{"type":"Feature","geometry":{"type":"Point","coordinates":[13.4004902,52.512246]},"properties":{"kind":"poi","name":"Südpark","category":"park","color":"#16a34a","fa_icon":"fa-tree","wikidata":"Q113500890"}}]}