{"type":"FeatureCollection","features":[{"type":"Feature","geometry":{"type":"Point","coordinates":[-71.0589,42.3601]},"properties":{"kind":"circle","radius_m":400,"label":"5 min walk"}},{"type":"Feature","geometry":{"type":"Point","coordinates":[-71.0589,42.3601]},"properties":{"kind":"circle","radius_m":800,"label":"10 min walk"}},{"type":"Feature","geometry":{"type":"Point","coordinates":[-71.0589,42.3601]},"properties":{"kind":"circle","radius_m":1200,"label":"15 min walk"}},{"type":"Feature","geometry":{"type":"Point","coordinates":[-71.0555329,42.3507463]},"properties":{"kind":"poi","name":"South Station","category":"train_station","color":"#2563eb","fa_icon":"fa-train","wikidata":"Q54453","website":"https://www.mbta.com/"}},{"type":"Feature","geometry":{"type":"Point","coordinates":[-71.0561189,42.3601131]},"properties":{"kind":"poi","name":"Ancient and Honorable Artillery Company Museum","category":"museum","color":"#b45309","fa_icon":"fa-landmark","wikidata":"Q4752939","website":"http://www.ahac.us.com/","ticket_url":"http://www.ahac.us.com/"}},{"type":"Feature","geometry":{"type":"Point","coordinates":[-71.069998,42.3540568]},"properties":{"kind":"poi","name":"Boston Public Garden","category":"park","color":"#16a34a","fa_icon":"fa-tree","wikidata":"Q894579","website":"https://friendsofthepublicgarden.org/our-parks/the-garden/"}},{"type":"Feature","geometry":{"type":"Point","coordinates":[-71.0621623,42.3615089]},"properties":{"kind":"poi","name":"Cardinal Cushing Memorial Park","category":"park","color":"#16a34a","fa_icon":"fa-tree","wikidata":"Q75044259"}},{"type":"Feature","geometry":{"type":"Point","coordinates":[-71.0627626,42.366865]},"properties":{"kind":"poi","name":"Boston North Station","category":"train_station","color":"#2563eb","fa_icon":"fa-train","wikidata":"Q54454"}},{"type":"Feature","geometry":{"type":"Point","coordinates":[-71.0604412,42.3554887]},"properties":{"kind":"poi","name":"Downtown Crossing","category":"transit","color":"#0369a1","fa_icon":"fa-bus","wikidata":"Q2920811","website":"https://www.mbta.com/stops/place-dwnxg"}},{"type":"Feature","geometry":{"type":"Point","coordinates":[-71.0561979,42.3669142]},"properties":{"kind":"poi","name":"Skinny House","category":"monument","color":"#be123c","fa_icon":"fa-monument","wikidata":"Q7535575","wikipedia_url":"https://en.wikipedia.org/wiki/Skinny_(rapper)"}},{"type":"Feature","geometry":{"type":"Point","coordinates":[-71.0679004,42.3634958]},"properties":{"kind":"poi","name":"Ether Dome","category":"museum","color":"#b45309","fa_icon":"fa-landmark","wikidata":"Q257073","ticket_url":"https://vi.wikipedia.org/wiki/Ether"}},{"type":"Feature","geometry":{"type":"Point","coordinates":[-71.0536259,42.3551521]},"properties":{"kind":"poi","name":"Boston National Historical Park","category":"park","color":"#16a34a","fa_icon":"fa-tree"}},{"type":"Feature","geometry":{"type":"Point","coordinates":[-71.0678636,42.3589639]},"properties":{"kind":"poi","name":"Phillips School","category":"museum","color":"#b45309","fa_icon":"fa-landmark"}},{"type":"Feature","geometry":{"type":"Point","coordinates":[-71.0495536,42.3639805]},"properties":{"kind":"poi","name":"Pilot House Park","category":"park","color":"#16a34a","fa_icon":"fa-tree"}}]}