{"type":"FeatureCollection","features":[{"type":"Feature","geometry":{"type":"Point","coordinates":[19.0402,47.4979]},"properties":{"kind":"circle","radius_m":400,"label":"5 min walk"}},{"type":"Feature","geometry":{"type":"Point","coordinates":[19.0402,47.4979]},"properties":{"kind":"circle","radius_m":800,"label":"10 min walk"}},{"type":"Feature","geometry":{"type":"Point","coordinates":[19.0402,47.4979]},"properties":{"kind":"circle","radius_m":1200,"label":"15 min walk"}},{"type":"Feature","geometry":{"type":"Point","coordinates":[19.0339537,47.5006451]},"properties":{"kind":"poi","name":"Arany Sas Patikamúzeum","category":"museum","color":"#b45309","fa_icon":"fa-landmark","wikidata":"Q775117","website":"https://semmelweismuseum.hu/arany-sas-patikamuzeum/","ticket_url":"https://semmelweismuseum.hu/arany-sas-patikamuzeum/"}},{"type":"Feature","geometry":{"type":"Point","coordinates":[19.0404987,47.4954582]},"properties":{"kind":"poi","name":"Budapesti Történeti Múzeum","category":"museum","color":"#b45309","fa_icon":"fa-landmark","wikidata":"Q776086","website":"https://www.varmuzeum.hu/","ticket_url":"https://www.varmuzeum.hu/"}},{"type":"Feature","geometry":{"type":"Point","coordinates":[19.0473442,47.4995462]},"properties":{"kind":"poi","name":"Széchenyi István tér","category":"park","color":"#16a34a","fa_icon":"fa-tree","wikidata":"Q755089"}},{"type":"Feature","geometry":{"type":"Point","coordinates":[19.0389547,47.5038103]},"properties":{"kind":"poi","name":"Szilágyi Dezső téri református templom","category":"monument","color":"#be123c","fa_icon":"fa-monument","wikidata":"Q16522996","wikipedia_url":"https://hu.wikipedia.org/wiki/Szil%C3%A1gyi_Dezs%C5%91_t%C3%A9ri_reform%C3%A1tus_templom"}},{"type":"Feature","geometry":{"type":"Point","coordinates":[19.0517021,47.4924625]},"properties":{"kind":"poi","name":"Contra-Aquincum","category":"monument","color":"#be123c","fa_icon":"fa-monument","wikidata":"Q667713","wikipedia_url":"https://de.wikipedia.org/wiki/Contra_Aquincum"}},{"type":"Feature","geometry":{"type":"Point","coordinates":[19.0436868,47.4910185]},"properties":{"kind":"poi","name":"Eszperantó park","category":"park","color":"#16a34a","fa_icon":"fa-tree","wikidata":"Q991703"}},{"type":"Feature","geometry":{"type":"Point","coordinates":[19.032172,47.5051426]},"properties":{"kind":"poi","name":"Európa liget","category":"park","color":"#16a34a","fa_icon":"fa-tree","wikidata":"Q993028"}},{"type":"Feature","geometry":{"type":"Point","coordinates":[19.045872,47.5070937]},"properties":{"kind":"poi","name":"Országház","category":"monument","color":"#be123c","fa_icon":"fa-monument","wikidata":"Q11819","website":"https://latogatokozpont.parlament.hu","wikipedia_url":"https://en.wikipedia.org/wiki/Hungarian_Parliament_Building"}},{"type":"Feature","geometry":{"type":"Point","coordinates":[19.0358711,47.4900593]},"properties":{"kind":"poi","name":"Czakó Piacz","category":"market","color":"#65a30d","fa_icon":"fa-store"}}]}