{"type":"FeatureCollection","features":[{"type":"Feature","geometry":{"type":"Point","coordinates":[-58.3816,-34.6037]},"properties":{"kind":"circle","radius_m":400,"label":"5 min walk"}},{"type":"Feature","geometry":{"type":"Point","coordinates":[-58.3816,-34.6037]},"properties":{"kind":"circle","radius_m":800,"label":"10 min walk"}},{"type":"Feature","geometry":{"type":"Point","coordinates":[-58.3816,-34.6037]},"properties":{"kind":"circle","radius_m":1200,"label":"15 min walk"}},{"type":"Feature","geometry":{"type":"Point","coordinates":[-58.3738806,-34.6087695]},"properties":{"kind":"poi","name":"Museo Histórico Nacional del Cabildo y de la Revolución de Mayo","category":"museum","color":"#b45309","fa_icon":"fa-landmark","wikidata":"Q1024829","website":"https://cabildonacional.cultura.gob.ar/","ticket_url":"https://cabildonacional.cultura.gob.ar/"}},{"type":"Feature","geometry":{"type":"Point","coordinates":[-58.3895532,-34.5980366]},"properties":{"kind":"poi","name":"Museo del Holocausto","category":"museum","color":"#b45309","fa_icon":"fa-landmark","wikidata":"Q6034447","website":"https://www.museodelholocausto.org.ar/","ticket_url":"https://www.museodelholocausto.org.ar/"}},{"type":"Feature","geometry":{"type":"Point","coordinates":[-58.3848777,-34.6014395]},"properties":{"kind":"poi","name":"Tribunales - Teatro Colón","category":"transit","color":"#0369a1","fa_icon":"fa-bus","wikidata":"Q3296608"}},{"type":"Feature","geometry":{"type":"Point","coordinates":[-58.3743531,-34.5996894]},"properties":{"kind":"poi","name":"Museo Nacional de Arte Oriental","category":"museum","color":"#b45309","fa_icon":"fa-landmark","wikidata":"Q50358716","website":"https://mnao.cultura.gob.ar/","ticket_url":"https://mnao.cultura.gob.ar/"}},{"type":"Feature","geometry":{"type":"Point","coordinates":[-58.3882251,-34.6095804]},"properties":{"kind":"poi","name":"Plaza Mariano Moreno","category":"park","color":"#16a34a","fa_icon":"fa-tree","wikidata":"Q55980025"}},{"type":"Feature","geometry":{"type":"Point","coordinates":[-58.3808959,-34.608771]},"properties":{"kind":"poi","name":"Cataratas del Iguazú, Misiones","category":"monument","color":"#be123c","fa_icon":"fa-monument","wikidata":"Q28605571"}},{"type":"Feature","geometry":{"type":"Point","coordinates":[-58.3850263,-34.5954882]},"properties":{"kind":"poi","name":"Museo Regina Pacini de Alvear","category":"museum","color":"#b45309","fa_icon":"fa-landmark","wikidata":"Q63442246","website":"http://casadelteatro.org.ar/museo-regina-pacini/","ticket_url":"http://casadelteatro.org.ar/museo-regina-pacini/"}},{"type":"Feature","geometry":{"type":"Point","coordinates":[-58.3720766,-34.6042633]},"properties":{"kind":"poi","name":"Archivo y Museo del Banco de la Provincia de Buenos Aires","category":"museum","color":"#b45309","fa_icon":"fa-landmark","wikidata":"Q65483176","website":"http://www.bapro.com.ar/museo","ticket_url":"http://www.bapro.com.ar/museo"}},{"type":"Feature","geometry":{"type":"Point","coordinates":[-58.3762795,-34.5946413]},"properties":{"kind":"poi","name":"Plaza San Martín","category":"park","color":"#16a34a","fa_icon":"fa-tree","wikidata":"Q2099124"}},{"type":"Feature","geometry":{"type":"Point","coordinates":[-58.3913472,-34.6040158]},"properties":{"kind":"poi","name":"UMSA - Universidad del Museo Social Argentino","category":"university","color":"#0891b2","fa_icon":"fa-graduation-cap","courses_url":"https://tw.news.yahoo.com/%E5%BC%B5%E8%8F%B273%E6%AD%B2%E8%BF%91%E6%B3%81%E6%9B%9D%E5%85%89-%E9%81%AD%E7%88%86-%E9%9B%A2%E9%96%8B%E5%8F%B0%E7%81%A3-%E4%B8%8B-%E7%AB%99-063907222.html"}}]}