{"type":"FeatureCollection","features":[{"type":"Feature","geometry":{"type":"Point","coordinates":[-66.9036,10.4806]},"properties":{"kind":"circle","radius_m":400,"label":"5 min walk"}},{"type":"Feature","geometry":{"type":"Point","coordinates":[-66.9036,10.4806]},"properties":{"kind":"circle","radius_m":800,"label":"10 min walk"}},{"type":"Feature","geometry":{"type":"Point","coordinates":[-66.9036,10.4806]},"properties":{"kind":"circle","radius_m":1200,"label":"15 min walk"}},{"type":"Feature","geometry":{"type":"Point","coordinates":[-66.8919633,10.4901798]},"properties":{"kind":"poi","name":"Universidad Central de Venezuela","category":"university","color":"#0891b2","fa_icon":"fa-graduation-cap","wikidata":"Q936476","website":"http://www.ucv.ve/","courses_url":"http://www.ucv.ve/"}},{"type":"Feature","geometry":{"type":"Point","coordinates":[-66.8951699,10.4837793]},"properties":{"kind":"poi","name":"Los Símbolos","category":"transit","color":"#0369a1","fa_icon":"fa-bus","wikidata":"Q5980417"}},{"type":"Feature","geometry":{"type":"Point","coordinates":[-66.9008891,10.4794192]},"properties":{"kind":"poi","name":"La Bandera","category":"transit","color":"#0369a1","fa_icon":"fa-bus","wikidata":"Q5661169"}}]}