{"type":"FeatureCollection","features":[{"type":"Feature","geometry":{"type":"Point","coordinates":[-87.6298,41.8781]},"properties":{"kind":"circle","radius_m":400,"label":"5 min walk"}},{"type":"Feature","geometry":{"type":"Point","coordinates":[-87.6298,41.8781]},"properties":{"kind":"circle","radius_m":800,"label":"10 min walk"}},{"type":"Feature","geometry":{"type":"Point","coordinates":[-87.6298,41.8781]},"properties":{"kind":"circle","radius_m":1200,"label":"15 min walk"}},{"type":"Feature","geometry":{"type":"Point","coordinates":[-87.6390928,41.8786411]},"properties":{"kind":"poi","name":"Chicago Union Station","category":"train_station","color":"#2563eb","fa_icon":"fa-train","wikidata":"Q1155989","website":"https://www.amtrak.com/stations/chi.html"}},{"type":"Feature","geometry":{"type":"Point","coordinates":[-87.6246632,41.8806197]},"properties":{"kind":"poi","name":"Pritzker Military Museum & Library","category":"museum","color":"#b45309","fa_icon":"fa-landmark","wikidata":"Q588030","website":"https://www.pritzkermilitary.org/","ticket_url":"https://www.pritzkermilitary.org/"}},{"type":"Feature","geometry":{"type":"Point","coordinates":[-87.62507,41.871231]},"properties":{"kind":"poi","name":"East West University","category":"university","color":"#0891b2","fa_icon":"fa-graduation-cap","wikidata":"Q5331048","website":"https://www.eastwest.edu/","courses_url":"https://www.eastwest.edu/"}},{"type":"Feature","geometry":{"type":"Point","coordinates":[-87.6338517,41.8824096]},"properties":{"kind":"poi","name":"Washington/Wells","category":"transit","color":"#0369a1","fa_icon":"fa-bus","wikidata":"Q3566498","website":"https://www.transitchicago.com/station/wasw/"}},{"type":"Feature","geometry":{"type":"Point","coordinates":[-87.6176085,41.8827196]},"properties":{"kind":"poi","name":"Maggie Daley Park","category":"park","color":"#16a34a","fa_icon":"fa-tree","wikidata":"Q17080119","website":"https://maggiedaleypark.com/"}},{"type":"Feature","geometry":{"type":"Point","coordinates":[-87.6258243,41.8872333]},"properties":{"kind":"poi","name":"Chicago Riverwalk","category":"park","color":"#16a34a","fa_icon":"fa-tree","wikidata":"Q5095770"}},{"type":"Feature","geometry":{"type":"Point","coordinates":[-87.6189721,41.8758019]},"properties":{"kind":"poi","name":"Buckingham Fountain","category":"monument","color":"#be123c","fa_icon":"fa-monument","wikidata":"Q158989","website":"https://www.chicagoparkdistrict.com/parks/clarence-f-buckingham-memorial-fountain/","wikipedia_url":"https://en.wikipedia.org/wiki/Buckingham_Fountain"}},{"type":"Feature","geometry":{"type":"Point","coordinates":[-87.6349264,41.8720826]},"properties":{"kind":"poi","name":"Polk Street Pier","category":"park","color":"#16a34a","fa_icon":"fa-tree"}}]}