{"type":"FeatureCollection","features":[{"type":"Feature","geometry":{"type":"Point","coordinates":[79.8612,6.9271]},"properties":{"kind":"circle","radius_m":400,"label":"5 min walk"}},{"type":"Feature","geometry":{"type":"Point","coordinates":[79.8612,6.9271]},"properties":{"kind":"circle","radius_m":800,"label":"10 min walk"}},{"type":"Feature","geometry":{"type":"Point","coordinates":[79.8612,6.9271]},"properties":{"kind":"circle","radius_m":1200,"label":"15 min walk"}},{"type":"Feature","geometry":{"type":"Point","coordinates":[79.8555267,6.9327253]},"properties":{"kind":"poi","name":"Pettah Floating Market","category":"monument","color":"#be123c","fa_icon":"fa-monument","wikidata":"Q20987458","wikipedia_url":"https://en.wikipedia.org/wiki/Pettah_Floating_Market"}},{"type":"Feature","geometry":{"type":"Point","coordinates":[79.865796,6.9292373]},"properties":{"kind":"poi","name":"Maradana","category":"train_station","color":"#2563eb","fa_icon":"fa-train","wikidata":"Q6754588"}},{"type":"Feature","geometry":{"type":"Point","coordinates":[79.8548403,6.9265634]},"properties":{"kind":"poi","name":"Beira Lake Linear Park","category":"park","color":"#16a34a","fa_icon":"fa-tree"}},{"type":"Feature","geometry":{"type":"Point","coordinates":[79.8611734,6.9185185]},"properties":{"kind":"poi","name":"APIIT","category":"university","color":"#0891b2","fa_icon":"fa-graduation-cap","courses_url":"https://apiit.lk/"}}]}