{"type":"FeatureCollection","features":[{"type":"Feature","geometry":{"type":"Point","coordinates":[-17.4677,14.7167]},"properties":{"kind":"circle","radius_m":400,"label":"5 min walk"}},{"type":"Feature","geometry":{"type":"Point","coordinates":[-17.4677,14.7167]},"properties":{"kind":"circle","radius_m":800,"label":"10 min walk"}},{"type":"Feature","geometry":{"type":"Point","coordinates":[-17.4677,14.7167]},"properties":{"kind":"circle","radius_m":1200,"label":"15 min walk"}},{"type":"Feature","geometry":{"type":"Point","coordinates":[-17.4858651,14.7369244]},"properties":{"kind":"poi","name":"Aéroport militaire - ancien aeroport international Léopold-Sédar-Senghor","category":"airport","color":"#7c3aed","fa_icon":"fa-plane","wikidata":"Q513689"}},{"type":"Feature","geometry":{"type":"Point","coordinates":[-17.4652941,14.7142953]},"properties":{"kind":"poi","name":"Université Internationale des Diasporas Africaines","category":"university","color":"#0891b2","fa_icon":"fa-graduation-cap","courses_url":"https://github.com/features/copilot"}},{"type":"Feature","geometry":{"type":"Point","coordinates":[-17.4721433,14.7130133]},"properties":{"kind":"poi","name":"Universités Alioune Diop de Bambey","category":"university","color":"#0891b2","fa_icon":"fa-graduation-cap","courses_url":"https://www.ilovepdf.com/ja"}},{"type":"Feature","geometry":{"type":"Point","coordinates":[-17.4606542,14.7135701]},"properties":{"kind":"poi","name":"Institut IPAC","category":"university","color":"#0891b2","fa_icon":"fa-graduation-cap","courses_url":"https://gmdkoreaforum.com/"}}]}