{"type":"FeatureCollection","features":[{"type":"Feature","geometry":{"type":"Point","coordinates":[39.2083,-6.7924]},"properties":{"kind":"circle","radius_m":400,"label":"5 min walk"}},{"type":"Feature","geometry":{"type":"Point","coordinates":[39.2083,-6.7924]},"properties":{"kind":"circle","radius_m":800,"label":"10 min walk"}},{"type":"Feature","geometry":{"type":"Point","coordinates":[39.2083,-6.7924]},"properties":{"kind":"circle","radius_m":1200,"label":"15 min walk"}},{"type":"Feature","geometry":{"type":"Point","coordinates":[39.2045074,-6.7799912]},"properties":{"kind":"poi","name":"University of Dar es Salaam","category":"university","color":"#0891b2","fa_icon":"fa-graduation-cap","wikidata":"Q557597","courses_url":"https://dictionary.cambridge.org/vi/dictionary/english/university"}},{"type":"Feature","geometry":{"type":"Point","coordinates":[39.2166547,-6.7861511]},"properties":{"kind":"poi","name":"The Law School of Tanzania","category":"university","color":"#0891b2","fa_icon":"fa-graduation-cap","website":"https://www.lst.ac.tz/","courses_url":"https://www.lst.ac.tz/"}},{"type":"Feature","geometry":{"type":"Point","coordinates":[39.2142063,-6.7988378]},"properties":{"kind":"poi","name":"Ubungo Maziwa","category":"train_station","color":"#2563eb","fa_icon":"fa-train"}},{"type":"Feature","geometry":{"type":"Point","coordinates":[39.2057054,-6.7875706]},"properties":{"kind":"poi","name":"Ubungo Maji","category":"park","color":"#16a34a","fa_icon":"fa-tree"}}]}