{"type":"FeatureCollection","features":[{"type":"Feature","geometry":{"type":"Point","coordinates":[-6.2603,53.3498]},"properties":{"kind":"circle","radius_m":400,"label":"5 min walk"}},{"type":"Feature","geometry":{"type":"Point","coordinates":[-6.2603,53.3498]},"properties":{"kind":"circle","radius_m":800,"label":"10 min walk"}},{"type":"Feature","geometry":{"type":"Point","coordinates":[-6.2603,53.3498]},"properties":{"kind":"circle","radius_m":1200,"label":"15 min walk"}},{"type":"Feature","geometry":{"type":"Point","coordinates":[-6.2641919,53.3425764]},"properties":{"kind":"poi","name":"George's Street Arcade","category":"market","color":"#65a30d","fa_icon":"fa-store","wikidata":"Q5535867","website":"https://www.georgesstreetarcade.ie/"}},{"type":"Feature","geometry":{"type":"Point","coordinates":[-6.2479785,53.3482653]},"properties":{"kind":"poi","name":"EPIC The Irish Emigration Museum","category":"museum","color":"#b45309","fa_icon":"fa-landmark","wikidata":"Q29831711","website":"https://epicchq.com/","ticket_url":"https://epicchq.com/"}},{"type":"Feature","geometry":{"type":"Point","coordinates":[-6.2688605,53.347316]},"properties":{"kind":"poi","name":"National Leprechaun Museum","category":"monument","color":"#be123c","fa_icon":"fa-monument","wikidata":"Q2811931","website":"https://www.leprechaunmuseum.ie/","wikipedia_url":"https://en.wikipedia.org/wiki/National_Leprechaun_Museum"}},{"type":"Feature","geometry":{"type":"Point","coordinates":[-6.2641707,53.353719]},"properties":{"kind":"poi","name":"Garden Of Remembrance","category":"park","color":"#16a34a","fa_icon":"fa-tree","wikidata":"Q375501"}},{"type":"Feature","geometry":{"type":"Point","coordinates":[-6.2544501,53.3437375]},"properties":{"kind":"poi","name":"Trinity College Dublin","category":"university","color":"#0891b2","fa_icon":"fa-graduation-cap","wikidata":"Q258464","website":"https://www.tcd.ie/","courses_url":"https://www.tcd.ie/"}},{"type":"Feature","geometry":{"type":"Point","coordinates":[-6.2730499,53.3521307]},"properties":{"kind":"poi","name":"Hungry Tree","category":"monument","color":"#be123c","fa_icon":"fa-monument","wikidata":"Q56867887","wikipedia_url":"https://en.wikipedia.org/wiki/Hungry_Tree"}},{"type":"Feature","geometry":{"type":"Point","coordinates":[-6.2533537,53.3570354]},"properties":{"kind":"poi","name":"Summer Street Community Garden","category":"park","color":"#16a34a","fa_icon":"fa-tree"}},{"type":"Feature","geometry":{"type":"Point","coordinates":[-6.2720336,53.357596]},"properties":{"kind":"poi","name":"Blessington Street Park","category":"park","color":"#16a34a","fa_icon":"fa-tree"}},{"type":"Feature","geometry":{"type":"Point","coordinates":[-6.252204,53.3520216]},"properties":{"kind":"poi","name":"Liberty Park","category":"park","color":"#16a34a","fa_icon":"fa-tree"}}]}