{"type":"FeatureCollection","features":[{"type":"Feature","geometry":{"type":"Point","coordinates":[24.9384,60.1699]},"properties":{"kind":"circle","radius_m":400,"label":"5 min walk"}},{"type":"Feature","geometry":{"type":"Point","coordinates":[24.9384,60.1699]},"properties":{"kind":"circle","radius_m":800,"label":"10 min walk"}},{"type":"Feature","geometry":{"type":"Point","coordinates":[24.9384,60.1699]},"properties":{"kind":"circle","radius_m":1200,"label":"15 min walk"}},{"type":"Feature","geometry":{"type":"Point","coordinates":[24.9312241,60.1714446]},"properties":{"kind":"poi","name":"Luonnontieteellinen museo","category":"museum","color":"#b45309","fa_icon":"fa-landmark","wikidata":"Q3330830","website":"https://www.luomus.fi/","ticket_url":"https://www.luomus.fi/"}},{"type":"Feature","geometry":{"type":"Point","coordinates":[24.9540256,60.1687584]},"properties":{"kind":"poi","name":"Helsingin kaupunginmuseo","category":"museum","color":"#b45309","fa_icon":"fa-landmark","wikidata":"Q2031357","website":"http://www.helsinginkaupunginmuseo.fi/","ticket_url":"http://www.helsinginkaupunginmuseo.fi/"}},{"type":"Feature","geometry":{"type":"Point","coordinates":[24.9314628,60.1661302]},"properties":{"kind":"poi","name":"Lapinlahden puistikko","category":"park","color":"#16a34a","fa_icon":"fa-tree","wikidata":"Q18660481"}},{"type":"Feature","geometry":{"type":"Point","coordinates":[24.9466147,60.1630866]},"properties":{"kind":"poi","name":"Arkkitehtuuri- ja designmuseo","category":"museum","color":"#b45309","fa_icon":"fa-landmark","wikidata":"Q78724098","website":"https://www.admuseo.fi/","ticket_url":"https://www.admuseo.fi/"}},{"type":"Feature","geometry":{"type":"Point","coordinates":[24.9471157,60.1753344]},"properties":{"kind":"poi","name":"Kaisaniemen kasvitieteellinen puutarha","category":"monument","color":"#be123c","fa_icon":"fa-monument","wikidata":"Q3075676","website":"https://www.luomus.fi/fi/kaisaniemen-kasvitieteellinen-puutarha","wikipedia_url":"https://fi.wikipedia.org/wiki/Kaisaniemen_kasvitieteellinen_puutarha"}},{"type":"Feature","geometry":{"type":"Point","coordinates":[24.9335399,60.1613583]},"properties":{"kind":"poi","name":"Sinebrychoffinpuisto","category":"park","color":"#16a34a","fa_icon":"fa-tree","wikidata":"Q3363915"}},{"type":"Feature","geometry":{"type":"Point","coordinates":[24.9333423,60.1799966]},"properties":{"kind":"poi","name":"Hesperianpuisto","category":"park","color":"#16a34a","fa_icon":"fa-tree","wikidata":"Q11862478"}},{"type":"Feature","geometry":{"type":"Point","coordinates":[24.9628796,60.1997743]},"properties":{"kind":"poi","name":"Helsingin yliopisto","category":"university","color":"#0891b2","fa_icon":"fa-graduation-cap","wikidata":"Q28695","website":"https://www.helsinki.fi/","courses_url":"https://www.helsinki.fi/"}},{"type":"Feature","geometry":{"type":"Point","coordinates":[24.921855,60.1766628]},"properties":{"kind":"poi","name":"Hesperianesplanadi","category":"park","color":"#16a34a","fa_icon":"fa-tree","wikidata":"Q18659009"}}]}