{"type":"FeatureCollection","features":[{"type":"Feature","geometry":{"type":"Point","coordinates":[106.6297,10.8231]},"properties":{"kind":"circle","radius_m":400,"label":"5 min walk"}},{"type":"Feature","geometry":{"type":"Point","coordinates":[106.6297,10.8231]},"properties":{"kind":"circle","radius_m":800,"label":"10 min walk"}},{"type":"Feature","geometry":{"type":"Point","coordinates":[106.6297,10.8231]},"properties":{"kind":"circle","radius_m":1200,"label":"15 min walk"}},{"type":"Feature","geometry":{"type":"Point","coordinates":[106.6370041,10.8211038]},"properties":{"kind":"poi","name":"Công viên Nguyễn Sỹ Sách","category":"park","color":"#16a34a","fa_icon":"fa-tree"}}]}