{"type":"FeatureCollection","features":[{"type":"Feature","geometry":{"type":"Point","coordinates":[-95.3698,29.7604]},"properties":{"kind":"circle","radius_m":400,"label":"5 min walk"}},{"type":"Feature","geometry":{"type":"Point","coordinates":[-95.3698,29.7604]},"properties":{"kind":"circle","radius_m":800,"label":"10 min walk"}},{"type":"Feature","geometry":{"type":"Point","coordinates":[-95.3698,29.7604]},"properties":{"kind":"circle","radius_m":1200,"label":"15 min walk"}},{"type":"Feature","geometry":{"type":"Point","coordinates":[-95.3780318,29.7612523]},"properties":{"kind":"poi","name":"Eleanor Tinsley Park","category":"park","color":"#16a34a","fa_icon":"fa-tree","wikidata":"Q5354404"}},{"type":"Feature","geometry":{"type":"Point","coordinates":[-95.3651263,29.7641682]},"properties":{"kind":"poi","name":"Sesquicentennial Park","category":"park","color":"#16a34a","fa_icon":"fa-tree","wikidata":"Q7456095"}},{"type":"Feature","geometry":{"type":"Point","coordinates":[-95.3717456,29.7599294]},"properties":{"kind":"poi","name":"Sam Houston Park","category":"park","color":"#16a34a","fa_icon":"fa-tree","wikidata":"Q7407645"}},{"type":"Feature","geometry":{"type":"Point","coordinates":[-95.3658244,29.7558446]},"properties":{"kind":"poi","name":"Main Street Square (southbound)","category":"transit","color":"#0369a1","fa_icon":"fa-bus","wikidata":"Q6736169"}},{"type":"Feature","geometry":{"type":"Point","coordinates":[-95.3599823,29.7654794]},"properties":{"kind":"poi","name":"Johnny Goyen Park","category":"park","color":"#16a34a","fa_icon":"fa-tree","wikidata":"Q135972852"}},{"type":"Feature","geometry":{"type":"Point","coordinates":[-95.3919763,29.7617587]},"properties":{"kind":"poi","name":"Buffalo Bayou Park","category":"park","color":"#16a34a","fa_icon":"fa-tree","wikidata":"Q104844896","website":"https://buffalobayou.org"}},{"type":"Feature","geometry":{"type":"Point","coordinates":[-95.376245,29.7555097]},"properties":{"kind":"poi","name":"Bethel Church Park","category":"park","color":"#16a34a","fa_icon":"fa-tree","wikidata":"Q115218000"}},{"type":"Feature","geometry":{"type":"Point","coordinates":[-95.3780484,29.765859]},"properties":{"kind":"poi","name":"Dow Elementary Park","category":"park","color":"#16a34a","fa_icon":"fa-tree","wikidata":"Q115245283"}}]}