{"type":"FeatureCollection","features":[{"type":"Feature","geometry":{"type":"Point","coordinates":[106.8456,-6.2088]},"properties":{"kind":"circle","radius_m":400,"label":"5 min walk"}},{"type":"Feature","geometry":{"type":"Point","coordinates":[106.8456,-6.2088]},"properties":{"kind":"circle","radius_m":800,"label":"10 min walk"}},{"type":"Feature","geometry":{"type":"Point","coordinates":[106.8456,-6.2088]},"properties":{"kind":"circle","radius_m":1200,"label":"15 min walk"}},{"type":"Feature","geometry":{"type":"Point","coordinates":[106.849935,-6.2101704]},"properties":{"kind":"poi","name":"Manggarai","category":"train_station","color":"#2563eb","fa_icon":"fa-train","wikidata":"Q2546915"}},{"type":"Feature","geometry":{"type":"Point","coordinates":[106.8465895,-6.2034746]},"properties":{"kind":"poi","name":"Taman Proklamasi","category":"park","color":"#16a34a","fa_icon":"fa-tree"}},{"type":"Feature","geometry":{"type":"Point","coordinates":[106.8429691,-6.2160041]},"properties":{"kind":"poi","name":"Taman Inetraktif Baturaya","category":"park","color":"#16a34a","fa_icon":"fa-tree"}},{"type":"Feature","geometry":{"type":"Point","coordinates":[106.8375602,-6.2084211]},"properties":{"kind":"poi","name":"Pasar Jaya Manggis","category":"market","color":"#65a30d","fa_icon":"fa-store"}},{"type":"Feature","geometry":{"type":"Point","coordinates":[106.8411248,-6.2037658]},"properties":{"kind":"poi","name":"Taman Sukabumi","category":"park","color":"#16a34a","fa_icon":"fa-tree"}}]}