{"type":"FeatureCollection","features":[{"type":"Feature","geometry":{"type":"Point","coordinates":[28.0473,-26.2041]},"properties":{"kind":"circle","radius_m":400,"label":"5 min walk"}},{"type":"Feature","geometry":{"type":"Point","coordinates":[28.0473,-26.2041]},"properties":{"kind":"circle","radius_m":800,"label":"10 min walk"}},{"type":"Feature","geometry":{"type":"Point","coordinates":[28.0473,-26.2041]},"properties":{"kind":"circle","radius_m":1200,"label":"15 min walk"}},{"type":"Feature","geometry":{"type":"Point","coordinates":[28.0423048,-26.1976708]},"properties":{"kind":"poi","name":"Johannesburg Park Station","category":"train_station","color":"#2563eb","fa_icon":"fa-train","wikidata":"Q5175720"}},{"type":"Feature","geometry":{"type":"Point","coordinates":[28.0394465,-26.2046141]},"properties":{"kind":"poi","name":"Beyers Naudé Square","category":"park","color":"#16a34a","fa_icon":"fa-tree","wikidata":"Q18110423"}},{"type":"Feature","geometry":{"type":"Point","coordinates":[28.0444075,-26.2119706]},"properties":{"kind":"poi","name":"Faraday","category":"train_station","color":"#2563eb","fa_icon":"fa-train","wikidata":"Q124425238"}},{"type":"Feature","geometry":{"type":"Point","coordinates":[28.0526629,-26.2066777]},"properties":{"kind":"poi","name":"Port Plein Park","category":"park","color":"#16a34a","fa_icon":"fa-tree"}}]}