{"type":"FeatureCollection","features":[{"type":"Feature","geometry":{"type":"Point","coordinates":[30.5234,50.4501]},"properties":{"kind":"circle","radius_m":400,"label":"5 min walk"}},{"type":"Feature","geometry":{"type":"Point","coordinates":[30.5234,50.4501]},"properties":{"kind":"circle","radius_m":800,"label":"10 min walk"}},{"type":"Feature","geometry":{"type":"Point","coordinates":[30.5234,50.4501]},"properties":{"kind":"circle","radius_m":1200,"label":"15 min walk"}},{"type":"Feature","geometry":{"type":"Point","coordinates":[30.5155394,50.4440025]},"properties":{"kind":"poi","name":"Київський літературно-меморіальний музей-квартира М. Бажана","category":"museum","color":"#b45309","fa_icon":"fa-landmark","wikidata":"Q12110249","ticket_url":"https://www.servicenow.com/"}},{"type":"Feature","geometry":{"type":"Point","coordinates":[30.5190656,50.4580678]},"properties":{"kind":"poi","name":"Міський музей духовні скарби України","category":"museum","color":"#b45309","fa_icon":"fa-landmark","wikidata":"Q3399806","ticket_url":"https://support.yahoo-net.jp/PccYjcommon/s/article/H000012569"}},{"type":"Feature","geometry":{"type":"Point","coordinates":[30.5279667,50.4436848]},"properties":{"kind":"poi","name":"Будинок плачущої вдови","category":"monument","color":"#be123c","fa_icon":"fa-monument","wikidata":"Q4165554","wikipedia_url":"https://en.m.wikipedia.org/wiki/Apple_Inc."}},{"type":"Feature","geometry":{"type":"Point","coordinates":[30.529974,50.4544425]},"properties":{"kind":"poi","name":"Арка Свободи українського народу","category":"monument","color":"#be123c","fa_icon":"fa-monument","wikidata":"Q2469034","wikipedia_url":"https://en.wikipedia.org/wiki/Arch_of_Freedom_of_the_Ukrainian_People"}},{"type":"Feature","geometry":{"type":"Point","coordinates":[30.5270321,50.4590888]},"properties":{"kind":"poi","name":"Київський річковий вокзал","category":"monument","color":"#be123c","fa_icon":"fa-monument","wikidata":"Q2657970","website":"https://rpea.com.ua/","wikipedia_url":"https://en.wikipedia.org/wiki/Kyiv_River_Station"}},{"type":"Feature","geometry":{"type":"Point","coordinates":[30.513427,50.4488317]},"properties":{"kind":"poi","name":"Золотоворітський сквер","category":"park","color":"#16a34a","fa_icon":"fa-tree","wikidata":"Q12106970"}},{"type":"Feature","geometry":{"type":"Point","coordinates":[30.5252499,50.4488597]},"properties":{"kind":"poi","name":"Національна музична академія України","category":"university","color":"#0891b2","fa_icon":"fa-graduation-cap","wikidata":"Q1515426","website":"https://knmau.com.ua/","courses_url":"https://knmau.com.ua/"}},{"type":"Feature","geometry":{"type":"Point","coordinates":[30.4780133,50.4463403]},"properties":{"kind":"poi","name":"Національний медичний університет імені О. О. Богомольця","category":"university","color":"#0891b2","fa_icon":"fa-graduation-cap","wikidata":"Q4315019","courses_url":"https://bank.gov.ua/"}},{"type":"Feature","geometry":{"type":"Point","coordinates":[30.5349676,50.4499752]},"properties":{"kind":"poi","name":"Центральний парк культури і відпочинку","category":"park","color":"#16a34a","fa_icon":"fa-tree","wikidata":"Q3399829"}},{"type":"Feature","geometry":{"type":"Point","coordinates":[30.5445576,50.4472163]},"properties":{"kind":"poi","name":"Хрещатий парк","category":"park","color":"#16a34a","fa_icon":"fa-tree","wikidata":"Q3399866"}},{"type":"Feature","geometry":{"type":"Point","coordinates":[30.5120085,50.4548037]},"properties":{"kind":"poi","name":"Сквер київських інтелігентів","category":"park","color":"#16a34a","fa_icon":"fa-tree"}}]}