{"type":"FeatureCollection","features":[{"type":"Feature","geometry":{"type":"Point","coordinates":[74.3587,31.5204]},"properties":{"kind":"circle","radius_m":400,"label":"5 min walk"}},{"type":"Feature","geometry":{"type":"Point","coordinates":[74.3587,31.5204]},"properties":{"kind":"circle","radius_m":800,"label":"10 min walk"}},{"type":"Feature","geometry":{"type":"Point","coordinates":[74.3587,31.5204]},"properties":{"kind":"circle","radius_m":1200,"label":"15 min walk"}},{"type":"Feature","geometry":{"type":"Point","coordinates":[74.3517049,31.5254431]},"properties":{"kind":"poi","name":"University of Home Economics","category":"university","color":"#0891b2","fa_icon":"fa-graduation-cap","courses_url":"https://dictionary.cambridge.org/vi/dictionary/english/university"}},{"type":"Feature","geometry":{"type":"Point","coordinates":[74.3532105,31.520195]},"properties":{"kind":"poi","name":"Football League Practice Ground","category":"park","color":"#16a34a","fa_icon":"fa-tree"}},{"type":"Feature","geometry":{"type":"Point","coordinates":[74.3544228,31.5128091]},"properties":{"kind":"poi","name":"Ghalib Market","category":"park","color":"#16a34a","fa_icon":"fa-tree"}},{"type":"Feature","geometry":{"type":"Point","coordinates":[74.3647782,31.521581]},"properties":{"kind":"poi","name":"پل کالونی پارک","category":"park","color":"#16a34a","fa_icon":"fa-tree"}}]}