{"type":"FeatureCollection","features":[{"type":"Feature","geometry":{"type":"Point","coordinates":[-77.0428,-12.0464]},"properties":{"kind":"circle","radius_m":400,"label":"5 min walk"}},{"type":"Feature","geometry":{"type":"Point","coordinates":[-77.0428,-12.0464]},"properties":{"kind":"circle","radius_m":800,"label":"10 min walk"}},{"type":"Feature","geometry":{"type":"Point","coordinates":[-77.0428,-12.0464]},"properties":{"kind":"circle","radius_m":1200,"label":"15 min walk"}},{"type":"Feature","geometry":{"type":"Point","coordinates":[-77.0376031,-12.0451544]},"properties":{"kind":"poi","name":"Museo Señor de los Milagros","category":"museum","color":"#b45309","fa_icon":"fa-landmark","wikidata":"Q20021984","website":"https://selvasperu.org/","ticket_url":"https://selvasperu.org/"}},{"type":"Feature","geometry":{"type":"Point","coordinates":[-77.0429869,-12.0433696]},"properties":{"kind":"poi","name":"Plaza Ramón Castilla","category":"park","color":"#16a34a","fa_icon":"fa-tree","wikidata":"Q20747901"}},{"type":"Feature","geometry":{"type":"Point","coordinates":[-77.0450436,-12.0378189]},"properties":{"kind":"poi","name":"Estadio Alberto Gallardo","category":"stadium","color":"#ea580c","fa_icon":"fa-futbol","wikidata":"Q930349"}},{"type":"Feature","geometry":{"type":"Point","coordinates":[-77.0478375,-12.0490229]},"properties":{"kind":"poi","name":"Estadio Lolo Fernandez","category":"stadium","color":"#ea580c","fa_icon":"fa-futbol","wikidata":"Q8842833","website":"https://universitario.pe/"}},{"type":"Feature","geometry":{"type":"Point","coordinates":[-77.0357405,-12.052106]},"properties":{"kind":"poi","name":"Museo de Minerales Andrés del Castillo","category":"museum","color":"#b45309","fa_icon":"fa-landmark","website":"https://www.madc.com.pe/","ticket_url":"https://www.madc.com.pe/"}},{"type":"Feature","geometry":{"type":"Point","coordinates":[-77.0491208,-12.0430604]},"properties":{"kind":"poi","name":"Centro Comercial El Progreso","category":"market","color":"#65a30d","fa_icon":"fa-store"}},{"type":"Feature","geometry":{"type":"Point","coordinates":[-77.040475,-12.0521723]},"properties":{"kind":"poi","name":"Mercado Ilo","category":"market","color":"#65a30d","fa_icon":"fa-store"}},{"type":"Feature","geometry":{"type":"Point","coordinates":[-77.0449752,-12.054121]},"properties":{"kind":"poi","name":"UNFV Facultad","category":"university","color":"#0891b2","fa_icon":"fa-graduation-cap","courses_url":"https://www.inter-edu.com/univ/2025/schools/336/jisseki/"}}]}