{"type":"FeatureCollection","features":[{"type":"Feature","geometry":{"type":"Point","coordinates":[-9.1393,38.7223]},"properties":{"kind":"circle","radius_m":400,"label":"5 min walk"}},{"type":"Feature","geometry":{"type":"Point","coordinates":[-9.1393,38.7223]},"properties":{"kind":"circle","radius_m":800,"label":"10 min walk"}},{"type":"Feature","geometry":{"type":"Point","coordinates":[-9.1393,38.7223]},"properties":{"kind":"circle","radius_m":1200,"label":"15 min walk"}},{"type":"Feature","geometry":{"type":"Point","coordinates":[-9.142174,38.7155622]},"properties":{"kind":"poi","name":"Museu Nacional do Desporto","category":"museum","color":"#b45309","fa_icon":"fa-landmark","wikidata":"Q17167656","website":"http://www.socgeogeafialisboa.pt","ticket_url":"http://www.socgeogeafialisboa.pt"}},{"type":"Feature","geometry":{"type":"Point","coordinates":[-9.149145,38.7216803]},"properties":{"kind":"poi","name":"Museu Medeiros e Almeida","category":"museum","color":"#b45309","fa_icon":"fa-landmark","wikidata":"Q10333395","ticket_url":"https://gem.gov.in/"}},{"type":"Feature","geometry":{"type":"Point","coordinates":[-9.1420993,38.7255214]},"properties":{"kind":"poi","name":"Museu Miguel Bombarda","category":"museum","color":"#b45309","fa_icon":"fa-landmark","wikidata":"Q9871495","website":"https://aparteoutsider.org/?page_id=74","ticket_url":"https://aparteoutsider.org/?page_id=74"}},{"type":"Feature","geometry":{"type":"Point","coordinates":[-9.1486543,38.7162912]},"properties":{"kind":"poi","name":"Jardim do Príncipe Real","category":"park","color":"#16a34a","fa_icon":"fa-tree","wikidata":"Q1107447"}},{"type":"Feature","geometry":{"type":"Point","coordinates":[-9.1310096,38.716041]},"properties":{"kind":"poi","name":"Jardim Augusto Gil","category":"park","color":"#16a34a","fa_icon":"fa-tree","wikidata":"Q10305479"}},{"type":"Feature","geometry":{"type":"Point","coordinates":[-9.135242,38.7230897]},"properties":{"kind":"poi","name":"Intendente","category":"transit","color":"#0369a1","fa_icon":"fa-bus","wikidata":"Q1848345","website":"https://www.metrolisboa.pt/viajar/intendente/"}},{"type":"Feature","geometry":{"type":"Point","coordinates":[-9.1441403,38.7300407]},"properties":{"kind":"poi","name":"Jardim Henrique Lopes de Mendonça","category":"park","color":"#16a34a","fa_icon":"fa-tree","wikidata":"Q10305716"}},{"type":"Feature","geometry":{"type":"Point","coordinates":[-9.1329223,38.7292583]},"properties":{"kind":"poi","name":"Jardim do Caracol da Penha","category":"park","color":"#16a34a","fa_icon":"fa-tree","wikidata":"Q122699739"}},{"type":"Feature","geometry":{"type":"Point","coordinates":[-9.1290278,38.7218156]},"properties":{"kind":"poi","name":"Mercado de Sapadores","category":"market","color":"#65a30d","fa_icon":"fa-store"}}]}