{"type":"FeatureCollection","features":[{"type":"Feature","geometry":{"type":"Point","coordinates":[-118.2437,34.0522]},"properties":{"kind":"circle","radius_m":400,"label":"5 min walk"}},{"type":"Feature","geometry":{"type":"Point","coordinates":[-118.2437,34.0522]},"properties":{"kind":"circle","radius_m":800,"label":"10 min walk"}},{"type":"Feature","geometry":{"type":"Point","coordinates":[-118.2437,34.0522]},"properties":{"kind":"circle","radius_m":1200,"label":"15 min walk"}},{"type":"Feature","geometry":{"type":"Point","coordinates":[-118.2342859,34.0558624]},"properties":{"kind":"poi","name":"Los Angeles Union Station","category":"train_station","color":"#2563eb","fa_icon":"fa-train","wikidata":"Q198019"}},{"type":"Feature","geometry":{"type":"Point","coordinates":[-118.239796,34.0564211]},"properties":{"kind":"poi","name":"LA Plaza De Culturas Y Artes","category":"museum","color":"#b45309","fa_icon":"fa-landmark","wikidata":"Q6457196","website":"https://lapca.org/","ticket_url":"https://lapca.org/"}},{"type":"Feature","geometry":{"type":"Point","coordinates":[-118.2505295,34.0532901]},"properties":{"kind":"poi","name":"Museum of Contemporary Art","category":"museum","color":"#b45309","fa_icon":"fa-landmark","wikidata":"Q1134646","website":"https://www.moca.org/","ticket_url":"https://www.moca.org/"}},{"type":"Feature","geometry":{"type":"Point","coordinates":[-118.2386107,34.0496306]},"properties":{"kind":"poi","name":"Japanese American National Museum","category":"museum","color":"#b45309","fa_icon":"fa-landmark","wikidata":"Q1590419","website":"https://www.janm.org/","ticket_url":"https://www.janm.org/"}},{"type":"Feature","geometry":{"type":"Point","coordinates":[-118.2530252,34.0484079]},"properties":{"kind":"poi","name":"Pershing Square","category":"park","color":"#16a34a","fa_icon":"fa-tree","wikidata":"Q7170179"}},{"type":"Feature","geometry":{"type":"Point","coordinates":[-118.245585,34.0554332]},"properties":{"kind":"poi","name":"Gloria Molina Grand Park","category":"park","color":"#16a34a","fa_icon":"fa-tree"}},{"type":"Feature","geometry":{"type":"Point","coordinates":[-118.2417591,34.0608879]},"properties":{"kind":"poi","name":"Ord and Yale Street Park","category":"park","color":"#16a34a","fa_icon":"fa-tree","website":"https://recreation.parks.lacity.gov/park/ord-and-yale-street-park"}},{"type":"Feature","geometry":{"type":"Point","coordinates":[-118.2453918,34.0444004]},"properties":{"kind":"poi","name":"San Julian Park","category":"park","color":"#16a34a","fa_icon":"fa-tree"}}]}