{"type":"FeatureCollection","features":[{"type":"Feature","geometry":{"type":"Point","coordinates":[-3.7038,40.4168]},"properties":{"kind":"circle","radius_m":400,"label":"5 min walk"}},{"type":"Feature","geometry":{"type":"Point","coordinates":[-3.7038,40.4168]},"properties":{"kind":"circle","radius_m":800,"label":"10 min walk"}},{"type":"Feature","geometry":{"type":"Point","coordinates":[-3.7038,40.4168]},"properties":{"kind":"circle","radius_m":1200,"label":"15 min walk"}},{"type":"Feature","geometry":{"type":"Point","coordinates":[-3.7136222,40.4167403]},"properties":{"kind":"poi","name":"Palacio Real de Madrid","category":"museum","color":"#b45309","fa_icon":"fa-landmark","wikidata":"Q171517","website":"https://www.patrimonionacional.es/real-sitio/palacio-real-de-madrid","ticket_url":"https://www.patrimonionacional.es/real-sitio/palacio-real-de-madrid"}},{"type":"Feature","geometry":{"type":"Point","coordinates":[-3.7115931,40.4124918]},"properties":{"kind":"poi","name":"Capilla de Nuestra Señora y de san Juan de Letrán","category":"monument","color":"#be123c","fa_icon":"fa-monument","wikidata":"Q3656832"}},{"type":"Feature","geometry":{"type":"Point","coordinates":[-3.7036583,40.407675]},"properties":{"kind":"poi","name":"Mercado de San Fernando","category":"market","color":"#65a30d","fa_icon":"fa-store","wikidata":"Q6010571"}},{"type":"Feature","geometry":{"type":"Point","coordinates":[-3.6986718,40.4115901]},"properties":{"kind":"poi","name":"Mercado de Antón Martín","category":"market","color":"#65a30d","fa_icon":"fa-store","wikidata":"Q9031626","website":"https://www.mercadoantonmartin.com/"}},{"type":"Feature","geometry":{"type":"Point","coordinates":[-3.6976163,40.4219104]},"properties":{"kind":"poi","name":"Mercado de San Antón","category":"market","color":"#65a30d","fa_icon":"fa-store","wikidata":"Q6010567","website":"https://www.mercadosananton.com/"}},{"type":"Feature","geometry":{"type":"Point","coordinates":[-3.7046404,40.4198381]},"properties":{"kind":"poi","name":"Palacio de la Música","category":"monument","color":"#be123c","fa_icon":"fa-monument","wikidata":"Q6058318","wikipedia_url":"https://en.wikipedia.org/wiki/Gran_V%C3%ADa_35,_Madrid"}},{"type":"Feature","geometry":{"type":"Point","coordinates":[-3.6923891,40.4175183]},"properties":{"kind":"poi","name":"Museo Naval de Madrid","category":"museum","color":"#b45309","fa_icon":"fa-landmark","wikidata":"Q1815235","ticket_url":"https://m.yelp.com/biz/museo-naval-de-madrid-madrid"}},{"type":"Feature","geometry":{"type":"Point","coordinates":[-3.7078298,40.4245893]},"properties":{"kind":"poi","name":"Escuela de Relaciones Laborales","category":"university","color":"#0891b2","fa_icon":"fa-graduation-cap","wikidata":"Q21705070","website":"https://ucm.es/erl","courses_url":"https://ucm.es/erl"}},{"type":"Feature","geometry":{"type":"Point","coordinates":[-3.7045846,40.4123608]},"properties":{"kind":"poi","name":"Tirso de Molina","category":"transit","color":"#0369a1","fa_icon":"fa-bus","wikidata":"Q2474438","website":"https://www.metromadrid.es/es/linea/linea-1#estacion-113"}}]}