{"type":"FeatureCollection","features":[{"type":"Feature","geometry":{"type":"Point","coordinates":[-75.5812,6.2442]},"properties":{"kind":"circle","radius_m":400,"label":"5 min walk"}},{"type":"Feature","geometry":{"type":"Point","coordinates":[-75.5812,6.2442]},"properties":{"kind":"circle","radius_m":800,"label":"10 min walk"}},{"type":"Feature","geometry":{"type":"Point","coordinates":[-75.5812,6.2442]},"properties":{"kind":"circle","radius_m":1200,"label":"15 min walk"}},{"type":"Feature","geometry":{"type":"Point","coordinates":[-75.5810404,6.2353485]},"properties":{"kind":"poi","name":"Parque de las Esculturas","category":"monument","color":"#be123c","fa_icon":"fa-monument","wikidata":"Q2054038"}},{"type":"Feature","geometry":{"type":"Point","coordinates":[-75.5768759,6.2446759]},"properties":{"kind":"poi","name":"Parque de Los Pies Descalzos","category":"park","color":"#16a34a","fa_icon":"fa-tree","wikidata":"Q9055929"}},{"type":"Feature","geometry":{"type":"Point","coordinates":[-75.5890188,6.2421217]},"properties":{"kind":"poi","name":"Universidad Pontificia Bolivariana","category":"university","color":"#0891b2","fa_icon":"fa-graduation-cap","wikidata":"Q2038878","website":"http://www.upb.edu.co","courses_url":"http://www.upb.edu.co"}},{"type":"Feature","geometry":{"type":"Point","coordinates":[-75.575114,6.2490305]},"properties":{"kind":"poi","name":"Cisneros","category":"transit","color":"#0369a1","fa_icon":"fa-bus","wikidata":"Q10275653"}},{"type":"Feature","geometry":{"type":"Point","coordinates":[-75.5848202,6.2445808]},"properties":{"kind":"poi","name":"Parque de los Mangos","category":"park","color":"#16a34a","fa_icon":"fa-tree"}},{"type":"Feature","geometry":{"type":"Point","coordinates":[-75.5857582,6.2363401]},"properties":{"kind":"poi","name":"Parque Jardinera de Mascotas","category":"park","color":"#16a34a","fa_icon":"fa-tree"}},{"type":"Feature","geometry":{"type":"Point","coordinates":[-75.5796334,6.2538592]},"properties":{"kind":"poi","name":"Parque Suramericana","category":"park","color":"#16a34a","fa_icon":"fa-tree"}},{"type":"Feature","geometry":{"type":"Point","coordinates":[-75.5881887,6.2493711]},"properties":{"kind":"poi","name":"China Town","category":"market","color":"#65a30d","fa_icon":"fa-store"}}]}