{"type":"FeatureCollection","features":[{"type":"Feature","geometry":{"type":"Point","coordinates":[-80.1918,25.7617]},"properties":{"kind":"circle","radius_m":400,"label":"5 min walk"}},{"type":"Feature","geometry":{"type":"Point","coordinates":[-80.1918,25.7617]},"properties":{"kind":"circle","radius_m":800,"label":"10 min walk"}},{"type":"Feature","geometry":{"type":"Point","coordinates":[-80.1918,25.7617]},"properties":{"kind":"circle","radius_m":1200,"label":"15 min walk"}},{"type":"Feature","geometry":{"type":"Point","coordinates":[-80.1958686,25.7586955]},"properties":{"kind":"poi","name":"Simpson Park","category":"park","color":"#16a34a","fa_icon":"fa-tree","wikidata":"Q16900210"}},{"type":"Feature","geometry":{"type":"Point","coordinates":[-80.1925708,25.7640118]},"properties":{"kind":"poi","name":"Tenth Street Promenade","category":"transit","color":"#0369a1","fa_icon":"fa-bus","wikidata":"Q7700881"}},{"type":"Feature","geometry":{"type":"Point","coordinates":[-80.1922875,25.7691598]},"properties":{"kind":"poi","name":"Fifth Street","category":"transit","color":"#0369a1","fa_icon":"fa-bus","wikidata":"Q5447552"}},{"type":"Feature","geometry":{"type":"Point","coordinates":[-80.201148,25.7629664]},"properties":{"kind":"poi","name":"Triangle Park","category":"park","color":"#16a34a","fa_icon":"fa-tree","wikidata":"Q49571936"}},{"type":"Feature","geometry":{"type":"Point","coordinates":[-80.1894023,25.7604852]},"properties":{"kind":"poi","name":"Jade's Park","category":"park","color":"#16a34a","fa_icon":"fa-tree"}}]}