{"type":"FeatureCollection","features":[{"type":"Feature","geometry":{"type":"Point","coordinates":[9.1859,45.4654]},"properties":{"kind":"circle","radius_m":400,"label":"5 min walk"}},{"type":"Feature","geometry":{"type":"Point","coordinates":[9.1859,45.4654]},"properties":{"kind":"circle","radius_m":800,"label":"10 min walk"}},{"type":"Feature","geometry":{"type":"Point","coordinates":[9.1859,45.4654]},"properties":{"kind":"circle","radius_m":1200,"label":"15 min walk"}},{"type":"Feature","geometry":{"type":"Point","coordinates":[9.1816366,45.460957]},"properties":{"kind":"poi","name":"Studio Museo Francesco Messina","category":"museum","color":"#b45309","fa_icon":"fa-landmark","wikidata":"Q16337874","website":"https://www.studiomuseofrancescomessina.it/","ticket_url":"https://www.studiomuseofrancescomessina.it/"}},{"type":"Feature","geometry":{"type":"Point","coordinates":[9.1892579,45.4673111]},"properties":{"kind":"poi","name":"Museo Teatrale alla Scala","category":"museum","color":"#b45309","fa_icon":"fa-landmark","wikidata":"Q51099","website":"https://www.museoscala.org","ticket_url":"https://www.museoscala.org"}},{"type":"Feature","geometry":{"type":"Point","coordinates":[9.1888764,45.4610928]},"properties":{"kind":"poi","name":"Cripta di San Giovanni in Conca","category":"monument","color":"#be123c","fa_icon":"fa-monument","wikidata":"Q549977","wikipedia_url":"https://it.wikipedia.org/wiki/Chiesa_di_San_Giovanni_in_Conca"}},{"type":"Feature","geometry":{"type":"Point","coordinates":[9.1962586,45.4685907]},"properties":{"kind":"poi","name":"Palazzo Morando - Costume Moda Immagine","category":"museum","color":"#b45309","fa_icon":"fa-landmark","wikidata":"Q20008384","website":"http://www.costumemodaimmagine.mi.it/","ticket_url":"http://www.costumemodaimmagine.mi.it/"}},{"type":"Feature","geometry":{"type":"Point","coordinates":[9.1878197,45.4719418]},"properties":{"kind":"poi","name":"Accademia di belle arti di Brera","category":"university","color":"#0891b2","fa_icon":"fa-graduation-cap","wikidata":"Q338472","courses_url":"http://www.accademiadibrera.milano.it/en/brera-future-students"}},{"type":"Feature","geometry":{"type":"Point","coordinates":[9.1798619,45.469529]},"properties":{"kind":"poi","name":"Civica raccolta delle stampe Achille Bertarelli","category":"museum","color":"#b45309","fa_icon":"fa-landmark","wikidata":"Q3678764","website":"http://www.bertarelli.org/ita/index.html","ticket_url":"http://www.bertarelli.org/ita/index.html"}},{"type":"Feature","geometry":{"type":"Point","coordinates":[9.1955551,45.4626047]},"properties":{"kind":"poi","name":"Chiesa di San Bernardino alle Ossa","category":"monument","color":"#be123c","fa_icon":"fa-monument","wikidata":"Q734371","wikipedia_url":"https://en.wikipedia.org/wiki/Federico_Chiesa"}},{"type":"Feature","geometry":{"type":"Point","coordinates":[9.1821581,45.4556207]},"properties":{"kind":"poi","name":"Parco Papa Giovanni Paolo II","category":"park","color":"#16a34a","fa_icon":"fa-tree","wikidata":"Q3895557"}},{"type":"Feature","geometry":{"type":"Point","coordinates":[9.1785086,45.4650714]},"properties":{"kind":"poi","name":"Torre di Massimiano","category":"monument","color":"#be123c","fa_icon":"fa-monument","wikidata":"Q3867339"}}]}