{"type":"FeatureCollection","features":[{"type":"Feature","geometry":{"type":"Point","coordinates":[36.8219,-1.2921]},"properties":{"kind":"circle","radius_m":400,"label":"5 min walk"}},{"type":"Feature","geometry":{"type":"Point","coordinates":[36.8219,-1.2921]},"properties":{"kind":"circle","radius_m":800,"label":"10 min walk"}},{"type":"Feature","geometry":{"type":"Point","coordinates":[36.8219,-1.2921]},"properties":{"kind":"circle","radius_m":1200,"label":"15 min walk"}},{"type":"Feature","geometry":{"type":"Point","coordinates":[36.8285594,-1.2916496]},"properties":{"kind":"poi","name":"Nairobi Central Railway Station","category":"train_station","color":"#2563eb","fa_icon":"fa-train","wikidata":"Q6959799"}},{"type":"Feature","geometry":{"type":"Point","coordinates":[36.8178958,-1.2867687]},"properties":{"kind":"poi","name":"Nairobi Gallery","category":"museum","color":"#b45309","fa_icon":"fa-landmark","wikidata":"Q109229332","ticket_url":"https://en.wikipedia.org/wiki/Nairobi"}},{"type":"Feature","geometry":{"type":"Point","coordinates":[36.8259496,-1.2849038]},"properties":{"kind":"poi","name":"Kenya National Archives","category":"museum","color":"#b45309","fa_icon":"fa-landmark","wikidata":"Q6392606","ticket_url":"https://en.wikipedia.org/wiki/Kenya"}},{"type":"Feature","geometry":{"type":"Point","coordinates":[36.8236504,-1.3002891]},"properties":{"kind":"poi","name":"Athletics Museum","category":"museum","color":"#b45309","fa_icon":"fa-landmark","ticket_url":"https://worldathletics.org/"}}]}