{"type":"FeatureCollection","features":[{"type":"Feature","geometry":{"type":"Point","coordinates":[-74.006,40.7128]},"properties":{"kind":"circle","radius_m":400,"label":"5 min walk"}},{"type":"Feature","geometry":{"type":"Point","coordinates":[-74.006,40.7128]},"properties":{"kind":"circle","radius_m":800,"label":"10 min walk"}},{"type":"Feature","geometry":{"type":"Point","coordinates":[-74.006,40.7128]},"properties":{"kind":"circle","radius_m":1200,"label":"15 min walk"}},{"type":"Feature","geometry":{"type":"Point","coordinates":[-74.0029056,40.7057505]},"properties":{"kind":"poi","name":"South Street Seaport","category":"monument","color":"#be123c","fa_icon":"fa-monument","wikidata":"Q223000","wikipedia_url":"https://en.wikipedia.org/wiki/South_Vietnam"}},{"type":"Feature","geometry":{"type":"Point","coordinates":[-74.009196,40.706371]},"properties":{"kind":"poi","name":"Museum of American Finance","category":"museum","color":"#b45309","fa_icon":"fa-landmark","wikidata":"Q5354207","website":"https://www.moaf.org/","ticket_url":"https://www.moaf.org/"}},{"type":"Feature","geometry":{"type":"Point","coordinates":[-74.0116432,40.7170293]},"properties":{"kind":"poi","name":"Washington Market Park","category":"park","color":"#16a34a","fa_icon":"fa-tree","wikidata":"Q7972039","website":"https://www.nycgovparks.org/parks/washington-market-park"}},{"type":"Feature","geometry":{"type":"Point","coordinates":[-74.0127418,40.711456]},"properties":{"kind":"poi","name":"9/11 Memorial & Museum","category":"museum","color":"#b45309","fa_icon":"fa-landmark","wikidata":"Q10806","website":"https://www.911memorial.org/","ticket_url":"https://www.911memorial.org/"}},{"type":"Feature","geometry":{"type":"Point","coordinates":[-74.0058909,40.7220728]},"properties":{"kind":"poi","name":"Albert Capsouto Park","category":"park","color":"#16a34a","fa_icon":"fa-tree","wikidata":"Q2582732","website":"https://www.nycgovparks.org/parks/capsouto-park"}},{"type":"Feature","geometry":{"type":"Point","coordinates":[-73.9963566,40.7056913]},"properties":{"kind":"poi","name":"Brooklyn Bridge","category":"monument","color":"#be123c","fa_icon":"fa-monument","wikidata":"Q125006","website":"https://www.nyc.gov/html/dot/html/infrastructure/brooklyn-bridge.shtml","wikipedia_url":"https://en.wikipedia.org/wiki/Brooklyn_Bridge"}},{"type":"Feature","geometry":{"type":"Point","coordinates":[-73.9905117,40.7070805]},"properties":{"kind":"poi","name":"Manhattan Bridge","category":"monument","color":"#be123c","fa_icon":"fa-monument","wikidata":"Q125050","website":"https://www.nyc.gov/html/dot/html/infrastructure/manhattan-bridge.shtml","wikipedia_url":"https://en.wikipedia.org/wiki/Manhattan"}},{"type":"Feature","geometry":{"type":"Point","coordinates":[-74.0051836,40.7462165]},"properties":{"kind":"poi","name":"Hudson River Park","category":"park","color":"#16a34a","fa_icon":"fa-tree","wikidata":"Q1359049","website":"https://hudsonriverpark.org/"}},{"type":"Feature","geometry":{"type":"Point","coordinates":[-73.999892,40.718092]},"properties":{"kind":"poi","name":"Canal Street","category":"transit","color":"#0369a1","fa_icon":"fa-bus","wikidata":"Q2431462"}},{"type":"Feature","geometry":{"type":"Point","coordinates":[-73.997469,40.7106394]},"properties":{"kind":"poi","name":"Alfred E. Smith Playground","category":"park","color":"#16a34a","fa_icon":"fa-tree","wikidata":"Q34802358","website":"https://www.nycgovparks.org/parks/alfred-e-smith-playground/"}},{"type":"Feature","geometry":{"type":"Point","coordinates":[-73.9945697,40.7154032]},"properties":{"kind":"poi","name":"Forsyth Plaza","category":"park","color":"#16a34a","fa_icon":"fa-tree"}}]}