{"type":"FeatureCollection","features":[{"type":"Feature","geometry":{"type":"Point","coordinates":[115.8605,-31.9505]},"properties":{"kind":"circle","radius_m":400,"label":"5 min walk"}},{"type":"Feature","geometry":{"type":"Point","coordinates":[115.8605,-31.9505]},"properties":{"kind":"circle","radius_m":800,"label":"10 min walk"}},{"type":"Feature","geometry":{"type":"Point","coordinates":[115.8605,-31.9505]},"properties":{"kind":"circle","radius_m":1200,"label":"15 min walk"}},{"type":"Feature","geometry":{"type":"Point","coordinates":[115.8601161,-31.958151]},"properties":{"kind":"poi","name":"Supreme Court Gardens","category":"park","color":"#16a34a","fa_icon":"fa-tree","wikidata":"Q18165701"}},{"type":"Feature","geometry":{"type":"Point","coordinates":[115.9037645,-31.9543052]},"properties":{"kind":"poi","name":"Curtin University","category":"university","color":"#0891b2","fa_icon":"fa-graduation-cap","wikidata":"Q1145497","website":"https://www.curtin.edu.au/","courses_url":"https://www.curtin.edu.au/"}},{"type":"Feature","geometry":{"type":"Point","coordinates":[115.8555023,-31.9461101]},"properties":{"kind":"poi","name":"Russell Square","category":"park","color":"#16a34a","fa_icon":"fa-tree","wikidata":"Q14935905"}},{"type":"Feature","geometry":{"type":"Point","coordinates":[115.8663954,-31.9517794]},"properties":{"kind":"poi","name":"McIver","category":"train_station","color":"#2563eb","fa_icon":"fa-train","wikidata":"Q6801665"}},{"type":"Feature","geometry":{"type":"Point","coordinates":[115.8698857,-31.9457258]},"properties":{"kind":"poi","name":"HBF Park","category":"stadium","color":"#ea580c","fa_icon":"fa-futbol","wikidata":"Q978904","website":"https://www.nibstadium.com.au/"}},{"type":"Feature","geometry":{"type":"Point","coordinates":[115.8502541,-31.9530515]},"properties":{"kind":"poi","name":"Florence Hummerston Reserve","category":"park","color":"#16a34a","fa_icon":"fa-tree"}},{"type":"Feature","geometry":{"type":"Point","coordinates":[115.8674482,-31.9563426]},"properties":{"kind":"poi","name":"Catherine's Garden","category":"park","color":"#16a34a","fa_icon":"fa-tree"}},{"type":"Feature","geometry":{"type":"Point","coordinates":[115.8648161,-31.9473176]},"properties":{"kind":"poi","name":"Weld Square","category":"park","color":"#16a34a","fa_icon":"fa-tree"}},{"type":"Feature","geometry":{"type":"Point","coordinates":[115.8563396,-31.953644]},"properties":{"kind":"poi","name":"Central Park","category":"park","color":"#16a34a","fa_icon":"fa-tree"}},{"type":"Feature","geometry":{"type":"Point","coordinates":[115.8636166,-31.9423992]},"properties":{"kind":"poi","name":"Tu Do Park","category":"park","color":"#16a34a","fa_icon":"fa-tree"}}]}