{"type":"FeatureCollection","features":[{"type":"Feature","geometry":{"type":"Point","coordinates":[-78.4678,-0.1807]},"properties":{"kind":"circle","radius_m":400,"label":"5 min walk"}},{"type":"Feature","geometry":{"type":"Point","coordinates":[-78.4678,-0.1807]},"properties":{"kind":"circle","radius_m":800,"label":"10 min walk"}},{"type":"Feature","geometry":{"type":"Point","coordinates":[-78.4678,-0.1807]},"properties":{"kind":"circle","radius_m":1200,"label":"15 min walk"}},{"type":"Feature","geometry":{"type":"Point","coordinates":[-78.4766149,-0.1775693]},"properties":{"kind":"poi","name":"Estadio Olímpico Atahualpa","category":"stadium","color":"#ea580c","fa_icon":"fa-futbol","wikidata":"Q2020768"}},{"type":"Feature","geometry":{"type":"Point","coordinates":[-78.4710384,-0.1734035]},"properties":{"kind":"poi","name":"Plaza República de Chile","category":"park","color":"#16a34a","fa_icon":"fa-tree"}},{"type":"Feature","geometry":{"type":"Point","coordinates":[-78.462711,-0.1785387]},"properties":{"kind":"poi","name":"Parque Metropolitano Guangüiltangua","category":"park","color":"#16a34a","fa_icon":"fa-tree"}},{"type":"Feature","geometry":{"type":"Point","coordinates":[-78.4597358,-0.1831589]},"properties":{"kind":"poi","name":"Cancha de fútbol","category":"park","color":"#16a34a","fa_icon":"fa-tree"}},{"type":"Feature","geometry":{"type":"Point","coordinates":[-78.4724048,-0.1876359]},"properties":{"kind":"poi","name":"Parque Aromático","category":"park","color":"#16a34a","fa_icon":"fa-tree"}},{"type":"Feature","geometry":{"type":"Point","coordinates":[-78.4741923,-0.1821864]},"properties":{"kind":"poi","name":"Parque México","category":"park","color":"#16a34a","fa_icon":"fa-tree"}}]}