{"type":"FeatureCollection","features":[{"type":"Feature","geometry":{"type":"Point","coordinates":[46.6753,24.7136]},"properties":{"kind":"circle","radius_m":400,"label":"5 min walk"}},{"type":"Feature","geometry":{"type":"Point","coordinates":[46.6753,24.7136]},"properties":{"kind":"circle","radius_m":800,"label":"10 min walk"}},{"type":"Feature","geometry":{"type":"Point","coordinates":[46.6753,24.7136]},"properties":{"kind":"circle","radius_m":1200,"label":"15 min walk"}},{"type":"Feature","geometry":{"type":"Point","coordinates":[46.6763564,24.7189529]},"properties":{"kind":"poi","name":"حديقة الورود","category":"park","color":"#16a34a","fa_icon":"fa-tree"}},{"type":"Feature","geometry":{"type":"Point","coordinates":[46.6751474,24.7134753]},"properties":{"kind":"poi","name":"العروبة","category":"transit","color":"#0369a1","fa_icon":"fa-bus"}},{"type":"Feature","geometry":{"type":"Point","coordinates":[46.6713373,24.7211896]},"properties":{"kind":"poi","name":"الورود 2","category":"transit","color":"#0369a1","fa_icon":"fa-bus"}}]}