{"type":"FeatureCollection","features":[{"type":"Feature","geometry":{"type":"Point","coordinates":[-122.4194,37.7749]},"properties":{"kind":"circle","radius_m":400,"label":"5 min walk"}},{"type":"Feature","geometry":{"type":"Point","coordinates":[-122.4194,37.7749]},"properties":{"kind":"circle","radius_m":800,"label":"10 min walk"}},{"type":"Feature","geometry":{"type":"Point","coordinates":[-122.4194,37.7749]},"properties":{"kind":"circle","radius_m":1200,"label":"15 min walk"}},{"type":"Feature","geometry":{"type":"Point","coordinates":[-122.4159975,37.7802455]},"properties":{"kind":"poi","name":"Asian Art Museum of San Francisco","category":"museum","color":"#b45309","fa_icon":"fa-landmark","wikidata":"Q727277","ticket_url":"https://en.wikipedia.org/wiki/Asia"}},{"type":"Feature","geometry":{"type":"Point","coordinates":[-122.4267327,37.7732544]},"properties":{"kind":"poi","name":"Koshland Park","category":"park","color":"#16a34a","fa_icon":"fa-tree","wikidata":"Q49511993","website":"https://sfrecpark.org/facilities/facility/details/koshlandpark-181"}},{"type":"Feature","geometry":{"type":"Point","coordinates":[-122.4098406,37.7772579]},"properties":{"kind":"poi","name":"Howard & Langton Mini Park Community Garden","category":"park","color":"#16a34a","fa_icon":"fa-tree","website":"https://sfrecpark.org/Facilities/Facility/Details/Howard-Langton-Mini-Park-Community-Garde-70"}},{"type":"Feature","geometry":{"type":"Point","coordinates":[-122.4254976,37.780873]},"properties":{"kind":"poi","name":"Margaret S. Hayward Playground","category":"park","color":"#16a34a","fa_icon":"fa-tree","website":"https://sfrecpark.org/destination/margaret-s-hayward-playground/"}},{"type":"Feature","geometry":{"type":"Point","coordinates":[-122.4119088,37.769836]},"properties":{"kind":"poi","name":"SoMa StrEat Food Park","category":"market","color":"#65a30d","fa_icon":"fa-store","website":"http://www.somastreatfoodpark.com"}},{"type":"Feature","geometry":{"type":"Point","coordinates":[-122.4196272,37.7660549]},"properties":{"kind":"poi","name":"Fida Market","category":"market","color":"#65a30d","fa_icon":"fa-store"}}]}