{"type":"FeatureCollection","features":[{"type":"Feature","geometry":{"type":"Point","coordinates":[-70.6693,-33.4489]},"properties":{"kind":"circle","radius_m":400,"label":"5 min walk"}},{"type":"Feature","geometry":{"type":"Point","coordinates":[-70.6693,-33.4489]},"properties":{"kind":"circle","radius_m":800,"label":"10 min walk"}},{"type":"Feature","geometry":{"type":"Point","coordinates":[-70.6693,-33.4489]},"properties":{"kind":"circle","radius_m":1200,"label":"15 min walk"}},{"type":"Feature","geometry":{"type":"Point","coordinates":[-70.673351,-33.4493623]},"properties":{"kind":"poi","name":"Unión Latinoamericana","category":"transit","color":"#0369a1","fa_icon":"fa-bus","wikidata":"Q5249662","website":"http://www.metrosantiago.cl"}},{"type":"Feature","geometry":{"type":"Point","coordinates":[-70.6673731,-33.4530423]},"properties":{"kind":"poi","name":"Casonas de Avenida República","category":"monument","color":"#be123c","fa_icon":"fa-monument","wikidata":"Q20013912"}},{"type":"Feature","geometry":{"type":"Point","coordinates":[-70.6685297,-33.4639315]},"properties":{"kind":"poi","name":"Club Hípico de Santiago","category":"stadium","color":"#ea580c","fa_icon":"fa-futbol","wikidata":"Q5136270"}},{"type":"Feature","geometry":{"type":"Point","coordinates":[-70.685533,-33.448935]},"properties":{"kind":"poi","name":"Universidad de Santiago de Chile","category":"university","color":"#0891b2","fa_icon":"fa-graduation-cap","wikidata":"Q1259453"}},{"type":"Feature","geometry":{"type":"Point","coordinates":[-70.6581222,-33.4496919]},"properties":{"kind":"poi","name":"Universidad Iberoamericana de Ciencias y Tecnología","category":"university","color":"#0891b2","fa_icon":"fa-graduation-cap","wikidata":"Q6156471","courses_url":"https://www.thesaurus.com/browse/happy"}},{"type":"Feature","geometry":{"type":"Point","coordinates":[-70.6623206,-33.4450068]},"properties":{"kind":"poi","name":"Campus Patrimonial Universidad Alberto Hurtado","category":"university","color":"#0891b2","fa_icon":"fa-graduation-cap","wikidata":"Q4712073","website":"https://www.uahurtado.cl/la-universidad/campus/campus-patrimonial/","courses_url":"https://www.uahurtado.cl/la-universidad/campus/campus-patrimonial/"}},{"type":"Feature","geometry":{"type":"Point","coordinates":[-70.6789622,-33.4508228]},"properties":{"kind":"poi","name":"Estación Central","category":"transit","color":"#0369a1","fa_icon":"fa-bus","wikidata":"Q5244875","website":"https://www.metro.cl/"}},{"type":"Feature","geometry":{"type":"Point","coordinates":[-70.6758062,-33.4421898]},"properties":{"kind":"poi","name":"Museo del Sonido","category":"museum","color":"#b45309","fa_icon":"fa-landmark","wikidata":"Q86280105","website":"https://www.museodelsonido.cl/","ticket_url":"https://www.museodelsonido.cl/"}},{"type":"Feature","geometry":{"type":"Point","coordinates":[-70.6658958,-33.4405838]},"properties":{"kind":"poi","name":"Plaza Brasil","category":"park","color":"#16a34a","fa_icon":"fa-tree","wikidata":"Q6079452"}},{"type":"Feature","geometry":{"type":"Point","coordinates":[-70.6671366,-33.447702]},"properties":{"kind":"poi","name":"República","category":"transit","color":"#0369a1","fa_icon":"fa-bus","wikidata":"Q5249682","website":"http://www.metrosantiago.cl"}},{"type":"Feature","geometry":{"type":"Point","coordinates":[-70.6727629,-33.4578272]},"properties":{"kind":"poi","name":"Taller Mecánico, Universidad de Chile","category":"university","color":"#0891b2","fa_icon":"fa-graduation-cap","courses_url":"https://dictionary.zim.vn/anh-viet/taller"}},{"type":"Feature","geometry":{"type":"Point","coordinates":[-70.6637636,-33.456547]},"properties":{"kind":"poi","name":"Universidad de Chile (Facultad de Ciencias Físicas y Matemáticas)","category":"university","color":"#0891b2","fa_icon":"fa-graduation-cap","website":"https://ingenieria.uchile.cl/","courses_url":"https://ingenieria.uchile.cl/"}}]}