{"type":"FeatureCollection","features":[{"type":"Feature","geometry":{"type":"Point","coordinates":[126.978,37.5665]},"properties":{"kind":"circle","radius_m":400,"label":"5 min walk"}},{"type":"Feature","geometry":{"type":"Point","coordinates":[126.978,37.5665]},"properties":{"kind":"circle","radius_m":800,"label":"10 min walk"}},{"type":"Feature","geometry":{"type":"Point","coordinates":[126.978,37.5665]},"properties":{"kind":"circle","radius_m":1200,"label":"15 min walk"}},{"type":"Feature","geometry":{"type":"Point","coordinates":[126.9803362,37.5620443]},"properties":{"kind":"poi","name":"한국은행 화폐박물관","category":"museum","color":"#b45309","fa_icon":"fa-landmark","wikidata":"Q128325","website":"http://museum.bok.or.kr/","ticket_url":"http://museum.bok.or.kr/"}},{"type":"Feature","geometry":{"type":"Point","coordinates":[126.9834979,37.5738145]},"properties":{"kind":"poi","name":"목인박물관","category":"museum","color":"#b45309","fa_icon":"fa-landmark","wikidata":"Q11240953","website":"www.mokinmuseum.com","ticket_url":"www.mokinmuseum.com"}},{"type":"Feature","geometry":{"type":"Point","coordinates":[126.9767418,37.5727447]},"properties":{"kind":"poi","name":"광화문광장","category":"monument","color":"#be123c","fa_icon":"fa-monument","wikidata":"Q5623300"}},{"type":"Feature","geometry":{"type":"Point","coordinates":[126.9702783,37.5704691]},"properties":{"kind":"poi","name":"서울역사박물관","category":"museum","color":"#b45309","fa_icon":"fa-landmark","wikidata":"Q484862","website":"http://www.museum.seoul.kr/","ticket_url":"http://www.museum.seoul.kr/"}},{"type":"Feature","geometry":{"type":"Point","coordinates":[126.9933765,37.5689476]},"properties":{"kind":"poi","name":"청계천공원","category":"monument","color":"#be123c","fa_icon":"fa-monument","wikidata":"Q495437","wikipedia_url":"https://en.wikipedia.org/wiki/Microsoft"}},{"type":"Feature","geometry":{"type":"Point","coordinates":[126.9882659,37.571185]},"properties":{"kind":"poi","name":"탑골공원","category":"monument","color":"#be123c","fa_icon":"fa-monument","wikidata":"Q483357","website":"https://www.heritage.go.kr/heri/cul/culSelectDetail.do?VdkVgwKey=13,03540000,11&pageNo=5_2_1_0"}},{"type":"Feature","geometry":{"type":"Point","coordinates":[126.9737645,37.5658861]},"properties":{"kind":"poi","name":"국립현대미술관 덕수궁관","category":"museum","color":"#b45309","fa_icon":"fa-landmark","wikidata":"Q27207690","website":"https://www.mmca.go.kr/","ticket_url":"https://www.mmca.go.kr/"}},{"type":"Feature","geometry":{"type":"Point","coordinates":[126.9863762,37.5608977]},"properties":{"kind":"poi","name":"명동","category":"transit","color":"#0369a1","fa_icon":"fa-bus","wikidata":"Q626260"}},{"type":"Feature","geometry":{"type":"Point","coordinates":[126.98665,37.5656109]},"properties":{"kind":"poi","name":"향린교회 기억공간","category":"museum","color":"#b45309","fa_icon":"fa-landmark","ticket_url":"https://www.google.co.in/gmail/about/for-work/"}},{"type":"Feature","geometry":{"type":"Point","coordinates":[126.967761,37.566376]},"properties":{"kind":"poi","name":"농협 쌀박물관","category":"museum","color":"#b45309","fa_icon":"fa-landmark","website":"http://www.agrimuseum.or.kr/","ticket_url":"http://www.agrimuseum.or.kr/"}},{"type":"Feature","geometry":{"type":"Point","coordinates":[126.9751326,37.5596197]},"properties":{"kind":"poi","name":"숭례문광장","category":"park","color":"#16a34a","fa_icon":"fa-tree"}},{"type":"Feature","geometry":{"type":"Point","coordinates":[126.9694611,37.5606253]},"properties":{"kind":"poi","name":"서소문근린공원","category":"park","color":"#16a34a","fa_icon":"fa-tree"}}]}