{"type":"FeatureCollection","features":[{"type":"Feature","geometry":{"type":"Point","coordinates":[103.8198,1.3521]},"properties":{"kind":"circle","radius_m":400,"label":"5 min walk"}},{"type":"Feature","geometry":{"type":"Point","coordinates":[103.8198,1.3521]},"properties":{"kind":"circle","radius_m":800,"label":"10 min walk"}},{"type":"Feature","geometry":{"type":"Point","coordinates":[103.8198,1.3521]},"properties":{"kind":"circle","radius_m":1200,"label":"15 min walk"}},{"type":"Feature","geometry":{"type":"Point","coordinates":[103.8235233,1.3568154]},"properties":{"kind":"poi","name":"Windsor Nature Park","category":"park","color":"#16a34a","fa_icon":"fa-tree","wikidata":"Q98597001"}}]}