{"type":"FeatureCollection","features":[{"type":"Feature","geometry":{"type":"Point","coordinates":[-79.3832,43.6532]},"properties":{"kind":"circle","radius_m":400,"label":"5 min walk"}},{"type":"Feature","geometry":{"type":"Point","coordinates":[-79.3832,43.6532]},"properties":{"kind":"circle","radius_m":800,"label":"10 min walk"}},{"type":"Feature","geometry":{"type":"Point","coordinates":[-79.3832,43.6532]},"properties":{"kind":"circle","radius_m":1200,"label":"15 min walk"}},{"type":"Feature","geometry":{"type":"Point","coordinates":[-79.380381,43.6445345]},"properties":{"kind":"poi","name":"Toronto Union Station","category":"train_station","color":"#2563eb","fa_icon":"fa-train","wikidata":"Q511316"}},{"type":"Feature","geometry":{"type":"Point","coordinates":[-79.3866913,43.6544937]},"properties":{"kind":"poi","name":"Textile Museum Of Canada","category":"museum","color":"#b45309","fa_icon":"fa-landmark","wikidata":"Q7708469","website":"http://www.textilemuseum.ca/","ticket_url":"http://www.textilemuseum.ca/"}},{"type":"Feature","geometry":{"type":"Point","coordinates":[-79.3964793,43.6623625]},"properties":{"kind":"poi","name":"University of Toronto St. George","category":"university","color":"#0891b2","fa_icon":"fa-graduation-cap","wikidata":"Q111016452","courses_url":"https://dictionary.cambridge.org/vi/dictionary/english/university"}},{"type":"Feature","geometry":{"type":"Point","coordinates":[-79.3782616,43.6557116]},"properties":{"kind":"poi","name":"Mackenzie House","category":"monument","color":"#be123c","fa_icon":"fa-monument","wikidata":"Q3884309","website":"https://www.toronto.ca/explore-enjoy/history-art-culture/museums/mackenzie-house/","wikipedia_url":"https://en.wikipedia.org/wiki/Mackenzie_House"}},{"type":"Feature","geometry":{"type":"Point","coordinates":[-79.3950517,43.6558912]},"properties":{"kind":"poi","name":"George Brown House","category":"monument","color":"#be123c","fa_icon":"fa-monument","wikidata":"Q5537330","wikipedia_url":"https://en.wikipedia.org/wiki/George_Brown_House"}},{"type":"Feature","geometry":{"type":"Point","coordinates":[-79.3848711,43.6477917]},"properties":{"kind":"poi","name":"St. Andrew","category":"transit","color":"#0369a1","fa_icon":"fa-bus","wikidata":"Q1040644"}},{"type":"Feature","geometry":{"type":"Point","coordinates":[-79.3901923,43.6596838]},"properties":{"kind":"poi","name":"Queen's Park","category":"transit","color":"#0369a1","fa_icon":"fa-bus","wikidata":"Q1040665"}},{"type":"Feature","geometry":{"type":"Point","coordinates":[-79.3733963,43.6507727]},"properties":{"kind":"poi","name":"St. James Park","category":"park","color":"#16a34a","fa_icon":"fa-tree","wikidata":"Q123458777"}},{"type":"Feature","geometry":{"type":"Point","coordinates":[-79.3827952,43.6606617]},"properties":{"kind":"poi","name":"College","category":"transit","color":"#0369a1","fa_icon":"fa-bus","wikidata":"Q728520"}},{"type":"Feature","geometry":{"type":"Point","coordinates":[-79.393877,43.6491038]},"properties":{"kind":"poi","name":"Northeastern University","category":"university","color":"#0891b2","fa_icon":"fa-graduation-cap","courses_url":"https://toronto.northeastern.edu/"}},{"type":"Feature","geometry":{"type":"Point","coordinates":[-79.3711356,43.6552746]},"properties":{"kind":"poi","name":"Moss Park","category":"park","color":"#16a34a","fa_icon":"fa-tree"}}]}