{"type":"FeatureCollection","features":[{"type":"Feature","geometry":{"type":"Point","coordinates":[8.5417,47.3769]},"properties":{"kind":"circle","radius_m":400,"label":"5 min walk"}},{"type":"Feature","geometry":{"type":"Point","coordinates":[8.5417,47.3769]},"properties":{"kind":"circle","radius_m":800,"label":"10 min walk"}},{"type":"Feature","geometry":{"type":"Point","coordinates":[8.5417,47.3769]},"properties":{"kind":"circle","radius_m":1200,"label":"15 min walk"}},{"type":"Feature","geometry":{"type":"Point","coordinates":[8.5393635,47.3781008]},"properties":{"kind":"poi","name":"Zürich Hauptbahnhof","category":"train_station","color":"#2563eb","fa_icon":"fa-train","wikidata":"Q224494","transit_url":"https://www.sbb.ch/en/travel-information/stations/find-station/station.3088.zuerich-hb-szu.html"}},{"type":"Feature","geometry":{"type":"Point","coordinates":[8.5357988,47.3829824]},"properties":{"kind":"poi","name":"Museum für Gestaltung","category":"museum","color":"#b45309","fa_icon":"fa-landmark","wikidata":"Q668213","website":"https://www.museum-gestaltung.ch","ticket_url":"https://www.museum-gestaltung.ch"}},{"type":"Feature","geometry":{"type":"Point","coordinates":[8.5385422,47.3709245]},"properties":{"kind":"poi","name":"Uhrenmuseum Beyer Zürich","category":"museum","color":"#b45309","fa_icon":"fa-landmark","wikidata":"Q7878010","website":"https://www.beyer-ch.com/de/uhrenmuseum/","ticket_url":"https://www.beyer-ch.com/de/uhrenmuseum/"}},{"type":"Feature","geometry":{"type":"Point","coordinates":[8.5479602,47.3751766]},"properties":{"kind":"poi","name":"Naturhistorisches Museum","category":"museum","color":"#b45309","fa_icon":"fa-landmark","wikidata":"Q220270","website":"https://www.nmz.uzh.ch/","ticket_url":"https://www.nmz.uzh.ch/"}},{"type":"Feature","geometry":{"type":"Point","coordinates":[8.5486001,47.38042]},"properties":{"kind":"poi","name":"Moulagenmuseum","category":"museum","color":"#b45309","fa_icon":"fa-landmark","wikidata":"Q16186067","website":"https://www.moulagen.uzh.ch","ticket_url":"https://www.moulagen.uzh.ch"}},{"type":"Feature","geometry":{"type":"Point","coordinates":[8.5480247,47.3702306]},"properties":{"kind":"poi","name":"Kunsthaus","category":"museum","color":"#b45309","fa_icon":"fa-landmark","wikidata":"Q685038","website":"https://www.kunsthaus.ch/","ticket_url":"https://www.kunsthaus.ch/"}},{"type":"Feature","geometry":{"type":"Point","coordinates":[8.5318556,47.3724695]},"properties":{"kind":"poi","name":"Zürich Selnau","category":"train_station","color":"#2563eb","fa_icon":"fa-train","wikidata":"Q637602","transit_url":"https://moovitapp.com/index/en/public_transit-Z%C3%BCrich_Selnau_Bahnhof-Gen%C3%A8ve-stop_502829455-3522"}},{"type":"Feature","geometry":{"type":"Point","coordinates":[8.5935481,47.4174058]},"properties":{"kind":"poi","name":"ETH Zürich","category":"university","color":"#0891b2","fa_icon":"fa-graduation-cap","website":"https://www.ethz.ch/","courses_url":"https://www.ethz.ch/"}},{"type":"Feature","geometry":{"type":"Point","coordinates":[8.5325588,47.3771701]},"properties":{"kind":"poi","name":"FCZ Museum","category":"museum","color":"#b45309","fa_icon":"fa-landmark","website":"https://www.fcz.ch/pages/museum","ticket_url":"https://www.fcz.ch/pages/museum"}}]}