{"type":"FeatureCollection","features":[{"type":"Feature","geometry":{"type":"Point","coordinates":[54.3773,24.4539]},"properties":{"kind":"circle","radius_m":25000,"label":"20 min"}},{"type":"Feature","geometry":{"type":"Point","coordinates":[54.3773,24.4539]},"properties":{"kind":"circle","radius_m":80000,"label":"1 h"}},{"type":"Feature","geometry":{"type":"Point","coordinates":[54.3773,24.4539]},"properties":{"kind":"circle","radius_m":160000,"label":"2 h"}},{"type":"Feature","geometry":{"type":"Point","coordinates":[54.3761938,24.4594732]},"properties":{"kind":"poi","name":"Sultan Bin Zayed Al Nahyan Stadium","category":"stadium","color":"#ea580c","fa_icon":"fa-futbol"}},{"type":"Feature","geometry":{"type":"Point","coordinates":[54.3812122,24.4522783]},"properties":{"kind":"poi","name":"Mushrif Park","category":"park","color":"#16a34a","fa_icon":"fa-tree"}}]}