{"type":"FeatureCollection","features":[{"type":"Feature","geometry":{"type":"Point","coordinates":[38.7469,9.032]},"properties":{"kind":"circle","radius_m":400,"label":"5 min walk"}},{"type":"Feature","geometry":{"type":"Point","coordinates":[38.7469,9.032]},"properties":{"kind":"circle","radius_m":800,"label":"10 min walk"}},{"type":"Feature","geometry":{"type":"Point","coordinates":[38.7469,9.032]},"properties":{"kind":"circle","radius_m":1200,"label":"15 min walk"}},{"type":"Feature","geometry":{"type":"Point","coordinates":[38.7396038,9.0296278]},"properties":{"kind":"poi","name":"Mercato","category":"market","color":"#65a30d","fa_icon":"fa-store","wikidata":"Q2920069"}},{"type":"Feature","geometry":{"type":"Point","coordinates":[38.7513036,9.0374097]},"properties":{"kind":"poi","name":"St. George's Cathedral Museum","category":"museum","color":"#b45309","fa_icon":"fa-landmark","ticket_url":"https://en.wikipedia.org/wiki/STMicroelectronics"}},{"type":"Feature","geometry":{"type":"Point","coordinates":[38.7384035,9.0341889]},"properties":{"kind":"poi","name":"Gojam Berenda","category":"transit","color":"#0369a1","fa_icon":"fa-bus"}},{"type":"Feature","geometry":{"type":"Point","coordinates":[38.7469191,9.0346145]},"properties":{"kind":"poi","name":"Atikilt Tera","category":"transit","color":"#0369a1","fa_icon":"fa-bus"}}]}