{"type":"FeatureCollection","features":[{"type":"Feature","geometry":{"type":"Point","coordinates":[3.0869,36.7372]},"properties":{"kind":"circle","radius_m":400,"label":"5 min walk"}},{"type":"Feature","geometry":{"type":"Point","coordinates":[3.0869,36.7372]},"properties":{"kind":"circle","radius_m":800,"label":"10 min walk"}},{"type":"Feature","geometry":{"type":"Point","coordinates":[3.0869,36.7372]},"properties":{"kind":"circle","radius_m":1200,"label":"15 min walk"}},{"type":"Feature","geometry":{"type":"Point","coordinates":[3.0904709,36.7295516]},"properties":{"kind":"poi","name":"Stade Omar Benhaddad","category":"stadium","color":"#ea580c","fa_icon":"fa-futbol","wikidata":"Q3495774"}},{"type":"Feature","geometry":{"type":"Point","coordinates":[3.0917812,36.7438413]},"properties":{"kind":"poi","name":"Stade des Frères Zioui","category":"stadium","color":"#ea580c","fa_icon":"fa-futbol","wikidata":"Q940074"}},{"type":"Feature","geometry":{"type":"Point","coordinates":[3.0831396,36.7421566]},"properties":{"kind":"poi","name":"Les fusillés","category":"transit","color":"#0369a1","fa_icon":"fa-bus","wikidata":"Q3232853"}},{"type":"Feature","geometry":{"type":"Point","coordinates":[3.0944441,36.7379079]},"properties":{"kind":"poi","name":"Cité Amirouche","category":"transit","color":"#0369a1","fa_icon":"fa-bus","wikidata":"Q2974625"}},{"type":"Feature","geometry":{"type":"Point","coordinates":[3.0865824,36.733116]},"properties":{"kind":"poi","name":"Jardin Frères Kessi","category":"park","color":"#16a34a","fa_icon":"fa-tree"}}]}