{"type":"FeatureCollection","features":[{"type":"Feature","geometry":{"type":"Point","coordinates":[76.8512,43.222]},"properties":{"kind":"circle","radius_m":25000,"label":"20 min"}},{"type":"Feature","geometry":{"type":"Point","coordinates":[76.8512,43.222]},"properties":{"kind":"circle","radius_m":80000,"label":"1 h"}},{"type":"Feature","geometry":{"type":"Point","coordinates":[76.8512,43.222]},"properties":{"kind":"circle","radius_m":160000,"label":"2 h"}},{"type":"Feature","geometry":{"type":"Point","coordinates":[76.8582159,43.223714]},"properties":{"kind":"poi","name":"Сарыарқа","category":"train_station","color":"#2563eb","fa_icon":"fa-train"}},{"type":"Feature","geometry":{"type":"Point","coordinates":[76.8565959,43.2298926]},"properties":{"kind":"poi","name":"Маркет Плаза","category":"market","color":"#65a30d","fa_icon":"fa-store","video_url":"https://www.youtube.com/embed/Zseg_MWCd24"}},{"type":"Feature","geometry":{"type":"Point","coordinates":[76.8400395,43.2214204]},"properties":{"kind":"poi","name":"МТГУ","category":"university","color":"#0891b2","fa_icon":"fa-graduation-cap"}}]}