{"type":"FeatureCollection","features":[{"type":"Feature","geometry":{"type":"Point","coordinates":[35.9284,31.9454]},"properties":{"kind":"circle","radius_m":25000,"label":"20 min"}},{"type":"Feature","geometry":{"type":"Point","coordinates":[35.9284,31.9454]},"properties":{"kind":"circle","radius_m":80000,"label":"1 h"}},{"type":"Feature","geometry":{"type":"Point","coordinates":[35.9284,31.9454]},"properties":{"kind":"circle","radius_m":160000,"label":"2 h"}},{"type":"Feature","geometry":{"type":"Point","coordinates":[35.9273182,31.9455804]},"properties":{"kind":"poi","name":"متحف الأردن","category":"museum","color":"#b45309","fa_icon":"fa-landmark","website":"https://jordanmuseum.jo/","ticket_url":"https://jordanmuseum.jo/"}},{"type":"Feature","geometry":{"type":"Point","coordinates":[35.9211777,31.9511145]},"properties":{"kind":"poi","name":"متحف الحياة البرلمانية","category":"museum","color":"#b45309","fa_icon":"fa-landmark"}},{"type":"Feature","geometry":{"type":"Point","coordinates":[35.9355474,31.9500152]},"properties":{"kind":"poi","name":"سوق الخضرا","category":"market","color":"#65a30d","fa_icon":"fa-store","video_url":"https://www.youtube.com/embed/xxR6YNNDaQY"}}]}