{"type":"FeatureCollection","features":[{"type":"Feature","geometry":{"type":"Point","coordinates":[4.9041,52.3676]},"properties":{"kind":"circle","radius_m":25000,"label":"20 min"}},{"type":"Feature","geometry":{"type":"Point","coordinates":[4.9041,52.3676]},"properties":{"kind":"circle","radius_m":80000,"label":"1 h"}},{"type":"Feature","geometry":{"type":"Point","coordinates":[4.9041,52.3676]},"properties":{"kind":"circle","radius_m":160000,"label":"2 h"}},{"type":"Feature","geometry":{"type":"Point","coordinates":[4.8930549,52.3688053]},"properties":{"kind":"poi","name":"Allard Pierson Museum","category":"museum","color":"#b45309","fa_icon":"fa-landmark","website":"https://www.amsterdammuseum.nl/","ticket_url":"https://www.amsterdammuseum.nl/"}},{"type":"Feature","geometry":{"type":"Point","coordinates":[4.911154,52.3664388]},"properties":{"kind":"poi","name":"Hollandsche Schouwburg","category":"museum","color":"#b45309","fa_icon":"fa-landmark","website":"https://www.hollandscheschouwburg.nl/en","ticket_url":"https://www.hollandscheschouwburg.nl/en"}},{"type":"Feature","geometry":{"type":"Point","coordinates":[4.9019685,52.3695688]},"properties":{"kind":"poi","name":"Amsterdamse Hogeschool voor de Kunsten","category":"university","color":"#0891b2","fa_icon":"fa-graduation-cap"}},{"type":"Feature","geometry":{"type":"Point","coordinates":[4.8993657,52.3751725]},"properties":{"kind":"poi","name":"Ons' Lieve Heer op Solder","category":"museum","color":"#b45309","fa_icon":"fa-landmark","website":"https://sexmuseumamsterdam.nl/","ticket_url":"https://sexmuseumamsterdam.nl/"}},{"type":"Feature","geometry":{"type":"Point","coordinates":[4.9147861,52.3720101]},"properties":{"kind":"poi","name":"Het Scheepvaartmuseum","category":"museum","color":"#b45309","fa_icon":"fa-landmark","website":"https://www.nemosciencemuseum.nl","ticket_url":"https://www.nemosciencemuseum.nl"}},{"type":"Feature","geometry":{"type":"Point","coordinates":[4.8933781,52.363464]},"properties":{"kind":"poi","name":"Museum Van Loon","category":"museum","color":"#b45309","fa_icon":"fa-landmark","website":"https://www.museumvanloon.nl/","ticket_url":"https://www.museumvanloon.nl/"}},{"type":"Feature","geometry":{"type":"Point","coordinates":[4.9006803,52.3650527]},"properties":{"kind":"poi","name":"Collectie Six","category":"museum","color":"#b45309","fa_icon":"fa-landmark","website":"https://www.willetholthuysen.nl/","ticket_url":"https://www.willetholthuysen.nl/"}},{"type":"Feature","geometry":{"type":"Point","coordinates":[4.9079744,52.3611848]},"properties":{"kind":"poi","name":"Weesperplein","category":"train_station","color":"#2563eb","fa_icon":"fa-train"}},{"type":"Feature","geometry":{"type":"Point","coordinates":[4.9000551,52.3592415]},"properties":{"kind":"poi","name":"De Nieuwe Schatkamer","category":"museum","color":"#b45309","fa_icon":"fa-landmark","website":"https://www.denieuweschatkamer.nl/","ticket_url":"https://www.denieuweschatkamer.nl/"}}]}