{"type":"FeatureCollection","features":[{"type":"Feature","geometry":{"type":"Point","coordinates":[23.7275,37.9838]},"properties":{"kind":"circle","radius_m":400,"label":"5 min walk"}},{"type":"Feature","geometry":{"type":"Point","coordinates":[23.7275,37.9838]},"properties":{"kind":"circle","radius_m":800,"label":"10 min walk"}},{"type":"Feature","geometry":{"type":"Point","coordinates":[23.7275,37.9838]},"properties":{"kind":"circle","radius_m":1200,"label":"15 min walk"}},{"type":"Feature","geometry":{"type":"Point","coordinates":[23.735311,37.9813749]},"properties":{"kind":"poi","name":"Μουσείο Μελέτης Ελληνικού Θεάτρου","category":"museum","color":"#b45309","fa_icon":"fa-landmark","wikidata":"Q1584857","ticket_url":"https://whichmuseum.com/museum/museum-and-study-centre-of-greek-theatre-athens-7197"}},{"type":"Feature","geometry":{"type":"Point","coordinates":[23.731794,37.9878149]},"properties":{"kind":"poi","name":"Εθνικό Μετσόβιο Πολυτεχνείο","category":"university","color":"#0891b2","fa_icon":"fa-graduation-cap","wikidata":"Q1640726","website":"https://www.ntua.gr/el/","courses_url":"https://www.ntua.gr/el/"}},{"type":"Feature","geometry":{"type":"Point","coordinates":[23.7300736,37.9753105]},"properties":{"kind":"poi","name":"Μητροπολιτικός Ναός Αθηνών","category":"monument","color":"#be123c","fa_icon":"fa-monument","wikidata":"Q981372","wikipedia_url":"https://el.wikipedia.org/wiki/%CE%91%CF%81%CF%87%CE%B5%CE%AF%CE%BF:%CE%9C%CE%B7%CF%84%CF%81%CE%BF%CF%80%CE%BF%CE%BB%CE%B9%CF%84%CE%B9%CE%BA%CF%8C%CF%82_%CE%9D%CE%B1%CF%8C%CF%82_%CE%91%CE%B8%CE%B7%CE%BD%CF%8E%CE%BD_3177-Pano.jpg"}},{"type":"Feature","geometry":{"type":"Point","coordinates":[23.7228039,37.9747143]},"properties":{"kind":"poi","name":"Αρχαία Αγορά","category":"monument","color":"#be123c","fa_icon":"fa-monument","wikidata":"Q395367","wikipedia_url":"https://el.wikipedia.org/wiki/%CE%91%CF%81%CF%87%CE%B1%CE%AF%CE%B1_%CE%91%CE%B3%CE%BF%CF%81%CE%AC"}},{"type":"Feature","geometry":{"type":"Point","coordinates":[23.7279901,37.9841128]},"properties":{"kind":"poi","name":"Ομόνοια","category":"transit","color":"#0369a1","fa_icon":"fa-bus","wikidata":"Q2630496"}},{"type":"Feature","geometry":{"type":"Point","coordinates":[23.7214003,37.9808637]},"properties":{"kind":"poi","name":"Παλιά Πινακοθήκη Δήμου Αθηναίων","category":"museum","color":"#b45309","fa_icon":"fa-landmark","wikidata":"Q1576793","website":"http://www.pekam.org.gr/mouseio-makronhsou.html","ticket_url":"http://www.pekam.org.gr/mouseio-makronhsou.html"}},{"type":"Feature","geometry":{"type":"Point","coordinates":[23.7213796,37.9858525]},"properties":{"kind":"poi","name":"Μεταξουργείο","category":"transit","color":"#0369a1","fa_icon":"fa-bus","wikidata":"Q6823324"}},{"type":"Feature","geometry":{"type":"Point","coordinates":[23.7404447,37.9937303]},"properties":{"kind":"poi","name":"Πεδίον Άρεως","category":"park","color":"#16a34a","fa_icon":"fa-tree","wikidata":"Q932606","website":"https://pediontouareostoparkomas.gr/"}},{"type":"Feature","geometry":{"type":"Point","coordinates":[23.7223963,37.990718]},"properties":{"kind":"poi","name":"Μουσείο Αλέκος Φασιανός","category":"museum","color":"#b45309","fa_icon":"fa-landmark","ticket_url":"https://www.viagogo.com/ua/Theater-Tickets/Museums-Exhibitions/Alekos-Pheasant-Museum-Tickets"}}]}