{"type":"FeatureCollection","features":[{"type":"Feature","geometry":{"type":"Point","coordinates":[-84.388,33.749]},"properties":{"kind":"circle","radius_m":25000,"label":"20 min"}},{"type":"Feature","geometry":{"type":"Point","coordinates":[-84.388,33.749]},"properties":{"kind":"circle","radius_m":80000,"label":"1 h"}},{"type":"Feature","geometry":{"type":"Point","coordinates":[-84.388,33.749]},"properties":{"kind":"circle","radius_m":160000,"label":"2 h"}},{"type":"Feature","geometry":{"type":"Point","coordinates":[-84.3859566,33.7501652]},"properties":{"kind":"poi","name":"Georgia State","category":"train_station","color":"#2563eb","fa_icon":"fa-train"}},{"type":"Feature","geometry":{"type":"Point","coordinates":[-84.3885505,33.7555786]},"properties":{"kind":"poi","name":"Woodruff Park","category":"park","color":"#16a34a","fa_icon":"fa-tree"}},{"type":"Feature","geometry":{"type":"Point","coordinates":[-84.3961654,33.748163]},"properties":{"kind":"poi","name":"Garnett","category":"train_station","color":"#2563eb","fa_icon":"fa-train"}},{"type":"Feature","geometry":{"type":"Point","coordinates":[-84.383103,33.7554342]},"properties":{"kind":"poi","name":"Apex Museum","category":"museum","color":"#b45309","fa_icon":"fa-landmark","website":"https://www.apexmuseum.org/","ticket_url":"https://www.apexmuseum.org/"}},{"type":"Feature","geometry":{"type":"Point","coordinates":[-84.381019,33.744709]},"properties":{"kind":"poi","name":"Rawson-Washington Park","category":"park","color":"#16a34a","fa_icon":"fa-tree"}}]}