{"type":"FeatureCollection","features":[{"type":"Feature","geometry":{"type":"Point","coordinates":[174.7645,-36.8509]},"properties":{"kind":"circle","radius_m":400,"label":"5 min walk"}},{"type":"Feature","geometry":{"type":"Point","coordinates":[174.7645,-36.8509]},"properties":{"kind":"circle","radius_m":800,"label":"10 min walk"}},{"type":"Feature","geometry":{"type":"Point","coordinates":[174.7645,-36.8509]},"properties":{"kind":"circle","radius_m":1200,"label":"15 min walk"}},{"type":"Feature","geometry":{"type":"Point","coordinates":[174.7756727,-36.8590728]},"properties":{"kind":"poi","name":"Pukekawa / Auckland Domain","category":"park","color":"#16a34a","fa_icon":"fa-tree","wikidata":"Q4819519"}},{"type":"Feature","geometry":{"type":"Point","coordinates":[174.7538766,-36.846672]},"properties":{"kind":"poi","name":"Waiatarau / Victoria Park","category":"park","color":"#16a34a","fa_icon":"fa-tree","wikidata":"Q7926902"}},{"type":"Feature","geometry":{"type":"Point","coordinates":[174.7633212,-36.8415441]},"properties":{"kind":"poi","name":"New Zealand Maritime Museum Hui Te Ananui a Tangaroa","category":"museum","color":"#b45309","fa_icon":"fa-landmark","wikidata":"Q7942457","website":"https://maritimemuseum.co.nz","ticket_url":"https://maritimemuseum.co.nz"}},{"type":"Feature","geometry":{"type":"Point","coordinates":[174.7579932,-36.8572355]},"properties":{"kind":"poi","name":"Maota Sāmoa;Sāmoa House","category":"museum","color":"#b45309","fa_icon":"fa-landmark","wikidata":"Q122979647","ticket_url":"https://github.com/features/copilot"}},{"type":"Feature","geometry":{"type":"Point","coordinates":[174.7694892,-36.844623]},"properties":{"kind":"poi","name":"Waitematā","category":"train_station","color":"#2563eb","fa_icon":"fa-train","wikidata":"Q920488"}},{"type":"Feature","geometry":{"type":"Point","coordinates":[174.7621843,-36.8484658]},"properties":{"kind":"poi","name":"Sky Tower","category":"monument","color":"#be123c","fa_icon":"fa-monument","wikidata":"Q722125","website":"https://skycityauckland.co.nz/sky-tower/"}},{"type":"Feature","geometry":{"type":"Point","coordinates":[174.7752368,-36.8470081]},"properties":{"kind":"poi","name":"Māhuhu ki te Rangi Park","category":"park","color":"#16a34a","fa_icon":"fa-tree","wikidata":"Q117841667"}},{"type":"Feature","geometry":{"type":"Point","coordinates":[174.7625642,-36.8545353]},"properties":{"kind":"poi","name":"ACG Academic Colleges Group Pathways Campus","category":"university","color":"#0891b2","fa_icon":"fa-graduation-cap","wikidata":"Q4650660","courses_url":"https://ani-com.hk/"}},{"type":"Feature","geometry":{"type":"Point","coordinates":[174.76452,-36.8662036]},"properties":{"kind":"poi","name":"Waipapa Taumata Rau / University of Auckland","category":"university","color":"#0891b2","fa_icon":"fa-graduation-cap","wikidata":"Q492467","website":"https://auckland.ac.nz","courses_url":"https://auckland.ac.nz"}},{"type":"Feature","geometry":{"type":"Point","coordinates":[174.7680447,-36.8503645]},"properties":{"kind":"poi","name":"Albert Park","category":"park","color":"#16a34a","fa_icon":"fa-tree","wikidata":"Q4710966"}},{"type":"Feature","geometry":{"type":"Point","coordinates":[174.7727904,-36.8541877]},"properties":{"kind":"poi","name":"ASB Tennis Arena","category":"stadium","color":"#ea580c","fa_icon":"fa-futbol"}}]}