{"type":"FeatureCollection","features":[{"type":"Feature","geometry":{"type":"Point","coordinates":[49.8671,40.4093]},"properties":{"kind":"circle","radius_m":400,"label":"5 min walk"}},{"type":"Feature","geometry":{"type":"Point","coordinates":[49.8671,40.4093]},"properties":{"kind":"circle","radius_m":800,"label":"10 min walk"}},{"type":"Feature","geometry":{"type":"Point","coordinates":[49.8671,40.4093]},"properties":{"kind":"circle","radius_m":1200,"label":"15 min walk"}},{"type":"Feature","geometry":{"type":"Point","coordinates":[49.8597561,40.4058948]},"properties":{"kind":"poi","name":"Avrasiya Universiteti Bakı","category":"university","color":"#0891b2","fa_icon":"fa-graduation-cap","wikidata":"Q16413654","courses_url":"https://github.com/features/copilot"}},{"type":"Feature","geometry":{"type":"Point","coordinates":[49.8706376,40.4028217]},"properties":{"kind":"poi","name":"Nəriman Nərimanov","category":"transit","color":"#0369a1","fa_icon":"fa-bus","wikidata":"Q1125310"}},{"type":"Feature","geometry":{"type":"Point","coordinates":[49.8737794,40.4127139]},"properties":{"kind":"poi","name":"Keşlə stansiyası","category":"train_station","color":"#2563eb","fa_icon":"fa-train"}}]}