{"type":"FeatureCollection","features":[{"type":"Feature","geometry":{"type":"Point","coordinates":[77.5946,12.9716]},"properties":{"kind":"circle","radius_m":400,"label":"5 min walk"}},{"type":"Feature","geometry":{"type":"Point","coordinates":[77.5946,12.9716]},"properties":{"kind":"circle","radius_m":800,"label":"10 min walk"}},{"type":"Feature","geometry":{"type":"Point","coordinates":[77.5946,12.9716]},"properties":{"kind":"circle","radius_m":1200,"label":"15 min walk"}},{"type":"Feature","geometry":{"type":"Point","coordinates":[77.5927,12.9694534]},"properties":{"kind":"poi","name":"Sree Kanteerava Stadium","category":"stadium","color":"#ea580c","fa_icon":"fa-futbol","wikidata":"Q7585638"}},{"type":"Feature","geometry":{"type":"Point","coordinates":[77.5964289,12.9752241]},"properties":{"kind":"poi","name":"Visvesvaraya Industrial and Technology Museum","category":"museum","color":"#b45309","fa_icon":"fa-landmark","wikidata":"Q3537014","website":"https://vismuseum.gov.in/","ticket_url":"https://vismuseum.gov.in/"}},{"type":"Feature","geometry":{"type":"Point","coordinates":[77.5966361,12.9625903]},"properties":{"kind":"poi","name":"St. Joseph's University","category":"university","color":"#0891b2","fa_icon":"fa-graduation-cap","wikidata":"Q7589124","website":"https://www.sjc.ac.in/","courses_url":"https://www.sjc.ac.in/"}},{"type":"Feature","geometry":{"type":"Point","coordinates":[77.5829122,12.975045]},"properties":{"kind":"poi","name":"Bengaluru City University","category":"university","color":"#0891b2","fa_icon":"fa-graduation-cap","wikidata":"Q65090067","website":"https://bcu.ac.in","courses_url":"https://bcu.ac.in"}},{"type":"Feature","geometry":{"type":"Point","coordinates":[77.5906379,12.9797245]},"properties":{"kind":"poi","name":"Vidhana Soudha","category":"monument","color":"#be123c","fa_icon":"fa-monument","wikidata":"Q283257"}},{"type":"Feature","geometry":{"type":"Point","coordinates":[77.5995257,12.9788293]},"properties":{"kind":"poi","name":"M Chinnaswamy Stadium","category":"stadium","color":"#ea580c","fa_icon":"fa-futbol"}},{"type":"Feature","geometry":{"type":"Point","coordinates":[77.603711,12.9728315]},"properties":{"kind":"poi","name":"Sandesha Museum of Communication","category":"museum","color":"#b45309","fa_icon":"fa-landmark"}},{"type":"Feature","geometry":{"type":"Point","coordinates":[77.5870212,12.96843]},"properties":{"kind":"poi","name":"Police Memorial Park","category":"park","color":"#16a34a","fa_icon":"fa-tree"}},{"type":"Feature","geometry":{"type":"Point","coordinates":[77.590413,12.9736209]},"properties":{"kind":"poi","name":"Rose Garden","category":"park","color":"#16a34a","fa_icon":"fa-tree"}}]}