{"type":"FeatureCollection","features":[{"type":"Feature","geometry":{"type":"Point","coordinates":[2.1734,41.3851]},"properties":{"kind":"circle","radius_m":400,"label":"5 min walk"}},{"type":"Feature","geometry":{"type":"Point","coordinates":[2.1734,41.3851]},"properties":{"kind":"circle","radius_m":800,"label":"10 min walk"}},{"type":"Feature","geometry":{"type":"Point","coordinates":[2.1734,41.3851]},"properties":{"kind":"circle","radius_m":1200,"label":"15 min walk"}},{"type":"Feature","geometry":{"type":"Point","coordinates":[2.1776778,41.383921]},"properties":{"kind":"poi","name":"Museu d'Història de la Ciutat","category":"museum","color":"#b45309","fa_icon":"fa-landmark","wikidata":"Q3571337","website":"https://ajuntament.barcelona.cat/museuhistoria/","ticket_url":"https://ajuntament.barcelona.cat/museuhistoria/"}},{"type":"Feature","geometry":{"type":"Point","coordinates":[2.1633974,41.3888541]},"properties":{"kind":"poi","name":"Museu del Modernisme Català","category":"museum","color":"#b45309","fa_icon":"fa-landmark","wikidata":"Q15735772","ticket_url":"https://support.yahoo-net.jp/PccHelpcenter/s/"}},{"type":"Feature","geometry":{"type":"Point","coordinates":[2.1836707,41.3881207]},"properties":{"kind":"poi","name":"Laboratori de Natura","category":"museum","color":"#b45309","fa_icon":"fa-landmark","wikidata":"Q11931058","ticket_url":"https://irbarcelona.org/barcelona-museums/museu-blau/"}},{"type":"Feature","geometry":{"type":"Point","coordinates":[2.1692912,41.3875812]},"properties":{"kind":"poi","name":"Barcelona-Plaça de Catalunya","category":"train_station","color":"#2563eb","fa_icon":"fa-train","wikidata":"Q800447","website":"https://www.adif.es/w/78805-pla%C3%A7a-catalunya","transit_url":"https://moovitapp.com/index/en/public_transit-Pla%C3%A7a_Catalunya-Barcelona-site_15418443-362"}},{"type":"Feature","geometry":{"type":"Point","coordinates":[2.1734126,41.3801319]},"properties":{"kind":"poi","name":"Gran Teatre del Liceu","category":"monument","color":"#be123c","fa_icon":"fa-monument","wikidata":"Q1130050","wikipedia_url":"https://es.wikipedia.org/wiki/Gran_Teatro_del_Liceo"}},{"type":"Feature","geometry":{"type":"Point","coordinates":[2.166748,41.3830995]},"properties":{"kind":"poi","name":"Museu d'Art Contemporani de Barcelona","category":"museum","color":"#b45309","fa_icon":"fa-landmark","wikidata":"Q1067140","website":"https://www.macba.cat/","ticket_url":"https://www.macba.cat/"}},{"type":"Feature","geometry":{"type":"Point","coordinates":[2.1790138,41.3783134]},"properties":{"kind":"poi","name":"Plaça del Duc de Medinaceli","category":"park","color":"#16a34a","fa_icon":"fa-tree","wikidata":"Q15267038"}},{"type":"Feature","geometry":{"type":"Point","coordinates":[2.17026,41.3761769]},"properties":{"kind":"poi","name":"Jardins de Sant Pau del Camp","category":"park","color":"#16a34a","fa_icon":"fa-tree","wikidata":"Q61291892"}},{"type":"Feature","geometry":{"type":"Point","coordinates":[2.1696972,41.3933567]},"properties":{"kind":"poi","name":"Jardins de la Torre de les Aigües","category":"park","color":"#16a34a","fa_icon":"fa-tree","wikidata":"Q11952309"}},{"type":"Feature","geometry":{"type":"Point","coordinates":[2.1809092,41.3921143]},"properties":{"kind":"poi","name":"Arc de Triomf","category":"transit","color":"#0369a1","fa_icon":"fa-bus","wikidata":"Q800445","website":"https://www.tmb.cat/ca/barcelona/metro/-/lineametro/estacion/128"}},{"type":"Feature","geometry":{"type":"Point","coordinates":[2.176194,41.3890544]},"properties":{"kind":"poi","name":"Museu Banksy","category":"museum","color":"#b45309","fa_icon":"fa-landmark","ticket_url":"https://www.merriam-webster.com/dictionary/vindicate"}}]}