{"type":"FeatureCollection","features":[{"type":"Feature","geometry":{"type":"Point","coordinates":[116.4074,39.9042]},"properties":{"kind":"circle","radius_m":400,"label":"5 min walk"}},{"type":"Feature","geometry":{"type":"Point","coordinates":[116.4074,39.9042]},"properties":{"kind":"circle","radius_m":800,"label":"10 min walk"}},{"type":"Feature","geometry":{"type":"Point","coordinates":[116.4074,39.9042]},"properties":{"kind":"circle","radius_m":1200,"label":"15 min walk"}},{"type":"Feature","geometry":{"type":"Point","coordinates":[116.4096525,39.9099779]},"properties":{"kind":"poi","name":"中国医学科学院 北京协和医学院","category":"university","color":"#0891b2","fa_icon":"fa-graduation-cap","wikidata":"Q3372325","website":"https://www.pumc.edu.cn/","courses_url":"https://www.pumc.edu.cn/"}},{"type":"Feature","geometry":{"type":"Point","coordinates":[116.3986126,39.9006517]},"properties":{"kind":"poi","name":"北京警察博物馆","category":"museum","color":"#b45309","fa_icon":"fa-landmark","wikidata":"Q15912181"}},{"type":"Feature","geometry":{"type":"Point","coordinates":[116.4045545,39.9023187]},"properties":{"kind":"poi","name":"法国使馆旧址","category":"monument","color":"#be123c","fa_icon":"fa-monument","wikidata":"Q101971182"}},{"type":"Feature","geometry":{"type":"Point","coordinates":[116.3972905,39.9071474]},"properties":{"kind":"poi","name":"菖蒲河公园","category":"park","color":"#16a34a","fa_icon":"fa-tree","wikidata":"Q55652"}},{"type":"Feature","geometry":{"type":"Point","coordinates":[116.4119567,39.8997371]},"properties":{"kind":"poi","name":"崇文门","category":"transit","color":"#0369a1","fa_icon":"fa-bus","wikidata":"Q848288"}},{"type":"Feature","geometry":{"type":"Point","coordinates":[116.4052789,39.9069496]},"properties":{"kind":"poi","name":"王府井","category":"transit","color":"#0369a1","fa_icon":"fa-bus","wikidata":"Q843213"}},{"type":"Feature","geometry":{"type":"Point","coordinates":[116.4048464,39.8965824]},"properties":{"kind":"poi","name":"中央礼品文物管理中心","category":"museum","color":"#b45309","fa_icon":"fa-landmark","ticket_url":"https://bcgforums.com/threads/800mm-portraiture-snowy-egret.52179/"}},{"type":"Feature","geometry":{"type":"Point","coordinates":[116.4205171,39.8997178]},"properties":{"kind":"poi","name":"明城墙遗址公园","category":"park","color":"#16a34a","fa_icon":"fa-tree"}},{"type":"Feature","geometry":{"type":"Point","coordinates":[116.4172824,39.9090825]},"properties":{"kind":"poi","name":"中国妇女儿童博物馆","category":"museum","color":"#b45309","fa_icon":"fa-landmark"}}]}