{"type":"FeatureCollection","features":[{"type":"Feature","geometry":{"type":"Point","coordinates":[35.5018,33.8938]},"properties":{"kind":"circle","radius_m":25000,"label":"20 min"}},{"type":"Feature","geometry":{"type":"Point","coordinates":[35.5018,33.8938]},"properties":{"kind":"circle","radius_m":80000,"label":"1 h"}},{"type":"Feature","geometry":{"type":"Point","coordinates":[35.5018,33.8938]},"properties":{"kind":"circle","radius_m":160000,"label":"2 h"}},{"type":"Feature","geometry":{"type":"Point","coordinates":[35.5081645,33.8915926]},"properties":{"kind":"poi","name":"Museum of Lebanese Prehistory","category":"museum","color":"#b45309","fa_icon":"fa-landmark"}},{"type":"Feature","geometry":{"type":"Point","coordinates":[35.5042859,33.8986012]},"properties":{"kind":"poi","name":"Souks de Beyrouth","category":"monument","color":"#be123c","fa_icon":"fa-monument","wikidata":"Q3491599"}},{"type":"Feature","geometry":{"type":"Point","coordinates":[35.4921494,33.8959237]},"properties":{"kind":"poi","name":"جامعة هايكازيان","category":"university","color":"#0891b2","fa_icon":"fa-graduation-cap"}},{"type":"Feature","geometry":{"type":"Point","coordinates":[35.5083604,33.8869945]},"properties":{"kind":"poi","name":"بيت بيروت","category":"museum","color":"#b45309","fa_icon":"fa-landmark","website":"http://www.beitbeirut.org","ticket_url":"http://www.beitbeirut.org"}},{"type":"Feature","geometry":{"type":"Point","coordinates":[35.5018848,33.8940303]},"properties":{"kind":"poi","name":"جبران خليل جبران","category":"park","color":"#16a34a","fa_icon":"fa-tree"}},{"type":"Feature","geometry":{"type":"Point","coordinates":[35.5006259,33.8882917]},"properties":{"kind":"poi","name":"حديقة حوض الولاية","category":"park","color":"#16a34a","fa_icon":"fa-tree"}}]}