{"type":"FeatureCollection","features":[{"type":"Feature","geometry":{"type":"Point","coordinates":[13.405,52.52]},"properties":{"kind":"circle","radius_m":25000,"label":"20 min"}},{"type":"Feature","geometry":{"type":"Point","coordinates":[13.405,52.52]},"properties":{"kind":"circle","radius_m":80000,"label":"1 h"}},{"type":"Feature","geometry":{"type":"Point","coordinates":[13.405,52.52]},"properties":{"kind":"circle","radius_m":160000,"label":"2 h"}},{"type":"Feature","geometry":{"type":"Point","coordinates":[13.4032794,52.5164279]},"properties":{"kind":"poi","name":"Hochschule für Musik Hanns Eisler Berlin","category":"university","color":"#0891b2","fa_icon":"fa-graduation-cap","website":"https://www.hfm-berlin.de/","courses_url":"https://www.hfm-berlin.de/"}},{"type":"Feature","geometry":{"type":"Point","coordinates":[13.3930145,52.5252246]},"properties":{"kind":"poi","name":"Oranienburger Straße","category":"train_station","color":"#2563eb","fa_icon":"fa-train","transit_url":"https://www.bahnhof.de/en/berlin-oranienburger-strasse/schedule"}},{"type":"Feature","geometry":{"type":"Point","coordinates":[13.4104868,52.5276951]},"properties":{"kind":"poi","name":"Rosa-Luxemburg-Platz","category":"train_station","color":"#2563eb","fa_icon":"fa-train"}},{"type":"Feature","geometry":{"type":"Point","coordinates":[13.4165412,52.5243656]},"properties":{"kind":"poi","name":"Lernort Keibelstraße","category":"museum","color":"#b45309","fa_icon":"fa-landmark","ticket_url":"https://www.keibelstrasse.de/"}},{"type":"Feature","geometry":{"type":"Point","coordinates":[13.3948424,52.5157591]},"properties":{"kind":"poi","name":"St. Hedwigs-Kathedrale Berlin","category":"monument","color":"#be123c","fa_icon":"fa-monument","wikidata":"Q152341"}},{"type":"Feature","geometry":{"type":"Point","coordinates":[13.3983173,52.5208337]},"properties":{"kind":"poi","name":"Alte Nationalgalerie","category":"museum","color":"#b45309","fa_icon":"fa-landmark","website":"https://www.smb.museum/museen-einrichtungen/haus-bastian-zentrum-fuer-kulturelle-bildung/home/","ticket_url":"https://www.smb.museum/museen-einrichtungen/haus-bastian-zentrum-fuer-kulturelle-bildung/home/"}},{"type":"Feature","geometry":{"type":"Point","coordinates":[13.4094213,52.5208198]},"properties":{"kind":"poi","name":"Berliner Fernsehturm","category":"monument","color":"#be123c","fa_icon":"fa-monument","wikidata":"Q650657"}},{"type":"Feature","geometry":{"type":"Point","coordinates":[13.4603442,52.4731643]},"properties":{"kind":"poi","name":"Humboldt Universität zu Berlin","category":"university","color":"#0891b2","fa_icon":"fa-graduation-cap","courses_url":"https://www.hu-berlin.de/en"}},{"type":"Feature","geometry":{"type":"Point","coordinates":[13.4101754,52.5123348]},"properties":{"kind":"poi","name":"Märkisches Museum","category":"train_station","color":"#2563eb","fa_icon":"fa-train"}},{"type":"Feature","geometry":{"type":"Point","coordinates":[13.4004902,52.512246]},"properties":{"kind":"poi","name":"Südpark","category":"park","color":"#16a34a","fa_icon":"fa-tree"}}]}