{"type":"FeatureCollection","features":[{"type":"Feature","geometry":{"type":"Point","coordinates":[-74.0721,4.711]},"properties":{"kind":"circle","radius_m":25000,"label":"20 min"}},{"type":"Feature","geometry":{"type":"Point","coordinates":[-74.0721,4.711]},"properties":{"kind":"circle","radius_m":80000,"label":"1 h"}},{"type":"Feature","geometry":{"type":"Point","coordinates":[-74.0721,4.711]},"properties":{"kind":"circle","radius_m":160000,"label":"2 h"}},{"type":"Feature","geometry":{"type":"Point","coordinates":[-74.0758392,4.7124508]},"properties":{"kind":"poi","name":"Parque Niza Norte II","category":"park","color":"#16a34a","fa_icon":"fa-tree"}},{"type":"Feature","geometry":{"type":"Point","coordinates":[-74.0658215,4.7154689]},"properties":{"kind":"poi","name":"Parque Prado Veraniego Sur","category":"park","color":"#16a34a","fa_icon":"fa-tree"}},{"type":"Feature","geometry":{"type":"Point","coordinates":[-74.0698293,4.7178089]},"properties":{"kind":"poi","name":"Parque las Villas II","category":"park","color":"#16a34a","fa_icon":"fa-tree"}},{"type":"Feature","geometry":{"type":"Point","coordinates":[-74.0745124,4.7168777]},"properties":{"kind":"poi","name":"Universidad Católica Luís Amigó","category":"university","color":"#0891b2","fa_icon":"fa-graduation-cap","website":"https://www.funlam.edu.co/modules/sedebogota/","courses_url":"https://www.funlam.edu.co/modules/sedebogota/"}},{"type":"Feature","geometry":{"type":"Point","coordinates":[-74.0680412,4.7040354]},"properties":{"kind":"poi","name":"Parque Urbanización Lagos de Cordoba Sector Central","category":"park","color":"#16a34a","fa_icon":"fa-tree"}},{"type":"Feature","geometry":{"type":"Point","coordinates":[-74.0745766,4.7037824]},"properties":{"kind":"poi","name":"Parque Urbanizacion Niza Sur","category":"park","color":"#16a34a","fa_icon":"fa-tree"}},{"type":"Feature","geometry":{"type":"Point","coordinates":[-74.0636698,4.707777]},"properties":{"kind":"poi","name":"Parque Córdoba","category":"park","color":"#16a34a","fa_icon":"fa-tree"}}]}