{"type":"FeatureCollection","features":[{"type":"Feature","geometry":{"type":"Point","coordinates":[-71.0589,42.3601]},"properties":{"kind":"circle","radius_m":25000,"label":"20 min"}},{"type":"Feature","geometry":{"type":"Point","coordinates":[-71.0589,42.3601]},"properties":{"kind":"circle","radius_m":80000,"label":"1 h"}},{"type":"Feature","geometry":{"type":"Point","coordinates":[-71.0589,42.3601]},"properties":{"kind":"circle","radius_m":160000,"label":"2 h"}},{"type":"Feature","geometry":{"type":"Point","coordinates":[-71.0555329,42.3507463]},"properties":{"kind":"poi","name":"South Station","category":"train_station","color":"#2563eb","fa_icon":"fa-train"}},{"type":"Feature","geometry":{"type":"Point","coordinates":[-71.0561189,42.3601131]},"properties":{"kind":"poi","name":"Ancient and Honorable Artillery Company Museum","category":"museum","color":"#b45309","fa_icon":"fa-landmark"}},{"type":"Feature","geometry":{"type":"Point","coordinates":[-71.069998,42.3540568]},"properties":{"kind":"poi","name":"Boston Public Garden","category":"park","color":"#16a34a","fa_icon":"fa-tree"}},{"type":"Feature","geometry":{"type":"Point","coordinates":[-71.0621623,42.3615089]},"properties":{"kind":"poi","name":"Cardinal Cushing Memorial Park","category":"park","color":"#16a34a","fa_icon":"fa-tree"}},{"type":"Feature","geometry":{"type":"Point","coordinates":[-71.0627626,42.366865]},"properties":{"kind":"poi","name":"Boston North Station","category":"train_station","color":"#2563eb","fa_icon":"fa-train"}},{"type":"Feature","geometry":{"type":"Point","coordinates":[-71.0604412,42.3554887]},"properties":{"kind":"poi","name":"Downtown Crossing","category":"train_station","color":"#2563eb","fa_icon":"fa-train"}},{"type":"Feature","geometry":{"type":"Point","coordinates":[-71.0561979,42.3669142]},"properties":{"kind":"poi","name":"Skinny House","category":"monument","color":"#be123c","fa_icon":"fa-monument"}},{"type":"Feature","geometry":{"type":"Point","coordinates":[-71.0679004,42.3634958]},"properties":{"kind":"poi","name":"Ether Dome","category":"museum","color":"#b45309","fa_icon":"fa-landmark"}},{"type":"Feature","geometry":{"type":"Point","coordinates":[-71.0879668,42.3548755]},"properties":{"kind":"poi","name":"B.A.A. 10k","category":"monument","color":"#be123c","fa_icon":"fa-monument"}},{"type":"Feature","geometry":{"type":"Point","coordinates":[-71.0536259,42.3551521]},"properties":{"kind":"poi","name":"Boston National Historical Park","category":"park","color":"#16a34a","fa_icon":"fa-tree"}},{"type":"Feature","geometry":{"type":"Point","coordinates":[-71.0678636,42.3589639]},"properties":{"kind":"poi","name":"Phillips School","category":"museum","color":"#b45309","fa_icon":"fa-landmark"}},{"type":"Feature","geometry":{"type":"Point","coordinates":[-71.0495536,42.3639805]},"properties":{"kind":"poi","name":"Pilot House Park","category":"park","color":"#16a34a","fa_icon":"fa-tree"}}]}