{"type":"FeatureCollection","features":[{"type":"Feature","geometry":{"type":"Point","coordinates":[153.0251,-27.4698]},"properties":{"kind":"circle","radius_m":25000,"label":"20 min"}},{"type":"Feature","geometry":{"type":"Point","coordinates":[153.0251,-27.4698]},"properties":{"kind":"circle","radius_m":80000,"label":"1 h"}},{"type":"Feature","geometry":{"type":"Point","coordinates":[153.0251,-27.4698]},"properties":{"kind":"circle","radius_m":160000,"label":"2 h"}},{"type":"Feature","geometry":{"type":"Point","coordinates":[153.0208953,-27.4753229]},"properties":{"kind":"poi","name":"The Wheel of Brisbane","category":"monument","color":"#be123c","fa_icon":"fa-monument"}},{"type":"Feature","geometry":{"type":"Point","coordinates":[153.0296383,-27.475938]},"properties":{"kind":"poi","name":"Brisbane City Botanic Gardens","category":"monument","color":"#be123c","fa_icon":"fa-monument"}},{"type":"Feature","geometry":{"type":"Point","coordinates":[153.0181131,-27.4626672]},"properties":{"kind":"poi","name":"Roma Street Parklands","category":"park","color":"#16a34a","fa_icon":"fa-tree"}},{"type":"Feature","geometry":{"type":"Point","coordinates":[153.0266645,-27.4665345]},"properties":{"kind":"poi","name":"Anzac Square","category":"park","color":"#16a34a","fa_icon":"fa-tree"}},{"type":"Feature","geometry":{"type":"Point","coordinates":[153.0230106,-27.4710583]},"properties":{"kind":"poi","name":"Brisbane City Markets","category":"market","color":"#65a30d","fa_icon":"fa-store"}},{"type":"Feature","geometry":{"type":"Point","coordinates":[153.0316962,-27.4644452]},"properties":{"kind":"poi","name":"Admiralty Towers II Plaza","category":"park","color":"#16a34a","fa_icon":"fa-tree"}},{"type":"Feature","geometry":{"type":"Point","coordinates":[153.0166491,-27.4720076]},"properties":{"kind":"poi","name":"Jolly Place Park","category":"park","color":"#16a34a","fa_icon":"fa-tree"}},{"type":"Feature","geometry":{"type":"Point","coordinates":[153.0343025,-27.470729]},"properties":{"kind":"poi","name":"C.T. White Park","category":"park","color":"#16a34a","fa_icon":"fa-tree"}}]}