{"type":"FeatureCollection","features":[{"type":"Feature","geometry":{"type":"Point","coordinates":[4.3517,50.8503]},"properties":{"kind":"circle","radius_m":400,"label":"5 min walk"}},{"type":"Feature","geometry":{"type":"Point","coordinates":[4.3517,50.8503]},"properties":{"kind":"circle","radius_m":800,"label":"10 min walk"}},{"type":"Feature","geometry":{"type":"Point","coordinates":[4.3517,50.8503]},"properties":{"kind":"circle","radius_m":1200,"label":"15 min walk"}},{"type":"Feature","geometry":{"type":"Point","coordinates":[4.3586397,50.8465485]},"properties":{"kind":"poi","name":"Gare Centrale - Centraal Station","category":"transit","color":"#0369a1","fa_icon":"fa-bus","wikidata":"Q3095502"}},{"type":"Feature","geometry":{"type":"Point","coordinates":[4.3478425,50.8521404]},"properties":{"kind":"poi","name":"Sainte-Catherine - Sint-Katelijne","category":"transit","color":"#0369a1","fa_icon":"fa-bus","wikidata":"Q2744420"}},{"type":"Feature","geometry":{"type":"Point","coordinates":[4.3402537,50.8548502]},"properties":{"kind":"poi","name":"Comte de Flandre - Graaf van Vlaanderen","category":"transit","color":"#0369a1","fa_icon":"fa-bus","wikidata":"Q2542141"}},{"type":"Feature","geometry":{"type":"Point","coordinates":[4.3611838,50.8534645]},"properties":{"kind":"poi","name":"UCLouvain Saint-Louis","category":"university","color":"#0891b2","fa_icon":"fa-graduation-cap","wikidata":"Q1391752","courses_url":"https://www.uclouvain.be/en/profile/students"}},{"type":"Feature","geometry":{"type":"Point","coordinates":[4.3493634,50.8452733]},"properties":{"kind":"poi","name":"Hôtel de Roest d'Alkemade","category":"monument","color":"#be123c","fa_icon":"fa-monument","wikidata":"Q42416686","wikipedia_url":"https://nl.wikipedia.org/wiki/Hotel_de_Roest_d%27Alkemade"}},{"type":"Feature","geometry":{"type":"Point","coordinates":[4.3529481,50.8614729]},"properties":{"kind":"poi","name":"Parc Maximilien - Maximiliaanpark","category":"park","color":"#16a34a","fa_icon":"fa-tree","wikidata":"Q20970389"}},{"type":"Feature","geometry":{"type":"Point","coordinates":[4.357202,50.8414436]},"properties":{"kind":"poi","name":"Jardin de Sculptures - Beeldhouwtuin","category":"park","color":"#16a34a","fa_icon":"fa-tree"}},{"type":"Feature","geometry":{"type":"Point","coordinates":[4.3421327,50.8468486]},"properties":{"kind":"poi","name":"Parc Dolto - Doltopark","category":"park","color":"#16a34a","fa_icon":"fa-tree"}},{"type":"Feature","geometry":{"type":"Point","coordinates":[4.3471994,50.8580023]},"properties":{"kind":"poi","name":"Atelier KANAL","category":"museum","color":"#b45309","fa_icon":"fa-landmark","ticket_url":"https://en.wikipedia.org/wiki/Atelier"}}]}