{"type":"FeatureCollection","features":[{"type":"Feature","geometry":{"type":"Point","coordinates":[26.1025,44.4268]},"properties":{"kind":"circle","radius_m":25000,"label":"20 min"}},{"type":"Feature","geometry":{"type":"Point","coordinates":[26.1025,44.4268]},"properties":{"kind":"circle","radius_m":80000,"label":"1 h"}},{"type":"Feature","geometry":{"type":"Point","coordinates":[26.1025,44.4268]},"properties":{"kind":"circle","radius_m":160000,"label":"2 h"}},{"type":"Feature","geometry":{"type":"Point","coordinates":[26.0987087,44.431803]},"properties":{"kind":"poi","name":"Mănăstirea Stavropoleos","category":"monument","color":"#be123c","fa_icon":"fa-monument","wikidata":"Q3119683","wikipedia_url":"https://th.wikipedia.org/wiki/%E0%B8%AD%E0%B8%B2%E0%B8%A3%E0%B8%B2%E0%B8%A1%E0%B8%AA%E0%B8%95%E0%B8%B2%E0%B8%A7%E0%B8%A3%E0%B8%AD%E0%B8%9B%E0%B8%AD%E0%B9%80%E0%B8%A5%E0%B8%AD%E0%B8%AD%E0%B8%AA"}},{"type":"Feature","geometry":{"type":"Point","coordinates":[26.1024682,44.4355629]},"properties":{"kind":"poi","name":"Universitate","category":"train_station","color":"#2563eb","fa_icon":"fa-train","transit_url":"https://moovitapp.com/index/en/public_transit-Universitate-Bucure%C8%99ti-stop_8515418-2960"}},{"type":"Feature","geometry":{"type":"Point","coordinates":[26.106688,44.431023]},"properties":{"kind":"poi","name":"Templul Coral","category":"monument","color":"#be123c","fa_icon":"fa-monument","wikipedia_url":"https://en.wikipedia.org/wiki/Choral_Temple_(Bucharest)"}},{"type":"Feature","geometry":{"type":"Point","coordinates":[26.0916963,44.4272988]},"properties":{"kind":"poi","name":"Piața Constituției","category":"monument","color":"#be123c","fa_icon":"fa-monument","wikidata":"Q3382271","wikipedia_url":"https://en.wikipedia.org/wiki/Pia%C8%9Ba_Constitu%C8%9Biei"}},{"type":"Feature","geometry":{"type":"Point","coordinates":[26.1025086,44.4242608]},"properties":{"kind":"poi","name":"Academia de Studii Economice","category":"university","color":"#0891b2","fa_icon":"fa-graduation-cap","courses_url":"https://en.wikipedia.org/wiki/Bucharest_Academy_of_Economic_Studies"}},{"type":"Feature","geometry":{"type":"Point","coordinates":[26.1130332,44.4291729]},"properties":{"kind":"poi","name":"Casa Memorială Anton Pann","category":"museum","color":"#b45309","fa_icon":"fa-landmark","ticket_url":"https://ghidulmuzeelor.cimec.ro/idEN.asp?k=2116"}}]}