{"type":"FeatureCollection","features":[{"type":"Feature","geometry":{"type":"Point","coordinates":[19.0402,47.4979]},"properties":{"kind":"circle","radius_m":25000,"label":"20 min"}},{"type":"Feature","geometry":{"type":"Point","coordinates":[19.0402,47.4979]},"properties":{"kind":"circle","radius_m":80000,"label":"1 h"}},{"type":"Feature","geometry":{"type":"Point","coordinates":[19.0402,47.4979]},"properties":{"kind":"circle","radius_m":160000,"label":"2 h"}},{"type":"Feature","geometry":{"type":"Point","coordinates":[19.0339537,47.5006451]},"properties":{"kind":"poi","name":"Arany Sas Patikamúzeum","category":"museum","color":"#b45309","fa_icon":"fa-landmark","website":"https://semmelweismuseum.hu/arany-sas-patikamuzeum/","ticket_url":"https://semmelweismuseum.hu/arany-sas-patikamuzeum/"}},{"type":"Feature","geometry":{"type":"Point","coordinates":[19.0404987,47.4954582]},"properties":{"kind":"poi","name":"Budapesti Történeti Múzeum","category":"museum","color":"#b45309","fa_icon":"fa-landmark","website":"https://www.varmuzeum.hu/","ticket_url":"https://www.varmuzeum.hu/"}},{"type":"Feature","geometry":{"type":"Point","coordinates":[19.0473442,47.4995462]},"properties":{"kind":"poi","name":"Széchenyi István tér","category":"park","color":"#16a34a","fa_icon":"fa-tree"}},{"type":"Feature","geometry":{"type":"Point","coordinates":[19.0389547,47.5038103]},"properties":{"kind":"poi","name":"Szilágyi Dezső téri református templom","category":"monument","color":"#be123c","fa_icon":"fa-monument","wikidata":"Q999637"}},{"type":"Feature","geometry":{"type":"Point","coordinates":[19.0517021,47.4924625]},"properties":{"kind":"poi","name":"Contra-Aquincum","category":"monument","color":"#be123c","fa_icon":"fa-monument"}},{"type":"Feature","geometry":{"type":"Point","coordinates":[19.0436868,47.4910185]},"properties":{"kind":"poi","name":"Eszperantó park","category":"park","color":"#16a34a","fa_icon":"fa-tree"}},{"type":"Feature","geometry":{"type":"Point","coordinates":[19.032172,47.5051426]},"properties":{"kind":"poi","name":"Európa liget","category":"park","color":"#16a34a","fa_icon":"fa-tree"}},{"type":"Feature","geometry":{"type":"Point","coordinates":[19.045872,47.5070937]},"properties":{"kind":"poi","name":"Országház","category":"monument","color":"#be123c","fa_icon":"fa-monument"}},{"type":"Feature","geometry":{"type":"Point","coordinates":[19.0358711,47.4900593]},"properties":{"kind":"poi","name":"Czakó Piacz","category":"market","color":"#65a30d","fa_icon":"fa-store","video_url":"https://www.youtube.com/embed/WxWUmtpj-Ko"}}]}