{"type":"FeatureCollection","features":[{"type":"Feature","geometry":{"type":"Point","coordinates":[-58.3816,-34.6037]},"properties":{"kind":"circle","radius_m":25000,"label":"20 min"}},{"type":"Feature","geometry":{"type":"Point","coordinates":[-58.3816,-34.6037]},"properties":{"kind":"circle","radius_m":80000,"label":"1 h"}},{"type":"Feature","geometry":{"type":"Point","coordinates":[-58.3816,-34.6037]},"properties":{"kind":"circle","radius_m":160000,"label":"2 h"}},{"type":"Feature","geometry":{"type":"Point","coordinates":[-58.3738806,-34.6087695]},"properties":{"kind":"poi","name":"Museo Histórico Nacional del Cabildo y de la Revolución de Mayo","category":"museum","color":"#b45309","fa_icon":"fa-landmark","website":"https://cabildonacional.cultura.gob.ar/","ticket_url":"https://cabildonacional.cultura.gob.ar/"}},{"type":"Feature","geometry":{"type":"Point","coordinates":[-58.3895532,-34.5980366]},"properties":{"kind":"poi","name":"Museo del Holocausto","category":"museum","color":"#b45309","fa_icon":"fa-landmark","website":"https://www.museodelholocausto.org.ar/","ticket_url":"https://www.museodelholocausto.org.ar/"}},{"type":"Feature","geometry":{"type":"Point","coordinates":[-58.3848777,-34.6014395]},"properties":{"kind":"poi","name":"Tribunales - Teatro Colón","category":"train_station","color":"#2563eb","fa_icon":"fa-train"}},{"type":"Feature","geometry":{"type":"Point","coordinates":[-58.3743531,-34.5996894]},"properties":{"kind":"poi","name":"Museo Nacional de Arte Oriental","category":"museum","color":"#b45309","fa_icon":"fa-landmark","website":"https://mnao.cultura.gob.ar/","ticket_url":"https://mnao.cultura.gob.ar/"}},{"type":"Feature","geometry":{"type":"Point","coordinates":[-58.3882251,-34.6095804]},"properties":{"kind":"poi","name":"Plaza Mariano Moreno","category":"park","color":"#16a34a","fa_icon":"fa-tree"}},{"type":"Feature","geometry":{"type":"Point","coordinates":[-58.3808959,-34.608771]},"properties":{"kind":"poi","name":"Cataratas del Iguazú, Misiones","category":"monument","color":"#be123c","fa_icon":"fa-monument","wikidata":"Q5640527"}},{"type":"Feature","geometry":{"type":"Point","coordinates":[-58.3850263,-34.5954882]},"properties":{"kind":"poi","name":"Museo Regina Pacini de Alvear","category":"museum","color":"#b45309","fa_icon":"fa-landmark","website":"http://casadelteatro.org.ar/museo-regina-pacini/","ticket_url":"http://casadelteatro.org.ar/museo-regina-pacini/"}},{"type":"Feature","geometry":{"type":"Point","coordinates":[-58.3720766,-34.6042633]},"properties":{"kind":"poi","name":"Archivo y Museo del Banco de la Provincia de Buenos Aires","category":"museum","color":"#b45309","fa_icon":"fa-landmark","website":"http://cpf.org.ar/museo-policial/","ticket_url":"http://cpf.org.ar/museo-policial/"}},{"type":"Feature","geometry":{"type":"Point","coordinates":[-58.3762795,-34.5946413]},"properties":{"kind":"poi","name":"Plaza San Martín","category":"park","color":"#16a34a","fa_icon":"fa-tree"}},{"type":"Feature","geometry":{"type":"Point","coordinates":[-58.3913472,-34.6040158]},"properties":{"kind":"poi","name":"UMSA - Universidad del Museo Social Argentino","category":"university","color":"#0891b2","fa_icon":"fa-graduation-cap"}}]}