{"type":"FeatureCollection","features":[{"type":"Feature","geometry":{"type":"Point","coordinates":[31.2357,30.0444]},"properties":{"kind":"circle","radius_m":25000,"label":"20 min"}},{"type":"Feature","geometry":{"type":"Point","coordinates":[31.2357,30.0444]},"properties":{"kind":"circle","radius_m":80000,"label":"1 h"}},{"type":"Feature","geometry":{"type":"Point","coordinates":[31.2357,30.0444]},"properties":{"kind":"circle","radius_m":160000,"label":"2 h"}},{"type":"Feature","geometry":{"type":"Point","coordinates":[31.2336017,30.0478467]},"properties":{"kind":"poi","name":"المتحف المصري","category":"museum","color":"#b45309","fa_icon":"fa-landmark","website":"https://egyptianmuseumcairo.eg/emc/ar/","ticket_url":"https://egyptianmuseumcairo.eg/emc/ar/"}},{"type":"Feature","geometry":{"type":"Point","coordinates":[31.2274622,30.0447733]},"properties":{"kind":"poi","name":"حديقة الأندلس","category":"park","color":"#16a34a","fa_icon":"fa-tree"}},{"type":"Feature","geometry":{"type":"Point","coordinates":[31.2389613,30.0440738]},"properties":{"kind":"poi","name":"مكتبة الجامعة الأمريكية","category":"university","color":"#0891b2","fa_icon":"fa-graduation-cap"}},{"type":"Feature","geometry":{"type":"Point","coordinates":[31.2379266,30.0375931]},"properties":{"kind":"poi","name":"حديقة ضريح سعد زغلول","category":"park","color":"#16a34a","fa_icon":"fa-tree"}},{"type":"Feature","geometry":{"type":"Point","coordinates":[31.2270949,30.049869]},"properties":{"kind":"poi","name":"حديقة النهر","category":"park","color":"#16a34a","fa_icon":"fa-tree"}},{"type":"Feature","geometry":{"type":"Point","coordinates":[31.244276,30.0453923]},"properties":{"kind":"poi","name":"نجيب","category":"train_station","color":"#2563eb","fa_icon":"fa-train"}}]}