{"type":"FeatureCollection","features":[{"type":"Feature","geometry":{"type":"Point","coordinates":[-114.0719,51.0447]},"properties":{"kind":"circle","radius_m":400,"label":"5 min walk"}},{"type":"Feature","geometry":{"type":"Point","coordinates":[-114.0719,51.0447]},"properties":{"kind":"circle","radius_m":800,"label":"10 min walk"}},{"type":"Feature","geometry":{"type":"Point","coordinates":[-114.0719,51.0447]},"properties":{"kind":"circle","radius_m":1200,"label":"15 min walk"}},{"type":"Feature","geometry":{"type":"Point","coordinates":[-114.069893,51.041108]},"properties":{"kind":"poi","name":"Central Memorial Park","category":"park","color":"#16a34a","fa_icon":"fa-tree","wikidata":"Q5061417"}},{"type":"Feature","geometry":{"type":"Point","coordinates":[-114.0750235,51.0467885]},"properties":{"kind":"poi","name":"6 Street Southwest","category":"transit","color":"#0369a1","fa_icon":"fa-bus","wikidata":"Q16653157"}},{"type":"Feature","geometry":{"type":"Point","coordinates":[-114.064237,51.0465822]},"properties":{"kind":"poi","name":"1 Street Southwest","category":"transit","color":"#0369a1","fa_icon":"fa-bus","wikidata":"Q4186411"}},{"type":"Feature","geometry":{"type":"Point","coordinates":[-114.0765812,51.0523353]},"properties":{"kind":"poi","name":"West Eau Claire Park","category":"park","color":"#16a34a","fa_icon":"fa-tree","wikidata":"Q109721141"}},{"type":"Feature","geometry":{"type":"Point","coordinates":[-114.0835293,51.0415139]},"properties":{"kind":"poi","name":"Barb Scott Park","category":"park","color":"#16a34a","fa_icon":"fa-tree","wikidata":"Q111167710"}},{"type":"Feature","geometry":{"type":"Point","coordinates":[-114.0639737,51.0524222]},"properties":{"kind":"poi","name":"Sien Lok Park;善樂公園","category":"park","color":"#16a34a","fa_icon":"fa-tree","wikidata":"Q111070444"}},{"type":"Feature","geometry":{"type":"Point","coordinates":[-114.0821481,51.0463644]},"properties":{"kind":"poi","name":"University of Calgary Downtown Campus","category":"university","color":"#0891b2","fa_icon":"fa-graduation-cap","website":"https://www.ucalgary.ca/downtown/","courses_url":"https://www.ucalgary.ca/downtown/"}},{"type":"Feature","geometry":{"type":"Point","coordinates":[-114.0642147,51.0380656]},"properties":{"kind":"poi","name":"Humpy Hollow Park","category":"park","color":"#16a34a","fa_icon":"fa-tree"}},{"type":"Feature","geometry":{"type":"Point","coordinates":[-114.0579745,51.0417543]},"properties":{"kind":"poi","name":"Enoch Park","category":"park","color":"#16a34a","fa_icon":"fa-tree"}}]}