{"type":"FeatureCollection","features":[{"type":"Feature","geometry":{"type":"Point","coordinates":[18.4241,-33.9249]},"properties":{"kind":"circle","radius_m":400,"label":"5 min walk"}},{"type":"Feature","geometry":{"type":"Point","coordinates":[18.4241,-33.9249]},"properties":{"kind":"circle","radius_m":800,"label":"10 min walk"}},{"type":"Feature","geometry":{"type":"Point","coordinates":[18.4241,-33.9249]},"properties":{"kind":"circle","radius_m":1200,"label":"15 min walk"}},{"type":"Feature","geometry":{"type":"Point","coordinates":[18.4149534,-33.928907]},"properties":{"kind":"poi","name":"Iziko South African Museum","category":"museum","color":"#b45309","fa_icon":"fa-landmark","wikidata":"Q6102031","website":"https://moicapetown.co.za","ticket_url":"https://moicapetown.co.za"}},{"type":"Feature","geometry":{"type":"Point","coordinates":[18.4198815,-33.9231199]},"properties":{"kind":"poi","name":"Old Town House Museum","category":"museum","color":"#b45309","fa_icon":"fa-landmark","wikidata":"Q13034442","ticket_url":"https://dictionary.cambridge.org/vi/dictionary/english/old"}},{"type":"Feature","geometry":{"type":"Point","coordinates":[18.4263523,-33.9224221]},"properties":{"kind":"poi","name":"Cape Town Station","category":"train_station","color":"#2563eb","fa_icon":"fa-train","wikidata":"Q1034496"}},{"type":"Feature","geometry":{"type":"Point","coordinates":[18.4237456,-33.9278109]},"properties":{"kind":"poi","name":"District Six Museum","category":"museum","color":"#b45309","fa_icon":"fa-landmark","wikidata":"Q2616757","website":"https://www.districtsix.co.za/","ticket_url":"https://www.districtsix.co.za/"}},{"type":"Feature","geometry":{"type":"Point","coordinates":[18.4227193,-33.9337322]},"properties":{"kind":"poi","name":"Jutland Park","category":"park","color":"#16a34a","fa_icon":"fa-tree"}},{"type":"Feature","geometry":{"type":"Point","coordinates":[18.4183298,-33.9175394]},"properties":{"kind":"poi","name":"rooftop garden","category":"park","color":"#16a34a","fa_icon":"fa-tree"}}]}