{"type":"FeatureCollection","features":[{"type":"Feature","geometry":{"type":"Point","coordinates":[-66.9036,10.4806]},"properties":{"kind":"circle","radius_m":25000,"label":"20 min"}},{"type":"Feature","geometry":{"type":"Point","coordinates":[-66.9036,10.4806]},"properties":{"kind":"circle","radius_m":80000,"label":"1 h"}},{"type":"Feature","geometry":{"type":"Point","coordinates":[-66.9036,10.4806]},"properties":{"kind":"circle","radius_m":160000,"label":"2 h"}},{"type":"Feature","geometry":{"type":"Point","coordinates":[-66.8919633,10.4901798]},"properties":{"kind":"poi","name":"Universidad Central de Venezuela","category":"university","color":"#0891b2","fa_icon":"fa-graduation-cap","website":"http://www.ucv.ve/","courses_url":"http://www.ucv.ve/"}},{"type":"Feature","geometry":{"type":"Point","coordinates":[-66.8951699,10.4837793]},"properties":{"kind":"poi","name":"Los Símbolos","category":"train_station","color":"#2563eb","fa_icon":"fa-train"}},{"type":"Feature","geometry":{"type":"Point","coordinates":[-66.9008891,10.4794192]},"properties":{"kind":"poi","name":"La Bandera","category":"train_station","color":"#2563eb","fa_icon":"fa-train"}}]}