{"type":"FeatureCollection","features":[{"type":"Feature","geometry":{"type":"Point","coordinates":[-87.6298,41.8781]},"properties":{"kind":"circle","radius_m":25000,"label":"20 min"}},{"type":"Feature","geometry":{"type":"Point","coordinates":[-87.6298,41.8781]},"properties":{"kind":"circle","radius_m":80000,"label":"1 h"}},{"type":"Feature","geometry":{"type":"Point","coordinates":[-87.6298,41.8781]},"properties":{"kind":"circle","radius_m":160000,"label":"2 h"}},{"type":"Feature","geometry":{"type":"Point","coordinates":[-87.6289437,41.8769158]},"properties":{"kind":"poi","name":"Harold Washington Library-State/Van Buren","category":"train_station","color":"#2563eb","fa_icon":"fa-train"}},{"type":"Feature","geometry":{"type":"Point","coordinates":[-87.6390928,41.8786411]},"properties":{"kind":"poi","name":"Chicago Union Station","category":"train_station","color":"#2563eb","fa_icon":"fa-train"}},{"type":"Feature","geometry":{"type":"Point","coordinates":[-87.6246632,41.8806197]},"properties":{"kind":"poi","name":"Pritzker Military Museum & Library","category":"museum","color":"#b45309","fa_icon":"fa-landmark"}},{"type":"Feature","geometry":{"type":"Point","coordinates":[-87.62507,41.871231]},"properties":{"kind":"poi","name":"East West University","category":"university","color":"#0891b2","fa_icon":"fa-graduation-cap"}},{"type":"Feature","geometry":{"type":"Point","coordinates":[-87.6338517,41.8824096]},"properties":{"kind":"poi","name":"Washington/Wells","category":"train_station","color":"#2563eb","fa_icon":"fa-train"}},{"type":"Feature","geometry":{"type":"Point","coordinates":[-87.6176085,41.8827196]},"properties":{"kind":"poi","name":"Maggie Daley Park","category":"park","color":"#16a34a","fa_icon":"fa-tree"}},{"type":"Feature","geometry":{"type":"Point","coordinates":[-87.6258243,41.8872333]},"properties":{"kind":"poi","name":"Chicago Riverwalk","category":"park","color":"#16a34a","fa_icon":"fa-tree"}},{"type":"Feature","geometry":{"type":"Point","coordinates":[-87.6189721,41.8758019]},"properties":{"kind":"poi","name":"Buckingham Fountain","category":"monument","color":"#be123c","fa_icon":"fa-monument"}},{"type":"Feature","geometry":{"type":"Point","coordinates":[-87.6349264,41.8720826]},"properties":{"kind":"poi","name":"Polk Street Pier","category":"park","color":"#16a34a","fa_icon":"fa-tree"}}]}