{"type":"FeatureCollection","features":[{"type":"Feature","geometry":{"type":"Point","coordinates":[12.5683,55.6761]},"properties":{"kind":"circle","radius_m":400,"label":"5 min walk"}},{"type":"Feature","geometry":{"type":"Point","coordinates":[12.5683,55.6761]},"properties":{"kind":"circle","radius_m":800,"label":"10 min walk"}},{"type":"Feature","geometry":{"type":"Point","coordinates":[12.5683,55.6761]},"properties":{"kind":"circle","radius_m":1200,"label":"15 min walk"}},{"type":"Feature","geometry":{"type":"Point","coordinates":[12.5773893,55.6809781]},"properties":{"kind":"poi","name":"Det Teologiske Fakultet, Københavns Universitet","category":"university","color":"#0891b2","fa_icon":"fa-graduation-cap","wikidata":"Q7895309","courses_url":"http://www.englishtest.duolingo.com/"}},{"type":"Feature","geometry":{"type":"Point","coordinates":[12.5653736,55.6724527]},"properties":{"kind":"poi","name":"Københavns Hovedbanegård","category":"train_station","color":"#2563eb","fa_icon":"fa-train","wikidata":"Q1495052","website":"https://www.dsb.dk/trafikinformation/stationer/kobenhavn-h/","transit_url":"https://moovitapp.com/index/en/public_transit-K%C3%B8benhavn_H-Danmark-stop_37436644-2965"}},{"type":"Feature","geometry":{"type":"Point","coordinates":[12.5797395,55.6731268]},"properties":{"kind":"poi","name":"Kongernes Lapidarium","category":"museum","color":"#b45309","fa_icon":"fa-landmark","wikidata":"Q17166231","website":"http://www.kongerneslapidarium.dk/","ticket_url":"http://www.kongerneslapidarium.dk/"}},{"type":"Feature","geometry":{"type":"Point","coordinates":[12.5665612,55.6811139]},"properties":{"kind":"poi","name":"Ørstedsparken","category":"park","color":"#16a34a","fa_icon":"fa-tree","wikidata":"Q2686981"}},{"type":"Feature","geometry":{"type":"Point","coordinates":[12.5747778,55.6689338]},"properties":{"kind":"poi","name":"Kalvebod Bølge","category":"monument","color":"#be123c","fa_icon":"fa-monument","wikidata":"Q12321153","wikipedia_url":"https://no.wikipedia.org/wiki/Fil:Kalvebod_B%C3%B8lge_Copenhagen_03.JPG"}},{"type":"Feature","geometry":{"type":"Point","coordinates":[12.5706746,55.6771718]},"properties":{"kind":"poi","name":"Museum of Illusions Copenhagen","category":"museum","color":"#b45309","fa_icon":"fa-landmark","wikidata":"Q125510981","website":"https://moicopenhagen.com/","ticket_url":"https://moicopenhagen.com/"}},{"type":"Feature","geometry":{"type":"Point","coordinates":[12.555158,55.676394]},"properties":{"kind":"poi","name":"Søfrontparken","category":"park","color":"#16a34a","fa_icon":"fa-tree"}}]}