{"type":"FeatureCollection","features":[{"type":"Feature","geometry":{"type":"Point","coordinates":[77.1025,28.7041]},"properties":{"kind":"circle","radius_m":25000,"label":"20 min"}},{"type":"Feature","geometry":{"type":"Point","coordinates":[77.1025,28.7041]},"properties":{"kind":"circle","radius_m":80000,"label":"1 h"}},{"type":"Feature","geometry":{"type":"Point","coordinates":[77.1025,28.7041]},"properties":{"kind":"circle","radius_m":160000,"label":"2 h"}},{"type":"Feature","geometry":{"type":"Point","coordinates":[77.1093382,28.6967584]},"properties":{"kind":"poi","name":"National Forensic Sciences University Delhi Campus","category":"university","color":"#0891b2","fa_icon":"fa-graduation-cap","website":"https://delhi.nfsu.ac.in/","courses_url":"https://delhi.nfsu.ac.in/"}}]}