{"type":"FeatureCollection","features":[{"type":"Feature","geometry":{"type":"Point","coordinates":[90.4125,23.8103]},"properties":{"kind":"circle","radius_m":25000,"label":"20 min"}},{"type":"Feature","geometry":{"type":"Point","coordinates":[90.4125,23.8103]},"properties":{"kind":"circle","radius_m":80000,"label":"1 h"}},{"type":"Feature","geometry":{"type":"Point","coordinates":[90.4125,23.8103]},"properties":{"kind":"circle","radius_m":160000,"label":"2 h"}},{"type":"Feature","geometry":{"type":"Point","coordinates":[90.4041878,23.8055685]},"properties":{"kind":"poi","name":"বাংলাদেশ আর্মি স্টেডিয়াম","category":"stadium","color":"#ea580c","fa_icon":"fa-futbol"}},{"type":"Feature","geometry":{"type":"Point","coordinates":[90.4105383,23.8158586]},"properties":{"kind":"poi","name":"ঢাকা ক্যান্টনমেন্ট","category":"train_station","color":"#2563eb","fa_icon":"fa-train"}},{"type":"Feature","geometry":{"type":"Point","coordinates":[90.4204577,23.8058574]},"properties":{"kind":"poi","name":"Baridhara Play Ground","category":"park","color":"#16a34a","fa_icon":"fa-tree"}},{"type":"Feature","geometry":{"type":"Point","coordinates":[90.4220594,23.8116271]},"properties":{"kind":"poi","name":"London Ikram Tower","category":"market","color":"#65a30d","fa_icon":"fa-store","video_url":"https://www.youtube.com/embed/VDFA-DffLTY"}},{"type":"Feature","geometry":{"type":"Point","coordinates":[90.4098712,23.8014923]},"properties":{"kind":"poi","name":"গুলশান লেক পার্ক","category":"park","color":"#16a34a","fa_icon":"fa-tree"}},{"type":"Feature","geometry":{"type":"Point","coordinates":[90.4178783,23.8014094]},"properties":{"kind":"poi","name":"Baridhara Park","category":"park","color":"#16a34a","fa_icon":"fa-tree"}},{"type":"Feature","geometry":{"type":"Point","coordinates":[90.4028797,23.8110302]},"properties":{"kind":"poi","name":"Hero Gate","category":"museum","color":"#b45309","fa_icon":"fa-landmark"}}]}