{"type":"FeatureCollection","features":[{"type":"Feature","geometry":{"type":"Point","coordinates":[51.531,25.2854]},"properties":{"kind":"circle","radius_m":25000,"label":"20 min"}},{"type":"Feature","geometry":{"type":"Point","coordinates":[51.531,25.2854]},"properties":{"kind":"circle","radius_m":80000,"label":"1 h"}},{"type":"Feature","geometry":{"type":"Point","coordinates":[51.531,25.2854]},"properties":{"kind":"circle","radius_m":160000,"label":"2 h"}},{"type":"Feature","geometry":{"type":"Point","coordinates":[51.5255767,25.282817]},"properties":{"kind":"poi","name":"مشيرب","category":"train_station","color":"#2563eb","fa_icon":"fa-train"}},{"type":"Feature","geometry":{"type":"Point","coordinates":[51.5332181,25.2882947]},"properties":{"kind":"poi","name":"سوق واقف","category":"monument","color":"#be123c","fa_icon":"fa-monument"}},{"type":"Feature","geometry":{"type":"Point","coordinates":[51.514097,25.3008783]},"properties":{"kind":"poi","name":"حديقة البدع","category":"park","color":"#16a34a","fa_icon":"fa-tree"}},{"type":"Feature","geometry":{"type":"Point","coordinates":[51.5385766,25.2870624]},"properties":{"kind":"poi","name":"Al Qubib Masjid Plaza","category":"park","color":"#16a34a","fa_icon":"fa-tree"}}]}