{"type":"FeatureCollection","features":[{"type":"Feature","geometry":{"type":"Point","coordinates":[55.2708,25.2048]},"properties":{"kind":"circle","radius_m":25000,"label":"20 min"}},{"type":"Feature","geometry":{"type":"Point","coordinates":[55.2708,25.2048]},"properties":{"kind":"circle","radius_m":80000,"label":"1 h"}},{"type":"Feature","geometry":{"type":"Point","coordinates":[55.2708,25.2048]},"properties":{"kind":"circle","radius_m":160000,"label":"2 h"}},{"type":"Feature","geometry":{"type":"Point","coordinates":[55.2695451,25.2014367]},"properties":{"kind":"poi","name":"دبي مول / برج خليفة","category":"train_station","color":"#2563eb","fa_icon":"fa-train"}},{"type":"Feature","geometry":{"type":"Point","coordinates":[55.2755321,25.2108215]},"properties":{"kind":"poi","name":"المركز المالي","category":"train_station","color":"#2563eb","fa_icon":"fa-train"}},{"type":"Feature","geometry":{"type":"Point","coordinates":[55.2742132,25.1970352]},"properties":{"kind":"poi","name":"برج خليفة","category":"monument","color":"#be123c","fa_icon":"fa-monument"}},{"type":"Feature","geometry":{"type":"Point","coordinates":[55.2649969,25.208816]},"properties":{"kind":"poi","name":"حديقة الخزّان","category":"park","color":"#16a34a","fa_icon":"fa-tree"}}]}