{"type":"FeatureCollection","features":[{"type":"Feature","geometry":{"type":"Point","coordinates":[-103.3496,20.6597]},"properties":{"kind":"circle","radius_m":25000,"label":"20 min"}},{"type":"Feature","geometry":{"type":"Point","coordinates":[-103.3496,20.6597]},"properties":{"kind":"circle","radius_m":80000,"label":"1 h"}},{"type":"Feature","geometry":{"type":"Point","coordinates":[-103.3496,20.6597]},"properties":{"kind":"circle","radius_m":160000,"label":"2 h"}},{"type":"Feature","geometry":{"type":"Point","coordinates":[-103.347999,20.660193]},"properties":{"kind":"poi","name":"Parque Agua Azul","category":"park","color":"#16a34a","fa_icon":"fa-tree"}},{"type":"Feature","geometry":{"type":"Point","coordinates":[-103.358388,20.661493]},"properties":{"kind":"poi","name":"Centro De Investigaciones Y Estudios Superiores En Antropologia Social","category":"university","color":"#0891b2","fa_icon":"fa-graduation-cap"}},{"type":"Feature","geometry":{"type":"Point","coordinates":[-103.350689,20.6665557]},"properties":{"kind":"poi","name":"Jardín de Mexicaltzingo","category":"park","color":"#16a34a","fa_icon":"fa-tree"}},{"type":"Feature","geometry":{"type":"Point","coordinates":[-103.345901,20.6536568]},"properties":{"kind":"poi","name":"Centro Universitario Uteg","category":"university","color":"#0891b2","fa_icon":"fa-graduation-cap"}},{"type":"Feature","geometry":{"type":"Point","coordinates":[-103.3521573,20.6562858]},"properties":{"kind":"poi","name":"José Cuervo Express","category":"train_station","color":"#2563eb","fa_icon":"fa-train"}}]}