{"type":"FeatureCollection","features":[{"type":"Feature","geometry":{"type":"Point","coordinates":[105.8542,21.0285]},"properties":{"kind":"circle","radius_m":25000,"label":"20 min"}},{"type":"Feature","geometry":{"type":"Point","coordinates":[105.8542,21.0285]},"properties":{"kind":"circle","radius_m":80000,"label":"1 h"}},{"type":"Feature","geometry":{"type":"Point","coordinates":[105.8542,21.0285]},"properties":{"kind":"circle","radius_m":160000,"label":"2 h"}},{"type":"Feature","geometry":{"type":"Point","coordinates":[105.8504388,21.0343278]},"properties":{"kind":"poi","name":"Nhà 48 phố Hàng Ngang","category":"museum","color":"#b45309","fa_icon":"fa-landmark"}},{"type":"Feature","geometry":{"type":"Point","coordinates":[105.8597158,21.0242432]},"properties":{"kind":"poi","name":"Bảo tàng Lịch sử Quốc gia Việt Nam","category":"museum","color":"#b45309","fa_icon":"fa-landmark"}},{"type":"Feature","geometry":{"type":"Point","coordinates":[105.8516031,21.0234022]},"properties":{"kind":"poi","name":"Bảo tàng Phụ nữ Việt Nam","category":"museum","color":"#b45309","fa_icon":"fa-landmark"}},{"type":"Feature","geometry":{"type":"Point","coordinates":[105.854748,21.0274523]},"properties":{"kind":"poi","name":"Vườn hoa Lý Thái Tổ","category":"park","color":"#16a34a","fa_icon":"fa-tree"}},{"type":"Feature","geometry":{"type":"Point","coordinates":[105.8464274,21.0253763]},"properties":{"kind":"poi","name":"Nhà tù Hỏa Lò","category":"museum","color":"#b45309","fa_icon":"fa-landmark"}},{"type":"Feature","geometry":{"type":"Point","coordinates":[105.8463475,21.0314567]},"properties":{"kind":"poi","name":"Chợ Hàng Da","category":"market","color":"#65a30d","fa_icon":"fa-store"}}]}