{"type":"FeatureCollection","features":[{"type":"Feature","geometry":{"type":"Point","coordinates":[-82.3666,23.1136]},"properties":{"kind":"circle","radius_m":25000,"label":"20 min"}},{"type":"Feature","geometry":{"type":"Point","coordinates":[-82.3666,23.1136]},"properties":{"kind":"circle","radius_m":80000,"label":"1 h"}},{"type":"Feature","geometry":{"type":"Point","coordinates":[-82.3666,23.1136]},"properties":{"kind":"circle","radius_m":160000,"label":"2 h"}},{"type":"Feature","geometry":{"type":"Point","coordinates":[-82.3759994,23.1183852]},"properties":{"kind":"poi","name":"Estadio Latinoamericano","category":"stadium","color":"#ea580c","fa_icon":"fa-futbol"}},{"type":"Feature","geometry":{"type":"Point","coordinates":[-82.3724473,23.1074768]},"properties":{"kind":"poi","name":"Agromercadito y Cárnicos","category":"market","color":"#65a30d","fa_icon":"fa-store"}},{"type":"Feature","geometry":{"type":"Point","coordinates":[-82.3654556,23.1080524]},"properties":{"kind":"poi","name":"Mercado de 10 de Octubre","category":"market","color":"#65a30d","fa_icon":"fa-store"}},{"type":"Feature","geometry":{"type":"Point","coordinates":[-82.364933,23.1228958]},"properties":{"kind":"poi","name":"Museo del Ferrocarril de Cuba","category":"museum","color":"#b45309","fa_icon":"fa-landmark"}},{"type":"Feature","geometry":{"type":"Point","coordinates":[-82.3753597,23.1115067]},"properties":{"kind":"poi","name":"Sede de Ciencias Médicas Salvador Allende","category":"university","color":"#0891b2","fa_icon":"fa-graduation-cap"}},{"type":"Feature","geometry":{"type":"Point","coordinates":[-82.3660631,23.1141935]},"properties":{"kind":"poi","name":"Parque Agua Dulce","category":"park","color":"#16a34a","fa_icon":"fa-tree"}},{"type":"Feature","geometry":{"type":"Point","coordinates":[-82.3588959,23.113559]},"properties":{"kind":"poi","name":"Parque Fábrica","category":"park","color":"#16a34a","fa_icon":"fa-tree"}}]}