{"type":"FeatureCollection","features":[{"type":"Feature","geometry":{"type":"Point","coordinates":[106.6297,10.8231]},"properties":{"kind":"circle","radius_m":25000,"label":"20 min"}},{"type":"Feature","geometry":{"type":"Point","coordinates":[106.6297,10.8231]},"properties":{"kind":"circle","radius_m":80000,"label":"1 h"}},{"type":"Feature","geometry":{"type":"Point","coordinates":[106.6297,10.8231]},"properties":{"kind":"circle","radius_m":160000,"label":"2 h"}},{"type":"Feature","geometry":{"type":"Point","coordinates":[106.6370041,10.8211038]},"properties":{"kind":"poi","name":"Công viên Nguyễn Sỹ Sách","category":"park","color":"#16a34a","fa_icon":"fa-tree"}}]}