{"type":"FeatureCollection","features":[{"type":"Feature","geometry":{"type":"Point","coordinates":[114.1694,22.3193]},"properties":{"kind":"circle","radius_m":25000,"label":"20 min"}},{"type":"Feature","geometry":{"type":"Point","coordinates":[114.1694,22.3193]},"properties":{"kind":"circle","radius_m":80000,"label":"1 h"}},{"type":"Feature","geometry":{"type":"Point","coordinates":[114.1694,22.3193]},"properties":{"kind":"circle","radius_m":160000,"label":"2 h"}},{"type":"Feature","geometry":{"type":"Point","coordinates":[114.1718556,22.3150001]},"properties":{"kind":"poi","name":"東華三院文物館 Tung Wah Museum","category":"museum","color":"#b45309","fa_icon":"fa-landmark","website":"https://www.tungwah.org.hk/heritage/tw-museum/","ticket_url":"https://www.tungwah.org.hk/heritage/tw-museum/"}},{"type":"Feature","geometry":{"type":"Point","coordinates":[114.1604395,22.3236445]},"properties":{"kind":"poi","name":"樂群街公園 Lok Kwan Street Park","category":"park","color":"#16a34a","fa_icon":"fa-tree"}},{"type":"Feature","geometry":{"type":"Point","coordinates":[114.1729137,22.3259344]},"properties":{"kind":"poi","name":"旺角大球場 Mong Kok Stadium","category":"stadium","color":"#ea580c","fa_icon":"fa-futbol"}},{"type":"Feature","geometry":{"type":"Point","coordinates":[114.1755033,22.3066899]},"properties":{"kind":"poi","name":"香港理工大學 The Hong Kong Polytechnic University","category":"university","color":"#0891b2","fa_icon":"fa-graduation-cap"}},{"type":"Feature","geometry":{"type":"Point","coordinates":[114.1792869,22.3166628]},"properties":{"kind":"poi","name":"香港都會大學 Hong Kong Metropolitan University","category":"university","color":"#0891b2","fa_icon":"fa-graduation-cap","website":"https://www.hkmu.edu.hk","courses_url":"https://www.hkmu.edu.hk"}},{"type":"Feature","geometry":{"type":"Point","coordinates":[114.1683017,22.3244547]},"properties":{"kind":"poi","name":"太子 Prince Edward","category":"train_station","color":"#2563eb","fa_icon":"fa-train"}},{"type":"Feature","geometry":{"type":"Point","coordinates":[114.1602806,22.3176972]},"properties":{"kind":"poi","name":"奧運 Olympic","category":"train_station","color":"#2563eb","fa_icon":"fa-train"}},{"type":"Feature","geometry":{"type":"Point","coordinates":[114.1650743,22.315335]},"properties":{"kind":"poi","name":"櫻桃街公園 Cherry Street Park","category":"park","color":"#16a34a","fa_icon":"fa-tree"}},{"type":"Feature","geometry":{"type":"Point","coordinates":[114.1708212,22.310432]},"properties":{"kind":"poi","name":"鴉打街臨時遊樂場 Arthur Street Temporary Playground","category":"park","color":"#16a34a","fa_icon":"fa-tree"}},{"type":"Feature","geometry":{"type":"Point","coordinates":[114.1693742,22.3193081]},"properties":{"kind":"poi","name":"旺角 Mong Kok","category":"train_station","color":"#2563eb","fa_icon":"fa-train"}},{"type":"Feature","geometry":{"type":"Point","coordinates":[114.1772258,22.3214531]},"properties":{"kind":"poi","name":"中電鐘樓文化館 CLP Pulse","category":"museum","color":"#b45309","fa_icon":"fa-landmark","website":"https://www.clpulse.com","ticket_url":"https://www.clpulse.com"}}]}