{"type":"FeatureCollection","features":[{"type":"Feature","geometry":{"type":"Point","coordinates":[-95.3698,29.7604]},"properties":{"kind":"circle","radius_m":25000,"label":"20 min"}},{"type":"Feature","geometry":{"type":"Point","coordinates":[-95.3698,29.7604]},"properties":{"kind":"circle","radius_m":80000,"label":"1 h"}},{"type":"Feature","geometry":{"type":"Point","coordinates":[-95.3698,29.7604]},"properties":{"kind":"circle","radius_m":160000,"label":"2 h"}},{"type":"Feature","geometry":{"type":"Point","coordinates":[-95.3780318,29.7612523]},"properties":{"kind":"poi","name":"Eleanor Tinsley Park","category":"park","color":"#16a34a","fa_icon":"fa-tree"}},{"type":"Feature","geometry":{"type":"Point","coordinates":[-95.3651263,29.7641682]},"properties":{"kind":"poi","name":"Sesquicentennial Park","category":"park","color":"#16a34a","fa_icon":"fa-tree"}},{"type":"Feature","geometry":{"type":"Point","coordinates":[-95.3717456,29.7599294]},"properties":{"kind":"poi","name":"Sam Houston Park","category":"park","color":"#16a34a","fa_icon":"fa-tree"}},{"type":"Feature","geometry":{"type":"Point","coordinates":[-95.3658244,29.7558446]},"properties":{"kind":"poi","name":"Main Street Square (southbound)","category":"train_station","color":"#2563eb","fa_icon":"fa-train"}},{"type":"Feature","geometry":{"type":"Point","coordinates":[-95.3599823,29.7654794]},"properties":{"kind":"poi","name":"Johnny Goyen Park","category":"park","color":"#16a34a","fa_icon":"fa-tree"}},{"type":"Feature","geometry":{"type":"Point","coordinates":[-95.3919763,29.7617587]},"properties":{"kind":"poi","name":"Buffalo Bayou Park","category":"park","color":"#16a34a","fa_icon":"fa-tree"}},{"type":"Feature","geometry":{"type":"Point","coordinates":[-95.376245,29.7555097]},"properties":{"kind":"poi","name":"Bethel Church Park","category":"park","color":"#16a34a","fa_icon":"fa-tree"}},{"type":"Feature","geometry":{"type":"Point","coordinates":[-95.3780484,29.765859]},"properties":{"kind":"poi","name":"Dow Elementary Park","category":"park","color":"#16a34a","fa_icon":"fa-tree"}}]}