{"type":"FeatureCollection","features":[{"type":"Feature","geometry":{"type":"Point","coordinates":[28.9784,41.0082]},"properties":{"kind":"circle","radius_m":400,"label":"5 min walk"}},{"type":"Feature","geometry":{"type":"Point","coordinates":[28.9784,41.0082]},"properties":{"kind":"circle","radius_m":800,"label":"10 min walk"}},{"type":"Feature","geometry":{"type":"Point","coordinates":[28.9784,41.0082]},"properties":{"kind":"circle","radius_m":1200,"label":"15 min walk"}},{"type":"Feature","geometry":{"type":"Point","coordinates":[28.9766829,41.0151993]},"properties":{"kind":"poi","name":"İstanbul Demiryolu Müzesi","category":"museum","color":"#b45309","fa_icon":"fa-landmark","wikidata":"Q15228897","ticket_url":"https://fr.wikipedia.org/wiki/Istanbul"}},{"type":"Feature","geometry":{"type":"Point","coordinates":[28.974915,41.0062801]},"properties":{"kind":"poi","name":"Türk ve İslam Eserleri Müzesi","category":"museum","color":"#b45309","fa_icon":"fa-landmark","wikidata":"Q525939","website":"https://muze.gen.tr/","ticket_url":"https://muze.gen.tr/"}},{"type":"Feature","geometry":{"type":"Point","coordinates":[28.9804023,41.011393]},"properties":{"kind":"poi","name":"Eski Şark Eserleri Müzesi","category":"museum","color":"#b45309","fa_icon":"fa-landmark","wikidata":"Q99397898","website":"http://www.istanbularkeoloji.gov.tr/","ticket_url":"http://www.istanbularkeoloji.gov.tr/"}},{"type":"Feature","geometry":{"type":"Point","coordinates":[28.9713768,41.0111863]},"properties":{"kind":"poi","name":"Mahmut Paşa Camii","category":"monument","color":"#be123c","fa_icon":"fa-monument","wikidata":"Q6070291","wikipedia_url":"https://en.wikipedia.org/wiki/Zal_Mahmud_Pasha_Mosque"}},{"type":"Feature","geometry":{"type":"Point","coordinates":[28.9856774,41.0146409]},"properties":{"kind":"poi","name":"Gotlar Sütunu","category":"monument","color":"#be123c","fa_icon":"fa-monument","wikidata":"Q2887370","wikipedia_url":"https://tr.wikipedia.org/wiki/Gotlar_S%C3%BCtunu"}},{"type":"Feature","geometry":{"type":"Point","coordinates":[28.9830122,41.0055376]},"properties":{"kind":"poi","name":"Cankurtaran","category":"train_station","color":"#2563eb","fa_icon":"fa-train","wikidata":"Q5032507","transit_url":"https://moovitapp.com/index/en/public_transit-Cankurtaran-Istanbul-stop_583760461-1563"}},{"type":"Feature","geometry":{"type":"Point","coordinates":[28.9700049,41.0030764]},"properties":{"kind":"poi","name":"Cundi Parkı","category":"park","color":"#16a34a","fa_icon":"fa-tree","wikidata":"Q123594731"}},{"type":"Feature","geometry":{"type":"Point","coordinates":[28.976082,41.0016461]},"properties":{"kind":"poi","name":"Çatladıkapı Parkı","category":"park","color":"#16a34a","fa_icon":"fa-tree"}}]}