{"type":"FeatureCollection","features":[{"type":"Feature","geometry":{"type":"Point","coordinates":[28.0473,-26.2041]},"properties":{"kind":"circle","radius_m":25000,"label":"20 min"}},{"type":"Feature","geometry":{"type":"Point","coordinates":[28.0473,-26.2041]},"properties":{"kind":"circle","radius_m":80000,"label":"1 h"}},{"type":"Feature","geometry":{"type":"Point","coordinates":[28.0473,-26.2041]},"properties":{"kind":"circle","radius_m":160000,"label":"2 h"}},{"type":"Feature","geometry":{"type":"Point","coordinates":[28.0423048,-26.1976708]},"properties":{"kind":"poi","name":"Johannesburg Park Station","category":"train_station","color":"#2563eb","fa_icon":"fa-train"}},{"type":"Feature","geometry":{"type":"Point","coordinates":[28.0394465,-26.2046141]},"properties":{"kind":"poi","name":"Beyers Naudé Square","category":"park","color":"#16a34a","fa_icon":"fa-tree"}},{"type":"Feature","geometry":{"type":"Point","coordinates":[28.0444075,-26.2119706]},"properties":{"kind":"poi","name":"Faraday","category":"train_station","color":"#2563eb","fa_icon":"fa-train"}},{"type":"Feature","geometry":{"type":"Point","coordinates":[28.0526629,-26.2066777]},"properties":{"kind":"poi","name":"Port Plein Park","category":"park","color":"#16a34a","fa_icon":"fa-tree"}}]}