{"type":"FeatureCollection","features":[{"type":"Feature","geometry":{"type":"Point","coordinates":[67.0011,24.8607]},"properties":{"kind":"circle","radius_m":25000,"label":"20 min"}},{"type":"Feature","geometry":{"type":"Point","coordinates":[67.0011,24.8607]},"properties":{"kind":"circle","radius_m":80000,"label":"1 h"}},{"type":"Feature","geometry":{"type":"Point","coordinates":[67.0011,24.8607]},"properties":{"kind":"circle","radius_m":160000,"label":"2 h"}},{"type":"Feature","geometry":{"type":"Point","coordinates":[67.0089033,24.8615905]},"properties":{"kind":"poi","name":"KMC Football Stadium","category":"stadium","color":"#ea580c","fa_icon":"fa-futbol"}},{"type":"Feature","geometry":{"type":"Point","coordinates":[67.0046049,24.8552795]},"properties":{"kind":"poi","name":"Dandia.Bazar Karachi","category":"market","color":"#65a30d","fa_icon":"fa-store"}},{"type":"Feature","geometry":{"type":"Point","coordinates":[67.0005244,24.860696]},"properties":{"kind":"poi","name":"Lee Market Sabzi Mandi","category":"market","color":"#65a30d","fa_icon":"fa-store"}},{"type":"Feature","geometry":{"type":"Point","coordinates":[66.9992906,24.8563007]},"properties":{"kind":"poi","name":"Kakri Ground - Mithadar","category":"stadium","color":"#ea580c","fa_icon":"fa-futbol"}},{"type":"Feature","geometry":{"type":"Point","coordinates":[67.0074042,24.8662905]},"properties":{"kind":"poi","name":"Karachi Timber Market","category":"market","color":"#65a30d","fa_icon":"fa-store"}},{"type":"Feature","geometry":{"type":"Point","coordinates":[66.9993156,24.8518031]},"properties":{"kind":"poi","name":"Bhatkal Cloth Market","category":"market","color":"#65a30d","fa_icon":"fa-store"}},{"type":"Feature","geometry":{"type":"Point","coordinates":[66.9958253,24.8688635]},"properties":{"kind":"poi","name":"Moulvi Usman Park","category":"park","color":"#16a34a","fa_icon":"fa-tree"}}]}