{"type":"FeatureCollection","features":[{"type":"Feature","geometry":{"type":"Point","coordinates":[101.6869,3.139]},"properties":{"kind":"circle","radius_m":400,"label":"5 min walk"}},{"type":"Feature","geometry":{"type":"Point","coordinates":[101.6869,3.139]},"properties":{"kind":"circle","radius_m":800,"label":"10 min walk"}},{"type":"Feature","geometry":{"type":"Point","coordinates":[101.6869,3.139]},"properties":{"kind":"circle","radius_m":1200,"label":"15 min walk"}},{"type":"Feature","geometry":{"type":"Point","coordinates":[101.686385,3.134283]},"properties":{"kind":"poi","name":"KL Sentral","category":"train_station","color":"#2563eb","fa_icon":"fa-train","wikidata":"Q801042","website":"http://www.klsentral.com.my"}},{"type":"Feature","geometry":{"type":"Point","coordinates":[101.6889136,3.1409386]},"properties":{"kind":"poi","name":"Muzium Polis Diraja Malaysia","category":"museum","color":"#b45309","fa_icon":"fa-landmark","wikidata":"Q3015254"}},{"type":"Feature","geometry":{"type":"Point","coordinates":[101.6843465,3.1437769]},"properties":{"kind":"poi","name":"Taman Botani Perdana","category":"park","color":"#16a34a","fa_icon":"fa-tree","wikidata":"Q12061078","website":"http://www.klbotanicalgarden.gov.my/"}},{"type":"Feature","geometry":{"type":"Point","coordinates":[101.6908714,3.1314534]},"properties":{"kind":"poi","name":"MR2 Tun Sambanthan","category":"train_station","color":"#2563eb","fa_icon":"fa-train","wikidata":"Q3133568","website":"https://mrt.com.my/kl_monorail/Tun_Sambanthan.htm"}},{"type":"Feature","geometry":{"type":"Point","coordinates":[101.6953065,3.1424372]},"properties":{"kind":"poi","name":"KJ14 Pasar Seni","category":"train_station","color":"#2563eb","fa_icon":"fa-train","wikidata":"Q1057429"}},{"type":"Feature","geometry":{"type":"Point","coordinates":[101.6876368,3.1469552]},"properties":{"kind":"poi","name":"Taman Etnobotani","category":"park","color":"#16a34a","fa_icon":"fa-tree"}}]}