{"type":"FeatureCollection","features":[{"type":"Feature","geometry":{"type":"Point","coordinates":[47.9774,29.3759]},"properties":{"kind":"circle","radius_m":25000,"label":"20 min"}},{"type":"Feature","geometry":{"type":"Point","coordinates":[47.9774,29.3759]},"properties":{"kind":"circle","radius_m":80000,"label":"1 h"}},{"type":"Feature","geometry":{"type":"Point","coordinates":[47.9774,29.3759]},"properties":{"kind":"circle","radius_m":160000,"label":"2 h"}},{"type":"Feature","geometry":{"type":"Point","coordinates":[47.975007,29.368239]},"properties":{"kind":"poi","name":"برج التحرير","category":"monument","color":"#be123c","fa_icon":"fa-monument"}},{"type":"Feature","geometry":{"type":"Point","coordinates":[47.9700006,29.3787989]},"properties":{"kind":"poi","name":"قصر السيف","category":"monument","color":"#be123c","fa_icon":"fa-monument"}},{"type":"Feature","geometry":{"type":"Point","coordinates":[47.9743184,29.3744871]},"properties":{"kind":"poi","name":"كشك الشيخ مبارك الصباح","category":"museum","color":"#b45309","fa_icon":"fa-landmark"}},{"type":"Feature","geometry":{"type":"Point","coordinates":[47.9827802,29.3805067]},"properties":{"kind":"poi","name":"Al Zahameel Square","category":"park","color":"#16a34a","fa_icon":"fa-tree"}},{"type":"Feature","geometry":{"type":"Point","coordinates":[47.9779368,29.3839338]},"properties":{"kind":"poi","name":"بيت دكسون","category":"museum","color":"#b45309","fa_icon":"fa-landmark"}}]}