{"type":"FeatureCollection","features":[{"type":"Feature","geometry":{"type":"Point","coordinates":[30.5234,50.4501]},"properties":{"kind":"circle","radius_m":25000,"label":"20 min"}},{"type":"Feature","geometry":{"type":"Point","coordinates":[30.5234,50.4501]},"properties":{"kind":"circle","radius_m":80000,"label":"1 h"}},{"type":"Feature","geometry":{"type":"Point","coordinates":[30.5234,50.4501]},"properties":{"kind":"circle","radius_m":160000,"label":"2 h"}},{"type":"Feature","geometry":{"type":"Point","coordinates":[30.5155394,50.4440025]},"properties":{"kind":"poi","name":"Київський літературно-меморіальний музей-квартира М. Бажана","category":"museum","color":"#b45309","fa_icon":"fa-landmark"}},{"type":"Feature","geometry":{"type":"Point","coordinates":[30.5190656,50.4580678]},"properties":{"kind":"poi","name":"Міський музей духовні скарби України","category":"museum","color":"#b45309","fa_icon":"fa-landmark"}},{"type":"Feature","geometry":{"type":"Point","coordinates":[30.5279667,50.4436848]},"properties":{"kind":"poi","name":"Будинок плачущої вдови","category":"monument","color":"#be123c","fa_icon":"fa-monument"}},{"type":"Feature","geometry":{"type":"Point","coordinates":[30.529974,50.4544425]},"properties":{"kind":"poi","name":"Арка Свободи українського народу","category":"monument","color":"#be123c","fa_icon":"fa-monument","wikidata":"Q2469034"}},{"type":"Feature","geometry":{"type":"Point","coordinates":[30.5270321,50.4590888]},"properties":{"kind":"poi","name":"Київський річковий вокзал","category":"monument","color":"#be123c","fa_icon":"fa-monument"}},{"type":"Feature","geometry":{"type":"Point","coordinates":[30.513427,50.4488317]},"properties":{"kind":"poi","name":"Золотоворітський сквер","category":"park","color":"#16a34a","fa_icon":"fa-tree"}},{"type":"Feature","geometry":{"type":"Point","coordinates":[30.5252499,50.4488597]},"properties":{"kind":"poi","name":"Національна музична академія України","category":"university","color":"#0891b2","fa_icon":"fa-graduation-cap","website":"https://knmau.com.ua/","courses_url":"https://knmau.com.ua/"}},{"type":"Feature","geometry":{"type":"Point","coordinates":[30.4780133,50.4463403]},"properties":{"kind":"poi","name":"Національний медичний університет імені О. О. Богомольця","category":"university","color":"#0891b2","fa_icon":"fa-graduation-cap"}},{"type":"Feature","geometry":{"type":"Point","coordinates":[30.5349676,50.4499752]},"properties":{"kind":"poi","name":"Центральний парк культури і відпочинку","category":"park","color":"#16a34a","fa_icon":"fa-tree"}},{"type":"Feature","geometry":{"type":"Point","coordinates":[30.5445576,50.4472163]},"properties":{"kind":"poi","name":"Хрещатий парк","category":"park","color":"#16a34a","fa_icon":"fa-tree"}},{"type":"Feature","geometry":{"type":"Point","coordinates":[30.5120085,50.4548037]},"properties":{"kind":"poi","name":"Сквер київських інтелігентів","category":"park","color":"#16a34a","fa_icon":"fa-tree"}}]}