{"type":"FeatureCollection","features":[{"type":"Feature","geometry":{"type":"Point","coordinates":[3.3792,6.5244]},"properties":{"kind":"circle","radius_m":25000,"label":"20 min"}},{"type":"Feature","geometry":{"type":"Point","coordinates":[3.3792,6.5244]},"properties":{"kind":"circle","radius_m":80000,"label":"1 h"}},{"type":"Feature","geometry":{"type":"Point","coordinates":[3.3792,6.5244]},"properties":{"kind":"circle","radius_m":160000,"label":"2 h"}},{"type":"Feature","geometry":{"type":"Point","coordinates":[3.383832,6.5214802]},"properties":{"kind":"poi","name":"Federal College of Education (Technical), Akoka","category":"university","color":"#0891b2","fa_icon":"fa-graduation-cap","website":"https://nce.fcet-akoka.edu.ng","courses_url":"https://nce.fcet-akoka.edu.ng"}},{"type":"Feature","geometry":{"type":"Point","coordinates":[3.3941414,6.5120106]},"properties":{"kind":"poi","name":"University of Lagos","category":"university","color":"#0891b2","fa_icon":"fa-graduation-cap"}}]}