{"type":"FeatureCollection","features":[{"type":"Feature","geometry":{"type":"Point","coordinates":[74.3587,31.5204]},"properties":{"kind":"circle","radius_m":25000,"label":"20 min"}},{"type":"Feature","geometry":{"type":"Point","coordinates":[74.3587,31.5204]},"properties":{"kind":"circle","radius_m":80000,"label":"1 h"}},{"type":"Feature","geometry":{"type":"Point","coordinates":[74.3587,31.5204]},"properties":{"kind":"circle","radius_m":160000,"label":"2 h"}},{"type":"Feature","geometry":{"type":"Point","coordinates":[74.3517049,31.5254431]},"properties":{"kind":"poi","name":"University of Home Economics","category":"university","color":"#0891b2","fa_icon":"fa-graduation-cap"}},{"type":"Feature","geometry":{"type":"Point","coordinates":[74.3532105,31.520195]},"properties":{"kind":"poi","name":"Football League Practice Ground","category":"park","color":"#16a34a","fa_icon":"fa-tree"}},{"type":"Feature","geometry":{"type":"Point","coordinates":[74.3544228,31.5128091]},"properties":{"kind":"poi","name":"Ghalib Market","category":"park","color":"#16a34a","fa_icon":"fa-tree"}},{"type":"Feature","geometry":{"type":"Point","coordinates":[74.3647782,31.521581]},"properties":{"kind":"poi","name":"پل کالونی پارک","category":"park","color":"#16a34a","fa_icon":"fa-tree"}}]}