{"type":"FeatureCollection","features":[{"type":"Feature","geometry":{"type":"Point","coordinates":[-77.0428,-12.0464]},"properties":{"kind":"circle","radius_m":25000,"label":"20 min"}},{"type":"Feature","geometry":{"type":"Point","coordinates":[-77.0428,-12.0464]},"properties":{"kind":"circle","radius_m":80000,"label":"1 h"}},{"type":"Feature","geometry":{"type":"Point","coordinates":[-77.0428,-12.0464]},"properties":{"kind":"circle","radius_m":160000,"label":"2 h"}},{"type":"Feature","geometry":{"type":"Point","coordinates":[-77.0376031,-12.0451544]},"properties":{"kind":"poi","name":"Museo Señor de los Milagros","category":"museum","color":"#b45309","fa_icon":"fa-landmark","website":"https://selvasperu.org/","ticket_url":"https://selvasperu.org/"}},{"type":"Feature","geometry":{"type":"Point","coordinates":[-77.0429869,-12.0433696]},"properties":{"kind":"poi","name":"Plaza Ramón Castilla","category":"park","color":"#16a34a","fa_icon":"fa-tree"}},{"type":"Feature","geometry":{"type":"Point","coordinates":[-77.0450436,-12.0378189]},"properties":{"kind":"poi","name":"Estadio Alberto Gallardo","category":"stadium","color":"#ea580c","fa_icon":"fa-futbol"}},{"type":"Feature","geometry":{"type":"Point","coordinates":[-77.0478375,-12.0490229]},"properties":{"kind":"poi","name":"Estadio Lolo Fernandez","category":"stadium","color":"#ea580c","fa_icon":"fa-futbol"}},{"type":"Feature","geometry":{"type":"Point","coordinates":[-77.0431177,-12.0479085]},"properties":{"kind":"poi","name":"Museo Nacional de la Cultura Peruana","category":"museum","color":"#b45309","fa_icon":"fa-landmark","website":"http://www.unfv.edu.pe/site/noticias/1224-902","ticket_url":"http://www.unfv.edu.pe/site/noticias/1224-902"}},{"type":"Feature","geometry":{"type":"Point","coordinates":[-77.0357405,-12.052106]},"properties":{"kind":"poi","name":"Museo de Minerales Andrés del Castillo","category":"museum","color":"#b45309","fa_icon":"fa-landmark","website":"https://museoelectoral.jne.gob.pe","ticket_url":"https://museoelectoral.jne.gob.pe"}},{"type":"Feature","geometry":{"type":"Point","coordinates":[-77.0491208,-12.0430604]},"properties":{"kind":"poi","name":"Centro Comercial El Progreso","category":"market","color":"#65a30d","fa_icon":"fa-store","video_url":"https://www.youtube.com/embed/Il3NjMlQ_dk"}},{"type":"Feature","geometry":{"type":"Point","coordinates":[-77.040475,-12.0521723]},"properties":{"kind":"poi","name":"Mercado Ilo","category":"market","color":"#65a30d","fa_icon":"fa-store","video_url":"https://www.youtube.com/embed/Il3NjMlQ_dk"}},{"type":"Feature","geometry":{"type":"Point","coordinates":[-77.0449752,-12.054121]},"properties":{"kind":"poi","name":"UNFV Facultad","category":"university","color":"#0891b2","fa_icon":"fa-graduation-cap"}}]}