{"type":"FeatureCollection","features":[{"type":"Feature","geometry":{"type":"Point","coordinates":[-9.1393,38.7223]},"properties":{"kind":"circle","radius_m":25000,"label":"20 min"}},{"type":"Feature","geometry":{"type":"Point","coordinates":[-9.1393,38.7223]},"properties":{"kind":"circle","radius_m":80000,"label":"1 h"}},{"type":"Feature","geometry":{"type":"Point","coordinates":[-9.1393,38.7223]},"properties":{"kind":"circle","radius_m":160000,"label":"2 h"}},{"type":"Feature","geometry":{"type":"Point","coordinates":[-9.142174,38.7155622]},"properties":{"kind":"poi","name":"Museu Nacional do Desporto","category":"museum","color":"#b45309","fa_icon":"fa-landmark"}},{"type":"Feature","geometry":{"type":"Point","coordinates":[-9.149145,38.7216803]},"properties":{"kind":"poi","name":"Museu Medeiros e Almeida","category":"museum","color":"#b45309","fa_icon":"fa-landmark"}},{"type":"Feature","geometry":{"type":"Point","coordinates":[-9.1420993,38.7255214]},"properties":{"kind":"poi","name":"Museu Miguel Bombarda","category":"museum","color":"#b45309","fa_icon":"fa-landmark"}},{"type":"Feature","geometry":{"type":"Point","coordinates":[-9.1486543,38.7162912]},"properties":{"kind":"poi","name":"Jardim do Príncipe Real","category":"park","color":"#16a34a","fa_icon":"fa-tree"}},{"type":"Feature","geometry":{"type":"Point","coordinates":[-9.1310096,38.716041]},"properties":{"kind":"poi","name":"Jardim Augusto Gil","category":"park","color":"#16a34a","fa_icon":"fa-tree"}},{"type":"Feature","geometry":{"type":"Point","coordinates":[-9.135242,38.7230897]},"properties":{"kind":"poi","name":"Intendente","category":"train_station","color":"#2563eb","fa_icon":"fa-train"}},{"type":"Feature","geometry":{"type":"Point","coordinates":[-9.1441403,38.7300407]},"properties":{"kind":"poi","name":"Jardim Henrique Lopes de Mendonça","category":"park","color":"#16a34a","fa_icon":"fa-tree"}},{"type":"Feature","geometry":{"type":"Point","coordinates":[-9.1329223,38.7292583]},"properties":{"kind":"poi","name":"Jardim do Caracol da Penha","category":"park","color":"#16a34a","fa_icon":"fa-tree"}},{"type":"Feature","geometry":{"type":"Point","coordinates":[-9.1290278,38.7218156]},"properties":{"kind":"poi","name":"Mercado de Sapadores","category":"market","color":"#65a30d","fa_icon":"fa-store"}}]}