{"type":"FeatureCollection","features":[{"type":"Feature","geometry":{"type":"Point","coordinates":[-0.1278,51.5074]},"properties":{"kind":"circle","radius_m":400,"label":"5 min walk"}},{"type":"Feature","geometry":{"type":"Point","coordinates":[-0.1278,51.5074]},"properties":{"kind":"circle","radius_m":800,"label":"10 min walk"}},{"type":"Feature","geometry":{"type":"Point","coordinates":[-0.1278,51.5074]},"properties":{"kind":"circle","radius_m":1200,"label":"15 min walk"}},{"type":"Feature","geometry":{"type":"Point","coordinates":[-0.117442,51.5116948]},"properties":{"kind":"poi","name":"The Courtauld Institute of Art","category":"university","color":"#0891b2","fa_icon":"fa-graduation-cap","wikidata":"Q734266","website":"https://courtauld.ac.uk/","courses_url":"https://courtauld.ac.uk/"}},{"type":"Feature","geometry":{"type":"Point","coordinates":[-0.1305125,51.5159715]},"properties":{"kind":"poi","name":"Tottenham Court Road","category":"transit","color":"#0369a1","fa_icon":"fa-bus","wikidata":"Q1431094"}},{"type":"Feature","geometry":{"type":"Point","coordinates":[-0.1352818,51.5071797]},"properties":{"kind":"poi","name":"St James's Square Gardens","category":"park","color":"#16a34a","fa_icon":"fa-tree","wikidata":"Q500529"}},{"type":"Feature","geometry":{"type":"Point","coordinates":[-0.1266767,51.5088308]},"properties":{"kind":"poi","name":"St Martin-in-the-Fields","category":"monument","color":"#be123c","fa_icon":"fa-monument","wikidata":"Q1335201","website":"https://www.stmartin-in-the-fields.org/","wikipedia_url":"https://en.wikipedia.org/wiki/St_Martin-in-the-Fields"}},{"type":"Feature","geometry":{"type":"Point","coordinates":[-0.1357744,51.5005011]},"properties":{"kind":"poi","name":"Flanders Fields Memorial Garden","category":"park","color":"#16a34a","fa_icon":"fa-tree","wikidata":"Q18609505"}},{"type":"Feature","geometry":{"type":"Point","coordinates":[-0.1245662,51.4993872]},"properties":{"kind":"poi","name":"Palace of Westminster","category":"monument","color":"#be123c","fa_icon":"fa-monument","wikidata":"Q62408","website":"https://www.parliament.uk/","wikipedia_url":"https://en.wikipedia.org/wiki/Palace_of_Westminster"}},{"type":"Feature","geometry":{"type":"Point","coordinates":[-0.1123401,51.5054677]},"properties":{"kind":"poi","name":"King's College London, Waterloo Campus","category":"university","color":"#0891b2","fa_icon":"fa-graduation-cap","wikidata":"Q245247","website":"https://www.kcl.ac.uk/visit/waterloo-campus","courses_url":"https://www.kcl.ac.uk/visit/waterloo-campus"}},{"type":"Feature","geometry":{"type":"Point","coordinates":[-0.1192189,51.5026002]},"properties":{"kind":"poi","name":"The London Dungeon","category":"monument","color":"#be123c","fa_icon":"fa-monument","wikidata":"Q1513107","website":"https://www.thedungeons.com/london/","wikipedia_url":"https://en.wikipedia.org/wiki/London_Dungeon"}},{"type":"Feature","geometry":{"type":"Point","coordinates":[-0.1278038,51.5036922]},"properties":{"kind":"poi","name":"The Rose Garden","category":"park","color":"#16a34a","fa_icon":"fa-tree","wikidata":"Q96359208"}},{"type":"Feature","geometry":{"type":"Point","coordinates":[-0.1371829,51.511655]},"properties":{"kind":"poi","name":"Golden Square","category":"park","color":"#16a34a","fa_icon":"fa-tree","wikidata":"Q5579811"}},{"type":"Feature","geometry":{"type":"Point","coordinates":[-0.1441729,51.50452]},"properties":{"kind":"poi","name":"The Green Park","category":"park","color":"#16a34a","fa_icon":"fa-tree","wikidata":"Q119892","website":"https://www.royalparks.org.uk/parks/green-park"}}]}