{"type":"FeatureCollection","features":[{"type":"Feature","geometry":{"type":"Point","coordinates":[-3.7038,40.4168]},"properties":{"kind":"circle","radius_m":25000,"label":"20 min"}},{"type":"Feature","geometry":{"type":"Point","coordinates":[-3.7038,40.4168]},"properties":{"kind":"circle","radius_m":80000,"label":"1 h"}},{"type":"Feature","geometry":{"type":"Point","coordinates":[-3.7038,40.4168]},"properties":{"kind":"circle","radius_m":160000,"label":"2 h"}},{"type":"Feature","geometry":{"type":"Point","coordinates":[-3.7136222,40.4167403]},"properties":{"kind":"poi","name":"Palacio Real de Madrid","category":"museum","color":"#b45309","fa_icon":"fa-landmark"}},{"type":"Feature","geometry":{"type":"Point","coordinates":[-3.7115931,40.4124918]},"properties":{"kind":"poi","name":"Capilla de Nuestra Señora y de san Juan de Letrán","category":"monument","color":"#be123c","fa_icon":"fa-monument"}},{"type":"Feature","geometry":{"type":"Point","coordinates":[-3.7036583,40.407675]},"properties":{"kind":"poi","name":"Mercado de San Fernando","category":"market","color":"#65a30d","fa_icon":"fa-store","video_url":"https://www.youtube.com/embed/HTARbr6Tv1w"}},{"type":"Feature","geometry":{"type":"Point","coordinates":[-3.6986718,40.4115901]},"properties":{"kind":"poi","name":"Mercado de Antón Martín","category":"market","color":"#65a30d","fa_icon":"fa-store","video_url":"https://www.youtube.com/embed/HTARbr6Tv1w"}},{"type":"Feature","geometry":{"type":"Point","coordinates":[-3.6976163,40.4219104]},"properties":{"kind":"poi","name":"Mercado de San Antón","category":"market","color":"#65a30d","fa_icon":"fa-store","video_url":"https://www.youtube.com/embed/HTARbr6Tv1w"}},{"type":"Feature","geometry":{"type":"Point","coordinates":[-3.7046404,40.4198381]},"properties":{"kind":"poi","name":"Palacio de la Música","category":"monument","color":"#be123c","fa_icon":"fa-monument"}},{"type":"Feature","geometry":{"type":"Point","coordinates":[-3.6923891,40.4175183]},"properties":{"kind":"poi","name":"Museo Naval de Madrid","category":"museum","color":"#b45309","fa_icon":"fa-landmark"}},{"type":"Feature","geometry":{"type":"Point","coordinates":[-3.7078298,40.4245893]},"properties":{"kind":"poi","name":"Escuela de Relaciones Laborales","category":"university","color":"#0891b2","fa_icon":"fa-graduation-cap","website":"https://ucm.es/erl","courses_url":"https://ucm.es/erl"}},{"type":"Feature","geometry":{"type":"Point","coordinates":[-3.7045846,40.4123608]},"properties":{"kind":"poi","name":"Tirso de Molina","category":"train_station","color":"#2563eb","fa_icon":"fa-train"}}]}