{"type":"FeatureCollection","features":[{"type":"Feature","geometry":{"type":"Point","coordinates":[120.9842,14.5995]},"properties":{"kind":"circle","radius_m":400,"label":"5 min walk"}},{"type":"Feature","geometry":{"type":"Point","coordinates":[120.9842,14.5995]},"properties":{"kind":"circle","radius_m":800,"label":"10 min walk"}},{"type":"Feature","geometry":{"type":"Point","coordinates":[120.9842,14.5995]},"properties":{"kind":"circle","radius_m":1200,"label":"15 min walk"}},{"type":"Feature","geometry":{"type":"Point","coordinates":[120.9894909,14.6098202]},"properties":{"kind":"poi","name":"University of Santo Tomas","category":"university","color":"#0891b2","fa_icon":"fa-graduation-cap","wikidata":"Q1401524","website":"https://www.ust.edu.ph/","courses_url":"https://www.ust.edu.ph/"}},{"type":"Feature","geometry":{"type":"Point","coordinates":[120.9864814,14.6037569]},"properties":{"kind":"poi","name":"Far Eastern University","category":"university","color":"#0891b2","fa_icon":"fa-graduation-cap","wikidata":"Q1254897","website":"https://www.feu.edu.ph/","courses_url":"https://www.feu.edu.ph/"}},{"type":"Feature","geometry":{"type":"Point","coordinates":[120.9819313,14.5942944]},"properties":{"kind":"poi","name":"Arroceros Forest Park","category":"park","color":"#16a34a","fa_icon":"fa-tree","wikidata":"Q20312079"}},{"type":"Feature","geometry":{"type":"Point","coordinates":[120.98474,14.5984448]},"properties":{"kind":"poi","name":"Bahay Nakpil-Bautista","category":"museum","color":"#b45309","fa_icon":"fa-landmark","wikidata":"Q17081316","ticket_url":"https://www.news.com.au/"}},{"type":"Feature","geometry":{"type":"Point","coordinates":[120.9765515,14.5932295]},"properties":{"kind":"poi","name":"Colegio de San Juan de Letran","category":"university","color":"#0891b2","fa_icon":"fa-graduation-cap","wikidata":"Q1108074","website":"https://letran.edu.ph/","courses_url":"https://letran.edu.ph/"}},{"type":"Feature","geometry":{"type":"Point","coordinates":[120.9928748,14.5996064]},"properties":{"kind":"poi","name":"San Beda University","category":"university","color":"#0891b2","fa_icon":"fa-graduation-cap","wikidata":"Q3551584","website":"https://www.sanbeda.edu.ph/","courses_url":"https://www.sanbeda.edu.ph/"}},{"type":"Feature","geometry":{"type":"Point","coordinates":[120.9820496,14.6053092]},"properties":{"kind":"poi","name":"Doroteo Jose","category":"transit","color":"#0369a1","fa_icon":"fa-bus"}},{"type":"Feature","geometry":{"type":"Point","coordinates":[120.979254,14.5988365]},"properties":{"kind":"poi","name":"First United Building Community Museum","category":"museum","color":"#b45309","fa_icon":"fa-landmark","ticket_url":"https://dictionary.cambridge.org/dictionary/english/first"}}]}