{"type":"FeatureCollection","features":[{"type":"Feature","geometry":{"type":"Point","coordinates":[-75.5812,6.2442]},"properties":{"kind":"circle","radius_m":25000,"label":"20 min"}},{"type":"Feature","geometry":{"type":"Point","coordinates":[-75.5812,6.2442]},"properties":{"kind":"circle","radius_m":80000,"label":"1 h"}},{"type":"Feature","geometry":{"type":"Point","coordinates":[-75.5812,6.2442]},"properties":{"kind":"circle","radius_m":160000,"label":"2 h"}},{"type":"Feature","geometry":{"type":"Point","coordinates":[-75.5810404,6.2353485]},"properties":{"kind":"poi","name":"Parque de las Esculturas","category":"monument","color":"#be123c","fa_icon":"fa-monument"}},{"type":"Feature","geometry":{"type":"Point","coordinates":[-75.5768759,6.2446759]},"properties":{"kind":"poi","name":"Parque de Los Pies Descalzos","category":"park","color":"#16a34a","fa_icon":"fa-tree"}},{"type":"Feature","geometry":{"type":"Point","coordinates":[-75.5890188,6.2421217]},"properties":{"kind":"poi","name":"Universidad Pontificia Bolivariana","category":"university","color":"#0891b2","fa_icon":"fa-graduation-cap"}},{"type":"Feature","geometry":{"type":"Point","coordinates":[-75.575114,6.2490305]},"properties":{"kind":"poi","name":"Cisneros","category":"train_station","color":"#2563eb","fa_icon":"fa-train"}},{"type":"Feature","geometry":{"type":"Point","coordinates":[-75.5848202,6.2445808]},"properties":{"kind":"poi","name":"Parque de los Mangos","category":"park","color":"#16a34a","fa_icon":"fa-tree"}},{"type":"Feature","geometry":{"type":"Point","coordinates":[-75.5857582,6.2363401]},"properties":{"kind":"poi","name":"Parque Jardinera de Mascotas","category":"park","color":"#16a34a","fa_icon":"fa-tree"}},{"type":"Feature","geometry":{"type":"Point","coordinates":[-75.5796334,6.2538592]},"properties":{"kind":"poi","name":"Parque Suramericana","category":"park","color":"#16a34a","fa_icon":"fa-tree"}},{"type":"Feature","geometry":{"type":"Point","coordinates":[-75.5881887,6.2493711]},"properties":{"kind":"poi","name":"China Town","category":"market","color":"#65a30d","fa_icon":"fa-store"}}]}