{"type":"FeatureCollection","features":[{"type":"Feature","geometry":{"type":"Point","coordinates":[144.9631,-37.8136]},"properties":{"kind":"circle","radius_m":25000,"label":"20 min"}},{"type":"Feature","geometry":{"type":"Point","coordinates":[144.9631,-37.8136]},"properties":{"kind":"circle","radius_m":80000,"label":"1 h"}},{"type":"Feature","geometry":{"type":"Point","coordinates":[144.9631,-37.8136]},"properties":{"kind":"circle","radius_m":160000,"label":"2 h"}},{"type":"Feature","geometry":{"type":"Point","coordinates":[144.9684577,-37.8213258]},"properties":{"kind":"poi","name":"Arts Centre Melbourne (Theatres Building)","category":"monument","color":"#be123c","fa_icon":"fa-monument"}},{"type":"Feature","geometry":{"type":"Point","coordinates":[144.9577117,-37.8074898]},"properties":{"kind":"poi","name":"Queen Victoria Market","category":"monument","color":"#be123c","fa_icon":"fa-monument"}},{"type":"Feature","geometry":{"type":"Point","coordinates":[144.9759799,-37.8139882]},"properties":{"kind":"poi","name":"Treasury Gardens","category":"park","color":"#16a34a","fa_icon":"fa-tree"}},{"type":"Feature","geometry":{"type":"Point","coordinates":[144.958697,-37.8233312]},"properties":{"kind":"poi","name":"Crown Melbourne","category":"monument","color":"#be123c","fa_icon":"fa-monument"}},{"type":"Feature","geometry":{"type":"Point","coordinates":[144.9651252,-37.8078116]},"properties":{"kind":"poi","name":"Old Melbourne Gaol","category":"monument","color":"#be123c","fa_icon":"fa-monument"}},{"type":"Feature","geometry":{"type":"Point","coordinates":[144.971567,-37.8042308]},"properties":{"kind":"poi","name":"Carlton Gardens","category":"park","color":"#16a34a","fa_icon":"fa-tree"}},{"type":"Feature","geometry":{"type":"Point","coordinates":[144.9523727,-37.8183753]},"properties":{"kind":"poi","name":"Southern Cross","category":"train_station","color":"#2563eb","fa_icon":"fa-train"}},{"type":"Feature","geometry":{"type":"Point","coordinates":[144.9734627,-37.8190824]},"properties":{"kind":"poi","name":"Birrarung Marr","category":"park","color":"#16a34a","fa_icon":"fa-tree"}},{"type":"Feature","geometry":{"type":"Point","coordinates":[144.9560156,-37.8118656]},"properties":{"kind":"poi","name":"Flagstaff","category":"train_station","color":"#2563eb","fa_icon":"fa-train"}},{"type":"Feature","geometry":{"type":"Point","coordinates":[144.9671051,-37.8164773]},"properties":{"kind":"poi","name":"Town Hall","category":"train_station","color":"#2563eb","fa_icon":"fa-train"}},{"type":"Feature","geometry":{"type":"Point","coordinates":[144.972154,-37.8103129]},"properties":{"kind":"poi","name":"James Cook University","category":"university","color":"#0891b2","fa_icon":"fa-graduation-cap"}},{"type":"Feature","geometry":{"type":"Point","coordinates":[144.9602287,-37.8178416]},"properties":{"kind":"poi","name":"Market Street Park","category":"park","color":"#16a34a","fa_icon":"fa-tree"}}]}