{"type":"FeatureCollection","features":[{"type":"Feature","geometry":{"type":"Point","coordinates":[-99.1332,19.4326]},"properties":{"kind":"circle","radius_m":400,"label":"5 min walk"}},{"type":"Feature","geometry":{"type":"Point","coordinates":[-99.1332,19.4326]},"properties":{"kind":"circle","radius_m":800,"label":"10 min walk"}},{"type":"Feature","geometry":{"type":"Point","coordinates":[-99.1332,19.4326]},"properties":{"kind":"circle","radius_m":1200,"label":"15 min walk"}},{"type":"Feature","geometry":{"type":"Point","coordinates":[-99.1321427,19.4350046]},"properties":{"kind":"poi","name":"Archivo de la Fotografía","category":"museum","color":"#b45309","fa_icon":"fa-landmark","wikidata":"Q18286243","ticket_url":"http://www.irctc.co.in/"}},{"type":"Feature","geometry":{"type":"Point","coordinates":[-99.1401225,19.4343516]},"properties":{"kind":"poi","name":"Casa de los Azulejos","category":"monument","color":"#be123c","fa_icon":"fa-monument","wikidata":"Q1267814","wikipedia_url":"https://en.wikipedia.org/wiki/Casa_de_los_Azulejos"}},{"type":"Feature","geometry":{"type":"Point","coordinates":[-99.1321346,19.4292631]},"properties":{"kind":"poi","name":"Museo de la Ciudad de México","category":"museum","color":"#b45309","fa_icon":"fa-landmark","wikidata":"Q1402600","ticket_url":"https://www.countrycode.org/"}},{"type":"Feature","geometry":{"type":"Point","coordinates":[-99.13626,19.4266233]},"properties":{"kind":"poi","name":"Universidad del Claustro de Sor Juana","category":"university","color":"#0891b2","fa_icon":"fa-graduation-cap","wikidata":"Q939721"}},{"type":"Feature","geometry":{"type":"Point","coordinates":[-99.1277542,19.4372235]},"properties":{"kind":"poi","name":"Mercado Abelardo Rodríguez","category":"market","color":"#65a30d","fa_icon":"fa-store","wikidata":"Q4666658"}},{"type":"Feature","geometry":{"type":"Point","coordinates":[-99.136248,19.4316354]},"properties":{"kind":"poi","name":"Museo Foro Valparaíso","category":"museum","color":"#b45309","fa_icon":"fa-landmark","ticket_url":"https://forum.gamer.com.tw/A.php?bsn=22153"}},{"type":"Feature","geometry":{"type":"Point","coordinates":[-99.1333924,19.4410158]},"properties":{"kind":"poi","name":"Plaza Santa Catarina","category":"park","color":"#16a34a","fa_icon":"fa-tree"}},{"type":"Feature","geometry":{"type":"Point","coordinates":[-99.1393508,19.4389574]},"properties":{"kind":"poi","name":"Plaza de la Concepción","category":"park","color":"#16a34a","fa_icon":"fa-tree"}},{"type":"Feature","geometry":{"type":"Point","coordinates":[-99.1277926,19.4272067]},"properties":{"kind":"poi","name":"Plaza Juan José Baz","category":"park","color":"#16a34a","fa_icon":"fa-tree"}},{"type":"Feature","geometry":{"type":"Point","coordinates":[-99.1236396,19.4314808]},"properties":{"kind":"poi","name":"Plaza la Soledad","category":"park","color":"#16a34a","fa_icon":"fa-tree"}},{"type":"Feature","geometry":{"type":"Point","coordinates":[-99.1409585,19.4274903]},"properties":{"kind":"poi","name":"Plaza Vizcainas","category":"park","color":"#16a34a","fa_icon":"fa-tree"}}]}