{"type":"FeatureCollection","features":[{"type":"Feature","geometry":{"type":"Point","coordinates":[-80.1918,25.7617]},"properties":{"kind":"circle","radius_m":25000,"label":"20 min"}},{"type":"Feature","geometry":{"type":"Point","coordinates":[-80.1918,25.7617]},"properties":{"kind":"circle","radius_m":80000,"label":"1 h"}},{"type":"Feature","geometry":{"type":"Point","coordinates":[-80.1918,25.7617]},"properties":{"kind":"circle","radius_m":160000,"label":"2 h"}},{"type":"Feature","geometry":{"type":"Point","coordinates":[-80.1958686,25.7586955]},"properties":{"kind":"poi","name":"Simpson Park","category":"park","color":"#16a34a","fa_icon":"fa-tree"}},{"type":"Feature","geometry":{"type":"Point","coordinates":[-80.1925708,25.7640118]},"properties":{"kind":"poi","name":"Tenth Street Promenade","category":"train_station","color":"#2563eb","fa_icon":"fa-train"}},{"type":"Feature","geometry":{"type":"Point","coordinates":[-80.1922875,25.7691598]},"properties":{"kind":"poi","name":"Fifth Street","category":"train_station","color":"#2563eb","fa_icon":"fa-train"}},{"type":"Feature","geometry":{"type":"Point","coordinates":[-80.201148,25.7629664]},"properties":{"kind":"poi","name":"Triangle Park","category":"park","color":"#16a34a","fa_icon":"fa-tree"}},{"type":"Feature","geometry":{"type":"Point","coordinates":[-80.1894023,25.7604852]},"properties":{"kind":"poi","name":"Jade's Park","category":"park","color":"#16a34a","fa_icon":"fa-tree"}}]}