{"type":"FeatureCollection","features":[{"type":"Feature","geometry":{"type":"Point","coordinates":[-56.1645,-34.9011]},"properties":{"kind":"circle","radius_m":25000,"label":"20 min"}},{"type":"Feature","geometry":{"type":"Point","coordinates":[-56.1645,-34.9011]},"properties":{"kind":"circle","radius_m":80000,"label":"1 h"}},{"type":"Feature","geometry":{"type":"Point","coordinates":[-56.1645,-34.9011]},"properties":{"kind":"circle","radius_m":160000,"label":"2 h"}},{"type":"Feature","geometry":{"type":"Point","coordinates":[-56.1644069,-34.8974089]},"properties":{"kind":"poi","name":"Obelisco a los Constituyentes de 1830","category":"monument","color":"#be123c","fa_icon":"fa-monument"}},{"type":"Feature","geometry":{"type":"Point","coordinates":[-56.1562235,-34.904997]},"properties":{"kind":"poi","name":"Centro de Campo de Fútbol de los Pocitos","category":"monument","color":"#be123c","fa_icon":"fa-monument"}},{"type":"Feature","geometry":{"type":"Point","coordinates":[-56.1552269,-34.8951304]},"properties":{"kind":"poi","name":"Parque Batlle","category":"park","color":"#16a34a","fa_icon":"fa-tree"}},{"type":"Feature","geometry":{"type":"Point","coordinates":[-56.1733871,-34.9010731]},"properties":{"kind":"poi","name":"Espacio Universitario Rector Jorge Brovetto","category":"university","color":"#0891b2","fa_icon":"fa-graduation-cap"}},{"type":"Feature","geometry":{"type":"Point","coordinates":[-56.1640317,-34.9100161]},"properties":{"kind":"poi","name":"Facultad de Arquitectura","category":"university","color":"#0891b2","fa_icon":"fa-graduation-cap"}}]}