{"type":"FeatureCollection","features":[{"type":"Feature","geometry":{"type":"Point","coordinates":[-73.5673,45.5017]},"properties":{"kind":"circle","radius_m":400,"label":"5 min walk"}},{"type":"Feature","geometry":{"type":"Point","coordinates":[-73.5673,45.5017]},"properties":{"kind":"circle","radius_m":800,"label":"10 min walk"}},{"type":"Feature","geometry":{"type":"Point","coordinates":[-73.5673,45.5017]},"properties":{"kind":"circle","radius_m":1200,"label":"15 min walk"}},{"type":"Feature","geometry":{"type":"Point","coordinates":[-73.5793846,45.4986971]},"properties":{"kind":"poi","name":"Musée des Beaux-Arts de Montréal","category":"museum","color":"#b45309","fa_icon":"fa-landmark","wikidata":"Q860812","website":"https://www.mbam.qc.ca/","ticket_url":"https://www.mbam.qc.ca/"}},{"type":"Feature","geometry":{"type":"Point","coordinates":[-73.5560052,45.5044405]},"properties":{"kind":"poi","name":"Basilique Notre-Dame","category":"monument","color":"#be123c","fa_icon":"fa-monument","wikidata":"Q887686","website":"https://www.basiliquenotredame.ca/"}},{"type":"Feature","geometry":{"type":"Point","coordinates":[-73.5734315,45.504311]},"properties":{"kind":"poi","name":"Musée McCord Stewart","category":"museum","color":"#b45309","fa_icon":"fa-landmark","wikidata":"Q1128578","website":"https://www.musee-mccord-stewart.ca","ticket_url":"https://www.musee-mccord-stewart.ca"}},{"type":"Feature","geometry":{"type":"Point","coordinates":[-73.5628636,45.4944498]},"properties":{"kind":"poi","name":"École de technologie supérieure (ÉTS)","category":"university","color":"#0891b2","fa_icon":"fa-graduation-cap","wikidata":"Q3577916","courses_url":"https://www.mql5.com/ja"}},{"type":"Feature","geometry":{"type":"Point","coordinates":[-73.5787981,45.5068728]},"properties":{"kind":"poi","name":"McGill University","category":"university","color":"#0891b2","fa_icon":"fa-graduation-cap","wikidata":"Q201492","website":"https://www.mcgill.ca","courses_url":"https://www.mcgill.ca"}},{"type":"Feature","geometry":{"type":"Point","coordinates":[-73.5621564,45.5094457]},"properties":{"kind":"poi","name":"Place de la Paix","category":"park","color":"#16a34a","fa_icon":"fa-tree","wikidata":"Q7157415"}},{"type":"Feature","geometry":{"type":"Point","coordinates":[-73.5712937,45.4942216]},"properties":{"kind":"poi","name":"Lucien-L'Allier","category":"train_station","color":"#2563eb","fa_icon":"fa-train","wikidata":"Q1336478"}},{"type":"Feature","geometry":{"type":"Point","coordinates":[-73.5683162,45.5080307]},"properties":{"kind":"poi","name":"Place-des-Arts","category":"transit","color":"#0369a1","fa_icon":"fa-bus","wikidata":"Q1889985"}},{"type":"Feature","geometry":{"type":"Point","coordinates":[-73.5556129,45.498046]},"properties":{"kind":"poi","name":"Parc Éphémère","category":"park","color":"#16a34a","fa_icon":"fa-tree","website":"https://vieuxmontreal.ca/commerces/parc-ephemere"}},{"type":"Feature","geometry":{"type":"Point","coordinates":[-73.5641934,45.514453]},"properties":{"kind":"poi","name":"UQÀM","category":"university","color":"#0891b2","fa_icon":"fa-graduation-cap"}}]}