{"type":"FeatureCollection","features":[{"type":"Feature","geometry":{"type":"Point","coordinates":[72.8777,19.076]},"properties":{"kind":"circle","radius_m":25000,"label":"20 min"}},{"type":"Feature","geometry":{"type":"Point","coordinates":[72.8777,19.076]},"properties":{"kind":"circle","radius_m":80000,"label":"1 h"}},{"type":"Feature","geometry":{"type":"Point","coordinates":[72.8777,19.076]},"properties":{"kind":"circle","radius_m":160000,"label":"2 h"}},{"type":"Feature","geometry":{"type":"Point","coordinates":[72.8629148,19.0901549]},"properties":{"kind":"poi","name":"Chhatrapati Shivaji Maharaj International Airport","category":"airport","color":"#7c3aed","fa_icon":"fa-plane"}},{"type":"Feature","geometry":{"type":"Point","coordinates":[72.8850282,19.0821001]},"properties":{"kind":"poi","name":"Mother Teresa Brihanmumbai Mahanagarpalika Udyan","category":"park","color":"#16a34a","fa_icon":"fa-tree"}},{"type":"Feature","geometry":{"type":"Point","coordinates":[72.8857558,19.0746634]},"properties":{"kind":"poi","name":"Bharat Ratna Indira Gandhi Udyan & Dr. Abdul Kalam Udyan","category":"park","color":"#16a34a","fa_icon":"fa-tree"}},{"type":"Feature","geometry":{"type":"Point","coordinates":[72.8790973,19.0703276]},"properties":{"kind":"poi","name":"Lakshmi Market","category":"market","color":"#65a30d","fa_icon":"fa-store","video_url":"https://www.youtube.com/embed/ahEesHYyyvk"}},{"type":"Feature","geometry":{"type":"Point","coordinates":[72.8816145,19.0772416]},"properties":{"kind":"poi","name":"Gandhi Maidan","category":"park","color":"#16a34a","fa_icon":"fa-tree"}}]}