{"type":"FeatureCollection","features":[{"type":"Feature","geometry":{"type":"Point","coordinates":[11.582,48.1351]},"properties":{"kind":"circle","radius_m":400,"label":"5 min walk"}},{"type":"Feature","geometry":{"type":"Point","coordinates":[11.582,48.1351]},"properties":{"kind":"circle","radius_m":800,"label":"10 min walk"}},{"type":"Feature","geometry":{"type":"Point","coordinates":[11.582,48.1351]},"properties":{"kind":"circle","radius_m":1200,"label":"15 min walk"}},{"type":"Feature","geometry":{"type":"Point","coordinates":[11.5786154,48.1406325]},"properties":{"kind":"poi","name":"Residenzmuseum und Schatzkammer","category":"museum","color":"#b45309","fa_icon":"fa-landmark","wikidata":"Q2145673","website":"https://www.residenz-muenchen.de/","ticket_url":"https://www.residenz-muenchen.de/"}},{"type":"Feature","geometry":{"type":"Point","coordinates":[11.5715942,48.1383389]},"properties":{"kind":"poi","name":"Deutsches Jagd- und Fischereimuseum","category":"museum","color":"#b45309","fa_icon":"fa-landmark","wikidata":"Q152966","website":"https://www.jagd-fischerei-museum.de/","ticket_url":"https://www.jagd-fischerei-museum.de/"}},{"type":"Feature","geometry":{"type":"Point","coordinates":[11.5762598,48.1350872]},"properties":{"kind":"poi","name":"Liesl-Karlstadt-Brunnen","category":"monument","color":"#be123c","fa_icon":"fa-monument","wikidata":"Q98704251","wikipedia_url":"https://de.wikipedia.org/wiki/Liesl-Karlstadt-Brunnen"}},{"type":"Feature","geometry":{"type":"Point","coordinates":[11.5855591,48.1375204]},"properties":{"kind":"poi","name":"Museum Fünf Kontinente","category":"museum","color":"#b45309","fa_icon":"fa-landmark","wikidata":"Q454217","website":"https://www.museum-fuenf-kontinente.de/","ticket_url":"https://www.museum-fuenf-kontinente.de/"}},{"type":"Feature","geometry":{"type":"Point","coordinates":[11.5883174,48.1322257]},"properties":{"kind":"poi","name":"Müllersches Volksbad","category":"monument","color":"#be123c","fa_icon":"fa-monument","wikidata":"Q1958790","website":"https://www.swm.de/baeder/muellersches-volksbad","wikipedia_url":"https://de.wikipedia.org/wiki/Datei:Muellersches_Volksbad,_Muenchen.jpg"}},{"type":"Feature","geometry":{"type":"Point","coordinates":[11.5958821,48.1403856]},"properties":{"kind":"poi","name":"Maximiliansanlagen","category":"park","color":"#16a34a","fa_icon":"fa-tree","wikidata":"Q1914181"}},{"type":"Feature","geometry":{"type":"Point","coordinates":[11.5736745,48.1243109]},"properties":{"kind":"poi","name":"Frühlingsanlagen","category":"park","color":"#16a34a","fa_icon":"fa-tree","wikidata":"Q15056218"}},{"type":"Feature","geometry":{"type":"Point","coordinates":[11.5833343,48.1253837]},"properties":{"kind":"poi","name":"Mariahilfplatz","category":"market","color":"#65a30d","fa_icon":"fa-store","wikidata":"Q875597","website":"https://www.muenchen.de/veranstaltungen/auer-dult/"}},{"type":"Feature","geometry":{"type":"Point","coordinates":[11.5741025,48.1294285]},"properties":{"kind":"poi","name":"Fraunhoferstraße","category":"transit","color":"#0369a1","fa_icon":"fa-bus","wikidata":"Q277810"}}]}