{"type":"FeatureCollection","features":[{"type":"Feature","geometry":{"type":"Point","coordinates":[36.8219,-1.2921]},"properties":{"kind":"circle","radius_m":25000,"label":"20 min"}},{"type":"Feature","geometry":{"type":"Point","coordinates":[36.8219,-1.2921]},"properties":{"kind":"circle","radius_m":80000,"label":"1 h"}},{"type":"Feature","geometry":{"type":"Point","coordinates":[36.8219,-1.2921]},"properties":{"kind":"circle","radius_m":160000,"label":"2 h"}},{"type":"Feature","geometry":{"type":"Point","coordinates":[36.8285594,-1.2916496]},"properties":{"kind":"poi","name":"Nairobi Central Railway Station","category":"train_station","color":"#2563eb","fa_icon":"fa-train"}},{"type":"Feature","geometry":{"type":"Point","coordinates":[36.8225011,-1.2936209]},"properties":{"kind":"poi","name":"Nairobi Railway Museum","category":"museum","color":"#b45309","fa_icon":"fa-landmark"}},{"type":"Feature","geometry":{"type":"Point","coordinates":[36.8178958,-1.2867687]},"properties":{"kind":"poi","name":"Nairobi Gallery","category":"museum","color":"#b45309","fa_icon":"fa-landmark"}},{"type":"Feature","geometry":{"type":"Point","coordinates":[36.8259496,-1.2849038]},"properties":{"kind":"poi","name":"Kenya National Archives","category":"museum","color":"#b45309","fa_icon":"fa-landmark"}},{"type":"Feature","geometry":{"type":"Point","coordinates":[36.8236504,-1.3002891]},"properties":{"kind":"poi","name":"Athletics Museum","category":"museum","color":"#b45309","fa_icon":"fa-landmark"}}]}