{"type":"FeatureCollection","features":[{"type":"Feature","geometry":{"type":"Point","coordinates":[-74.006,40.7128]},"properties":{"kind":"circle","radius_m":25000,"label":"20 min"}},{"type":"Feature","geometry":{"type":"Point","coordinates":[-74.006,40.7128]},"properties":{"kind":"circle","radius_m":80000,"label":"1 h"}},{"type":"Feature","geometry":{"type":"Point","coordinates":[-74.006,40.7128]},"properties":{"kind":"circle","radius_m":160000,"label":"2 h"}},{"type":"Feature","geometry":{"type":"Point","coordinates":[-74.0029056,40.7057505]},"properties":{"kind":"poi","name":"South Street Seaport","category":"monument","color":"#be123c","fa_icon":"fa-monument"}},{"type":"Feature","geometry":{"type":"Point","coordinates":[-74.009196,40.706371]},"properties":{"kind":"poi","name":"Museum of American Finance","category":"museum","color":"#b45309","fa_icon":"fa-landmark"}},{"type":"Feature","geometry":{"type":"Point","coordinates":[-74.0050702,40.71235]},"properties":{"kind":"poi","name":"Brooklyn Bridge–City Hall","category":"train_station","color":"#2563eb","fa_icon":"fa-train"}},{"type":"Feature","geometry":{"type":"Point","coordinates":[-74.0116432,40.7170293]},"properties":{"kind":"poi","name":"Washington Market Park","category":"park","color":"#16a34a","fa_icon":"fa-tree"}},{"type":"Feature","geometry":{"type":"Point","coordinates":[-74.0127418,40.711456]},"properties":{"kind":"poi","name":"9/11 Memorial & Museum","category":"museum","color":"#b45309","fa_icon":"fa-landmark"}},{"type":"Feature","geometry":{"type":"Point","coordinates":[-74.0058909,40.7220728]},"properties":{"kind":"poi","name":"Albert Capsouto Park","category":"park","color":"#16a34a","fa_icon":"fa-tree"}},{"type":"Feature","geometry":{"type":"Point","coordinates":[-73.9963566,40.7056913]},"properties":{"kind":"poi","name":"Brooklyn Bridge","category":"monument","color":"#be123c","fa_icon":"fa-monument"}},{"type":"Feature","geometry":{"type":"Point","coordinates":[-73.9905117,40.7070805]},"properties":{"kind":"poi","name":"Manhattan Bridge","category":"monument","color":"#be123c","fa_icon":"fa-monument"}},{"type":"Feature","geometry":{"type":"Point","coordinates":[-74.0051836,40.7462165]},"properties":{"kind":"poi","name":"Hudson River Park","category":"park","color":"#16a34a","fa_icon":"fa-tree"}},{"type":"Feature","geometry":{"type":"Point","coordinates":[-73.999892,40.718092]},"properties":{"kind":"poi","name":"Canal Street","category":"train_station","color":"#2563eb","fa_icon":"fa-train"}},{"type":"Feature","geometry":{"type":"Point","coordinates":[-73.997469,40.7106394]},"properties":{"kind":"poi","name":"Alfred E. Smith Playground","category":"park","color":"#16a34a","fa_icon":"fa-tree"}},{"type":"Feature","geometry":{"type":"Point","coordinates":[-73.9945697,40.7154032]},"properties":{"kind":"poi","name":"Forsyth Plaza","category":"park","color":"#16a34a","fa_icon":"fa-tree"}}]}