{"type":"FeatureCollection","features":[{"type":"Feature","geometry":{"type":"Point","coordinates":[135.5023,34.6937]},"properties":{"kind":"circle","radius_m":400,"label":"5 min walk"}},{"type":"Feature","geometry":{"type":"Point","coordinates":[135.5023,34.6937]},"properties":{"kind":"circle","radius_m":800,"label":"10 min walk"}},{"type":"Feature","geometry":{"type":"Point","coordinates":[135.5023,34.6937]},"properties":{"kind":"circle","radius_m":1200,"label":"15 min walk"}},{"type":"Feature","geometry":{"type":"Point","coordinates":[135.5059954,34.6886356]},"properties":{"kind":"poi","name":"くすりの道修町資料館","category":"museum","color":"#b45309","fa_icon":"fa-landmark","wikidata":"Q17214457","ticket_url":"https://www.viber.com/en/download/"}},{"type":"Feature","geometry":{"type":"Point","coordinates":[135.5055152,34.6934159]},"properties":{"kind":"poi","name":"大阪市立東洋陶磁美術館","category":"museum","color":"#b45309","fa_icon":"fa-landmark","wikidata":"Q11440555","website":"https://www.moco.or.jp/","ticket_url":"https://www.moco.or.jp/"}},{"type":"Feature","geometry":{"type":"Point","coordinates":[135.4963201,34.6864882]},"properties":{"kind":"poi","name":"大阪科学技術館","category":"museum","color":"#b45309","fa_icon":"fa-landmark","wikidata":"Q11441568"}},{"type":"Feature","geometry":{"type":"Point","coordinates":[135.5146066,34.691977]},"properties":{"kind":"poi","name":"南天満公園","category":"park","color":"#16a34a","fa_icon":"fa-tree","wikidata":"Q11407698"}},{"type":"Feature","geometry":{"type":"Point","coordinates":[135.4915691,34.6911979]},"properties":{"kind":"poi","name":"大阪市立科学館","category":"museum","color":"#b45309","fa_icon":"fa-landmark","wikidata":"Q875709","website":"https://www.sci-museum.jp/","ticket_url":"https://www.sci-museum.jp/"}},{"type":"Feature","geometry":{"type":"Point","coordinates":[135.4971469,34.7014097]},"properties":{"kind":"poi","name":"大阪梅田","category":"train_station","color":"#2563eb","fa_icon":"fa-train","wikidata":"Q20023052"}},{"type":"Feature","geometry":{"type":"Point","coordinates":[135.4997599,34.6943275]},"properties":{"kind":"poi","name":"大江橋","category":"train_station","color":"#2563eb","fa_icon":"fa-train","wikidata":"Q981704"}},{"type":"Feature","geometry":{"type":"Point","coordinates":[135.5110024,34.6975782]},"properties":{"kind":"poi","name":"南森町","category":"transit","color":"#0369a1","fa_icon":"fa-bus","wikidata":"Q1039923"}},{"type":"Feature","geometry":{"type":"Point","coordinates":[135.5070312,34.7013179]},"properties":{"kind":"poi","name":"野崎公園","category":"park","color":"#16a34a","fa_icon":"fa-tree"}}]}