{"type":"FeatureCollection","features":[{"type":"Feature","geometry":{"type":"Point","coordinates":[10.7522,59.9139]},"properties":{"kind":"circle","radius_m":25000,"label":"20 min"}},{"type":"Feature","geometry":{"type":"Point","coordinates":[10.7522,59.9139]},"properties":{"kind":"circle","radius_m":80000,"label":"1 h"}},{"type":"Feature","geometry":{"type":"Point","coordinates":[10.7522,59.9139]},"properties":{"kind":"circle","radius_m":160000,"label":"2 h"}},{"type":"Feature","geometry":{"type":"Point","coordinates":[10.763251,59.913048]},"properties":{"kind":"poi","name":"Interkulturelt museum","category":"museum","color":"#b45309","fa_icon":"fa-landmark"}},{"type":"Feature","geometry":{"type":"Point","coordinates":[10.7428622,59.9173749]},"properties":{"kind":"poi","name":"Kommandør T.I. Øgrims plass","category":"park","color":"#16a34a","fa_icon":"fa-tree"}},{"type":"Feature","geometry":{"type":"Point","coordinates":[10.725065,59.9312388]},"properties":{"kind":"poi","name":"Universitetet i Oslo","category":"university","color":"#0891b2","fa_icon":"fa-graduation-cap"}},{"type":"Feature","geometry":{"type":"Point","coordinates":[10.7582595,59.922882]},"properties":{"kind":"poi","name":"Olaf Ryes plass","category":"park","color":"#16a34a","fa_icon":"fa-tree"}},{"type":"Feature","geometry":{"type":"Point","coordinates":[10.7427782,59.9073454]},"properties":{"kind":"poi","name":"Grev Wedels plass","category":"park","color":"#16a34a","fa_icon":"fa-tree"}},{"type":"Feature","geometry":{"type":"Point","coordinates":[10.7526811,59.9074842]},"properties":{"kind":"poi","name":"Operahuset i Oslo","category":"monument","color":"#be123c","fa_icon":"fa-monument"}},{"type":"Feature","geometry":{"type":"Point","coordinates":[10.7344119,59.9145976]},"properties":{"kind":"poi","name":"Studenterlunden","category":"park","color":"#16a34a","fa_icon":"fa-tree"}},{"type":"Feature","geometry":{"type":"Point","coordinates":[10.7697494,59.9183655]},"properties":{"kind":"poi","name":"Botanisk hage","category":"museum","color":"#b45309","fa_icon":"fa-landmark"}},{"type":"Feature","geometry":{"type":"Point","coordinates":[10.7554205,59.916338]},"properties":{"kind":"poi","name":"Jødisk museum","category":"museum","color":"#b45309","fa_icon":"fa-landmark"}},{"type":"Feature","geometry":{"type":"Point","coordinates":[10.7711157,59.9095926]},"properties":{"kind":"poi","name":"Botsparken","category":"park","color":"#16a34a","fa_icon":"fa-tree"}},{"type":"Feature","geometry":{"type":"Point","coordinates":[10.75169,59.9122056]},"properties":{"kind":"poi","name":"Jernbanetorget","category":"train_station","color":"#2563eb","fa_icon":"fa-train"}}]}