{"type":"FeatureCollection","features":[{"type":"Feature","geometry":{"type":"Point","coordinates":[2.3522,48.8566]},"properties":{"kind":"circle","radius_m":400,"label":"5 min walk"}},{"type":"Feature","geometry":{"type":"Point","coordinates":[2.3522,48.8566]},"properties":{"kind":"circle","radius_m":800,"label":"10 min walk"}},{"type":"Feature","geometry":{"type":"Point","coordinates":[2.3522,48.8566]},"properties":{"kind":"circle","radius_m":1200,"label":"15 min walk"}},{"type":"Feature","geometry":{"type":"Point","coordinates":[2.3487885,48.8534015]},"properties":{"kind":"poi","name":"Point zéro des Routes de France","category":"monument","color":"#be123c","fa_icon":"fa-monument","wikidata":"Q2467833","wikipedia_url":"https://fr.wikipedia.org/wiki/Point_z%C3%A9ro_des_routes_de_France"}},{"type":"Feature","geometry":{"type":"Point","coordinates":[2.3589562,48.8551205]},"properties":{"kind":"poi","name":"Maison européenne de la Photographie","category":"museum","color":"#b45309","fa_icon":"fa-landmark","wikidata":"Q3100297","website":"https://www.mep-fr.org/","ticket_url":"https://www.mep-fr.org/"}},{"type":"Feature","geometry":{"type":"Point","coordinates":[2.3485011,48.8630052]},"properties":{"kind":"poi","name":"Le Petit Bouillon Pharamond","category":"monument","color":"#be123c","fa_icon":"fa-monument","wikidata":"Q15918460","website":"https://www.petitbouillonpharamond.com/"}},{"type":"Feature","geometry":{"type":"Point","coordinates":[2.3445383,48.849412]},"properties":{"kind":"poi","name":"Laboratoire de psychologie LaPsyDÉ - Université de Paris","category":"university","color":"#0891b2","fa_icon":"fa-graduation-cap","wikidata":"Q55849612","website":"https://psychologie.u-paris.fr/les-laboratoires/","courses_url":"https://psychologie.u-paris.fr/les-laboratoires/"}},{"type":"Feature","geometry":{"type":"Point","coordinates":[2.3487608,48.857913]},"properties":{"kind":"poi","name":"Square de la Tour Saint-Jacques","category":"park","color":"#16a34a","fa_icon":"fa-tree","wikidata":"Q3494976","website":"https://www.paris.fr/equipements/square-de-la-tour-saint-jacques-33"}},{"type":"Feature","geometry":{"type":"Point","coordinates":[2.3520343,48.8488289]},"properties":{"kind":"poi","name":"Collège des Bernardins","category":"monument","color":"#be123c","fa_icon":"fa-monument","wikidata":"Q960165","website":"https://www.collegedesbernardins.fr/","wikipedia_url":"https://fr.wikipedia.org/wiki/Coll%C3%A8ge_des_Bernardins"}},{"type":"Feature","geometry":{"type":"Point","coordinates":[2.3619723,48.8627768]},"properties":{"kind":"poi","name":"Marché couvert des Enfants Rouges","category":"market","color":"#65a30d","fa_icon":"fa-store","wikidata":"Q3289922"}},{"type":"Feature","geometry":{"type":"Point","coordinates":[2.3402065,48.8574038]},"properties":{"kind":"poi","name":"Square du Vert Galant","category":"park","color":"#16a34a","fa_icon":"fa-tree","wikidata":"Q3495079"}},{"type":"Feature","geometry":{"type":"Point","coordinates":[2.3621853,48.8505861]},"properties":{"kind":"poi","name":"Pavillon de l'Arsenal","category":"museum","color":"#b45309","fa_icon":"fa-landmark","wikidata":"Q2000339","website":"https://www.pavillon-arsenal.com/","ticket_url":"https://www.pavillon-arsenal.com/"}},{"type":"Feature","geometry":{"type":"Point","coordinates":[2.355418,48.8612656]},"properties":{"kind":"poi","name":"Musée d'Art et d'Histoire du Judaïsme","category":"museum","color":"#b45309","fa_icon":"fa-landmark","wikidata":"Q977732","website":"https://www.mahj.org/","ticket_url":"https://www.mahj.org/"}},{"type":"Feature","geometry":{"type":"Point","coordinates":[2.3351677,48.8614768]},"properties":{"kind":"poi","name":"Palais du Louvre","category":"monument","color":"#be123c","fa_icon":"fa-monument","wikidata":"Q1075988","website":"https://www.louvre.fr/","wikipedia_url":"https://fr.wikipedia.org/wiki/Palais_du_Louvre"}},{"type":"Feature","geometry":{"type":"Point","coordinates":[2.3124586,48.8472014]},"properties":{"kind":"poi","name":"Université PSL","category":"university","color":"#0891b2","fa_icon":"fa-graduation-cap","wikidata":"Q1163431","website":"https://www.psl.eu/","courses_url":"https://www.psl.eu/"}}]}