{"type":"FeatureCollection","features":[{"type":"Feature","geometry":{"type":"Point","coordinates":[14.4378,50.0755]},"properties":{"kind":"circle","radius_m":25000,"label":"20 min"}},{"type":"Feature","geometry":{"type":"Point","coordinates":[14.4378,50.0755]},"properties":{"kind":"circle","radius_m":80000,"label":"1 h"}},{"type":"Feature","geometry":{"type":"Point","coordinates":[14.4378,50.0755]},"properties":{"kind":"circle","radius_m":160000,"label":"2 h"}},{"type":"Feature","geometry":{"type":"Point","coordinates":[14.4360939,50.0829628]},"properties":{"kind":"poi","name":"Praha hlavní nádraží","category":"train_station","color":"#2563eb","fa_icon":"fa-train","transit_url":"https://moovitapp.com/index/en/public_transit-Hlavn%C3%AD_N%C3%A1dra%C5%BE%C3%AD-Prague-stop_35935926-1684"}},{"type":"Feature","geometry":{"type":"Point","coordinates":[14.426921,50.0736877]},"properties":{"kind":"poi","name":"Muzeum Antonína Dvořáka","category":"museum","color":"#b45309","fa_icon":"fa-landmark","website":"https://www.nm.cz/","ticket_url":"https://www.nm.cz/"}},{"type":"Feature","geometry":{"type":"Point","coordinates":[14.4339667,50.0734896]},"properties":{"kind":"poi","name":"University of New York in Prague","category":"university","color":"#0891b2","fa_icon":"fa-graduation-cap","website":"https://www.unyp.cz/","courses_url":"https://www.unyp.cz/"}},{"type":"Feature","geometry":{"type":"Point","coordinates":[14.4494746,50.0725508]},"properties":{"kind":"poi","name":"Ateliér Ladislava Šalouna","category":"monument","color":"#be123c","fa_icon":"fa-monument","wikidata":"Q10396692","wikipedia_url":"https://ru.wikipedia.org/wiki/%D0%92%D0%B8%D0%BB%D0%BB%D0%B0_%D0%A8%D0%B0%D0%BB%D0%BE%D1%83%D0%BD%D0%B0"}},{"type":"Feature","geometry":{"type":"Point","coordinates":[14.4464816,50.0766888]},"properties":{"kind":"poi","name":"sady Svatopluka Čecha","category":"park","color":"#16a34a","fa_icon":"fa-tree"}},{"type":"Feature","geometry":{"type":"Point","coordinates":[14.4445361,50.0839373]},"properties":{"kind":"poi","name":"FK Viktoria Žižkov","category":"stadium","color":"#ea580c","fa_icon":"fa-futbol"}},{"type":"Feature","geometry":{"type":"Point","coordinates":[14.4444279,50.068917]},"properties":{"kind":"poi","name":"Havlíčkovy sady","category":"park","color":"#16a34a","fa_icon":"fa-tree"}},{"type":"Feature","geometry":{"type":"Point","coordinates":[14.4314307,50.0794183]},"properties":{"kind":"poi","name":"Národní muzeum","category":"museum","color":"#b45309","fa_icon":"fa-landmark","website":"https://www.galeriesmecky.cz/","ticket_url":"https://www.galeriesmecky.cz/"}},{"type":"Feature","geometry":{"type":"Point","coordinates":[14.428271,50.0678491]},"properties":{"kind":"poi","name":"Folimanka","category":"park","color":"#16a34a","fa_icon":"fa-tree"}}]}