{"type":"FeatureCollection","features":[{"type":"Feature","geometry":{"type":"Point","coordinates":[-43.1729,-22.9068]},"properties":{"kind":"circle","radius_m":400,"label":"5 min walk"}},{"type":"Feature","geometry":{"type":"Point","coordinates":[-43.1729,-22.9068]},"properties":{"kind":"circle","radius_m":800,"label":"10 min walk"}},{"type":"Feature","geometry":{"type":"Point","coordinates":[-43.1729,-22.9068]},"properties":{"kind":"circle","radius_m":1200,"label":"15 min walk"}},{"type":"Feature","geometry":{"type":"Point","coordinates":[-43.1649477,-22.9105328]},"properties":{"kind":"poi","name":"Aeroporto Santos Dumont","category":"airport","color":"#7c3aed","fa_icon":"fa-plane","wikidata":"Q865475","website":"http://www.aeroportosantosdumont.net/"}},{"type":"Feature","geometry":{"type":"Point","coordinates":[-43.1806914,-22.9107984]},"properties":{"kind":"poi","name":"Catedral de São Sebastião","category":"monument","color":"#be123c","fa_icon":"fa-monument","wikidata":"Q2411716"}},{"type":"Feature","geometry":{"type":"Point","coordinates":[-43.176289,-22.9010646]},"properties":{"kind":"poi","name":"Centro Cultural Banco do Brasil","category":"museum","color":"#b45309","fa_icon":"fa-landmark","wikidata":"Q30939541","website":"http://culturabancodobrasil.com.br/portal/rio-de-janeiro/","ticket_url":"http://culturabancodobrasil.com.br/portal/rio-de-janeiro/"}},{"type":"Feature","geometry":{"type":"Point","coordinates":[-43.1710805,-22.9041735]},"properties":{"kind":"poi","name":"Praça Marechal Âncora","category":"park","color":"#16a34a","fa_icon":"fa-tree","wikidata":"Q10353328"}},{"type":"Feature","geometry":{"type":"Point","coordinates":[-43.1805396,-22.905612]},"properties":{"kind":"poi","name":"Igreja de São Francisco de Paula","category":"monument","color":"#be123c","fa_icon":"fa-monument","wikidata":"Q10300739"}},{"type":"Feature","geometry":{"type":"Point","coordinates":[-43.1757692,-22.9087242]},"properties":{"kind":"poi","name":"Museu Nacional de Belas Artes","category":"museum","color":"#b45309","fa_icon":"fa-landmark","wikidata":"Q1954370","ticket_url":"https://wa.me/?text=%2Fabout"}},{"type":"Feature","geometry":{"type":"Point","coordinates":[-43.1720611,-22.9138504]},"properties":{"kind":"poi","name":"Museu de Arte Moderna (MAM)","category":"museum","color":"#b45309","fa_icon":"fa-landmark","wikidata":"Q1431995","website":"https://mam.rio/","ticket_url":"https://mam.rio/"}},{"type":"Feature","geometry":{"type":"Point","coordinates":[-43.1729174,-22.927373]},"properties":{"kind":"poi","name":"Aterro do Flamengo","category":"park","color":"#16a34a","fa_icon":"fa-tree","wikidata":"Q5457206"}},{"type":"Feature","geometry":{"type":"Point","coordinates":[-43.1758333,-22.916864]},"properties":{"kind":"poi","name":"Praça Paris","category":"park","color":"#16a34a","fa_icon":"fa-tree","wikidata":"Q10353344"}}]}