{"type":"FeatureCollection","features":[{"type":"Feature","geometry":{"type":"Point","coordinates":[12.4964,41.9028]},"properties":{"kind":"circle","radius_m":25000,"label":"20 min"}},{"type":"Feature","geometry":{"type":"Point","coordinates":[12.4964,41.9028]},"properties":{"kind":"circle","radius_m":80000,"label":"1 h"}},{"type":"Feature","geometry":{"type":"Point","coordinates":[12.4964,41.9028]},"properties":{"kind":"circle","radius_m":160000,"label":"2 h"}},{"type":"Feature","geometry":{"type":"Point","coordinates":[12.5025272,41.9005815]},"properties":{"kind":"poi","name":"Roma Termini","category":"train_station","color":"#2563eb","fa_icon":"fa-train","transit_url":"https://treniamo.it/en/station/S08409-roma-termini"}},{"type":"Feature","geometry":{"type":"Point","coordinates":[12.5010785,41.909267]},"properties":{"kind":"poi","name":"Museo Storico dei Bersaglieri","category":"museum","color":"#b45309","fa_icon":"fa-landmark","ticket_url":"https://artwonders.it/evento/museo-storico-dei-bersaglieri-da-michelangelo-alle-origini-dellitalia-unita/?lang=en"}},{"type":"Feature","geometry":{"type":"Point","coordinates":[12.4898746,41.9033252]},"properties":{"kind":"poi","name":"Galleria Nazionale d'Arte Antica","category":"museum","color":"#b45309","fa_icon":"fa-landmark","website":"https://www.barberinicorsini.org","ticket_url":"https://www.barberinicorsini.org"}},{"type":"Feature","geometry":{"type":"Point","coordinates":[12.4986933,41.8962403]},"properties":{"kind":"poi","name":"Basilica di Santa Prassede","category":"monument","color":"#be123c","fa_icon":"fa-monument","wikidata":"Q733890","wikipedia_url":"https://en.wikipedia.org/wiki/Santa_Prassede"}},{"type":"Feature","geometry":{"type":"Point","coordinates":[12.4848652,41.8989311]},"properties":{"kind":"poi","name":"Pontificia Università Gregoriana","category":"university","color":"#0891b2","fa_icon":"fa-graduation-cap","courses_url":"https://www.unigre.it/it/catalogo-corsi/scheda/?id=115048"}},{"type":"Feature","geometry":{"type":"Point","coordinates":[12.4973373,41.9034429]},"properties":{"kind":"poi","name":"Basilica di Santa Maria degli Angeli e dei Martiri","category":"monument","color":"#be123c","fa_icon":"fa-monument","wikidata":"Q569253","wikipedia_url":"https://it.wikipedia.org/wiki/Basilica_di_Santa_Maria_degli_Angeli_e_dei_Martiri"}},{"type":"Feature","geometry":{"type":"Point","coordinates":[12.4931626,41.8938552]},"properties":{"kind":"poi","name":"Basilica di San Pietro in Vincoli","category":"monument","color":"#be123c","fa_icon":"fa-monument","wikipedia_url":"https://it.wikipedia.org/wiki/Basilica_di_San_Pietro_in_Vincoli"}},{"type":"Feature","geometry":{"type":"Point","coordinates":[12.5057913,41.9063932]},"properties":{"kind":"poi","name":"Castro Pretorio","category":"train_station","color":"#2563eb","fa_icon":"fa-train","transit_url":"https://moovitapp.com/index/en/public_transit-Castro_Pretorio-Roma_e_Lazio-stop_2947535-61"}},{"type":"Feature","geometry":{"type":"Point","coordinates":[12.4846584,41.9128929]},"properties":{"kind":"poi","name":"Villa Borghese","category":"park","color":"#16a34a","fa_icon":"fa-tree"}},{"type":"Feature","geometry":{"type":"Point","coordinates":[12.4919168,41.9104635]},"properties":{"kind":"poi","name":"Font Ludovisi","category":"monument","color":"#be123c","fa_icon":"fa-monument"}},{"type":"Feature","geometry":{"type":"Point","coordinates":[12.5043255,41.8945835]},"properties":{"kind":"poi","name":"Giardini Nicola Calipari","category":"park","color":"#16a34a","fa_icon":"fa-tree"}},{"type":"Feature","geometry":{"type":"Point","coordinates":[12.4830304,41.9082652]},"properties":{"kind":"poi","name":"Giardino di Villa Medici","category":"park","color":"#16a34a","fa_icon":"fa-tree"}}]}