{"type":"FeatureCollection","features":[{"type":"Feature","geometry":{"type":"Point","coordinates":[-122.4194,37.7749]},"properties":{"kind":"circle","radius_m":25000,"label":"20 min"}},{"type":"Feature","geometry":{"type":"Point","coordinates":[-122.4194,37.7749]},"properties":{"kind":"circle","radius_m":80000,"label":"1 h"}},{"type":"Feature","geometry":{"type":"Point","coordinates":[-122.4194,37.7749]},"properties":{"kind":"circle","radius_m":160000,"label":"2 h"}},{"type":"Feature","geometry":{"type":"Point","coordinates":[-122.4159975,37.7802455]},"properties":{"kind":"poi","name":"Asian Art Museum of San Francisco","category":"museum","color":"#b45309","fa_icon":"fa-landmark"}},{"type":"Feature","geometry":{"type":"Point","coordinates":[-122.4192659,37.7751897]},"properties":{"kind":"poi","name":"Van Ness","category":"train_station","color":"#2563eb","fa_icon":"fa-train"}},{"type":"Feature","geometry":{"type":"Point","coordinates":[-122.4267327,37.7732544]},"properties":{"kind":"poi","name":"Koshland Park","category":"park","color":"#16a34a","fa_icon":"fa-tree"}},{"type":"Feature","geometry":{"type":"Point","coordinates":[-122.4098406,37.7772579]},"properties":{"kind":"poi","name":"Howard & Langton Mini Park Community Garden","category":"park","color":"#16a34a","fa_icon":"fa-tree"}},{"type":"Feature","geometry":{"type":"Point","coordinates":[-122.4254976,37.780873]},"properties":{"kind":"poi","name":"Margaret S. Hayward Playground","category":"park","color":"#16a34a","fa_icon":"fa-tree"}},{"type":"Feature","geometry":{"type":"Point","coordinates":[-122.4119088,37.769836]},"properties":{"kind":"poi","name":"SoMa StrEat Food Park","category":"market","color":"#65a30d","fa_icon":"fa-store","video_url":"https://www.youtube.com/embed/8b-S-5_qP-I"}},{"type":"Feature","geometry":{"type":"Point","coordinates":[-122.4196272,37.7660549]},"properties":{"kind":"poi","name":"Fida Market","category":"market","color":"#65a30d","fa_icon":"fa-store","video_url":"https://www.youtube.com/embed/8b-S-5_qP-I"}}]}