{"type":"FeatureCollection","features":[{"type":"Feature","geometry":{"type":"Point","coordinates":[-70.6693,-33.4489]},"properties":{"kind":"circle","radius_m":25000,"label":"20 min"}},{"type":"Feature","geometry":{"type":"Point","coordinates":[-70.6693,-33.4489]},"properties":{"kind":"circle","radius_m":80000,"label":"1 h"}},{"type":"Feature","geometry":{"type":"Point","coordinates":[-70.6693,-33.4489]},"properties":{"kind":"circle","radius_m":160000,"label":"2 h"}},{"type":"Feature","geometry":{"type":"Point","coordinates":[-70.673351,-33.4493623]},"properties":{"kind":"poi","name":"Unión Latinoamericana","category":"train_station","color":"#2563eb","fa_icon":"fa-train"}},{"type":"Feature","geometry":{"type":"Point","coordinates":[-70.6673731,-33.4530423]},"properties":{"kind":"poi","name":"Casonas de Avenida República","category":"monument","color":"#be123c","fa_icon":"fa-monument","wikidata":"Q20013912"}},{"type":"Feature","geometry":{"type":"Point","coordinates":[-70.6685297,-33.4639315]},"properties":{"kind":"poi","name":"Club Hípico de Santiago","category":"stadium","color":"#ea580c","fa_icon":"fa-futbol"}},{"type":"Feature","geometry":{"type":"Point","coordinates":[-70.685533,-33.448935]},"properties":{"kind":"poi","name":"Universidad de Santiago de Chile","category":"university","color":"#0891b2","fa_icon":"fa-graduation-cap"}},{"type":"Feature","geometry":{"type":"Point","coordinates":[-70.6581222,-33.4496919]},"properties":{"kind":"poi","name":"Universidad Iberoamericana de Ciencias y Tecnología","category":"university","color":"#0891b2","fa_icon":"fa-graduation-cap"}},{"type":"Feature","geometry":{"type":"Point","coordinates":[-70.6623206,-33.4450068]},"properties":{"kind":"poi","name":"Campus Patrimonial Universidad Alberto Hurtado","category":"university","color":"#0891b2","fa_icon":"fa-graduation-cap"}},{"type":"Feature","geometry":{"type":"Point","coordinates":[-70.6789622,-33.4508228]},"properties":{"kind":"poi","name":"Estación Central","category":"train_station","color":"#2563eb","fa_icon":"fa-train"}},{"type":"Feature","geometry":{"type":"Point","coordinates":[-70.6758062,-33.4421898]},"properties":{"kind":"poi","name":"Museo del Sonido","category":"museum","color":"#b45309","fa_icon":"fa-landmark"}},{"type":"Feature","geometry":{"type":"Point","coordinates":[-70.6658958,-33.4405838]},"properties":{"kind":"poi","name":"Plaza Brasil","category":"park","color":"#16a34a","fa_icon":"fa-tree"}},{"type":"Feature","geometry":{"type":"Point","coordinates":[-70.6671366,-33.447702]},"properties":{"kind":"poi","name":"República","category":"train_station","color":"#2563eb","fa_icon":"fa-train"}},{"type":"Feature","geometry":{"type":"Point","coordinates":[-70.6727629,-33.4578272]},"properties":{"kind":"poi","name":"Taller Mecánico, Universidad de Chile","category":"university","color":"#0891b2","fa_icon":"fa-graduation-cap"}},{"type":"Feature","geometry":{"type":"Point","coordinates":[-70.6637636,-33.456547]},"properties":{"kind":"poi","name":"Universidad de Chile (Facultad de Ciencias Físicas y Matemáticas)","category":"university","color":"#0891b2","fa_icon":"fa-graduation-cap","website":"https://ingenieria.uchile.cl/","courses_url":"https://ingenieria.uchile.cl/"}}]}