{"type":"FeatureCollection","features":[{"type":"Feature","geometry":{"type":"Point","coordinates":[-46.6333,-23.5505]},"properties":{"kind":"circle","radius_m":25000,"label":"20 min"}},{"type":"Feature","geometry":{"type":"Point","coordinates":[-46.6333,-23.5505]},"properties":{"kind":"circle","radius_m":80000,"label":"1 h"}},{"type":"Feature","geometry":{"type":"Point","coordinates":[-46.6333,-23.5505]},"properties":{"kind":"circle","radius_m":160000,"label":"2 h"}},{"type":"Feature","geometry":{"type":"Point","coordinates":[-46.6321281,-23.5537763]},"properties":{"kind":"poi","name":"Museu do Tribunal de Justiça SP","category":"museum","color":"#b45309","fa_icon":"fa-landmark"}},{"type":"Feature","geometry":{"type":"Point","coordinates":[-46.6379945,-23.5457637]},"properties":{"kind":"poi","name":"Praça Ramos de Azevedo","category":"park","color":"#16a34a","fa_icon":"fa-tree"}},{"type":"Feature","geometry":{"type":"Point","coordinates":[-46.6325293,-23.5484964]},"properties":{"kind":"poi","name":"Secretaria da Justiça e da Defesa da Cidadania","category":"monument","color":"#be123c","fa_icon":"fa-monument","wikidata":"Q2880208"}},{"type":"Feature","geometry":{"type":"Point","coordinates":[-46.6277812,-23.544119]},"properties":{"kind":"poi","name":"Catavento Cultural e Educacional","category":"museum","color":"#b45309","fa_icon":"fa-landmark","website":"http://www.cataventocultural.org.br/","ticket_url":"http://www.cataventocultural.org.br/"}},{"type":"Feature","geometry":{"type":"Point","coordinates":[-46.6369163,-23.5574205]},"properties":{"kind":"poi","name":"FECAP - Fundação Escola de Comércio Álvares Penteado","category":"university","color":"#0891b2","fa_icon":"fa-graduation-cap","website":"https://www.fecap.br","courses_url":"https://www.fecap.br"}},{"type":"Feature","geometry":{"type":"Point","coordinates":[-46.6279327,-23.5504373]},"properties":{"kind":"poi","name":"Parque Dom Pedro II","category":"park","color":"#16a34a","fa_icon":"fa-tree"}},{"type":"Feature","geometry":{"type":"Point","coordinates":[-46.6403716,-23.5500038]},"properties":{"kind":"poi","name":"Praça e Memorial Vladimir Herzog","category":"park","color":"#16a34a","fa_icon":"fa-tree"}},{"type":"Feature","geometry":{"type":"Point","coordinates":[-46.6279053,-23.5566165]},"properties":{"kind":"poi","name":"Praça José Luiz de Mello Malheiro","category":"park","color":"#16a34a","fa_icon":"fa-tree"}}]}