{"type":"FeatureCollection","features":[{"type":"Feature","geometry":{"type":"Point","coordinates":[-122.3321,47.6062]},"properties":{"kind":"circle","radius_m":25000,"label":"20 min"}},{"type":"Feature","geometry":{"type":"Point","coordinates":[-122.3321,47.6062]},"properties":{"kind":"circle","radius_m":80000,"label":"1 h"}},{"type":"Feature","geometry":{"type":"Point","coordinates":[-122.3321,47.6062]},"properties":{"kind":"circle","radius_m":160000,"label":"2 h"}},{"type":"Feature","geometry":{"type":"Point","coordinates":[-122.3326524,47.6066916]},"properties":{"kind":"poi","name":"The Seattle Public Library - Central Library","category":"monument","color":"#be123c","fa_icon":"fa-monument"}},{"type":"Feature","geometry":{"type":"Point","coordinates":[-122.3424999,47.6061669]},"properties":{"kind":"poi","name":"Seattle Great Wheel","category":"monument","color":"#be123c","fa_icon":"fa-monument","wikidata":"Q7442108"}},{"type":"Feature","geometry":{"type":"Point","coordinates":[-122.3297498,47.5977704]},"properties":{"kind":"poi","name":"Seattle King Street","category":"train_station","color":"#2563eb","fa_icon":"fa-train"}},{"type":"Feature","geometry":{"type":"Point","coordinates":[-122.3168318,47.6095099]},"properties":{"kind":"poi","name":"Seattle University","category":"university","color":"#0891b2","fa_icon":"fa-graduation-cap","website":"https://www.seattleu.edu/","courses_url":"https://www.seattleu.edu/"}},{"type":"Feature","geometry":{"type":"Point","coordinates":[-122.3370747,47.6109076]},"properties":{"kind":"poi","name":"Westlake Park","category":"park","color":"#16a34a","fa_icon":"fa-tree"}},{"type":"Feature","geometry":{"type":"Point","coordinates":[-122.3339231,47.6018606]},"properties":{"kind":"poi","name":"Pioneer Square Pergola","category":"monument","color":"#be123c","fa_icon":"fa-monument"}},{"type":"Feature","geometry":{"type":"Point","coordinates":[-122.3292931,47.6140048]},"properties":{"kind":"poi","name":"Plymouth Pillars Park","category":"park","color":"#16a34a","fa_icon":"fa-tree"}},{"type":"Feature","geometry":{"type":"Point","coordinates":[-122.3245883,47.6008718]},"properties":{"kind":"poi","name":"Kobe Terrace Park","category":"park","color":"#16a34a","fa_icon":"fa-tree"}},{"type":"Feature","geometry":{"type":"Point","coordinates":[-122.3241374,47.607186]},"properties":{"kind":"poi","name":"Frye Art Museum","category":"museum","color":"#b45309","fa_icon":"fa-landmark","website":"https://fryemuseum.org/","ticket_url":"https://fryemuseum.org/"}}]}