{"type":"FeatureCollection","features":[{"type":"Feature","geometry":{"type":"Point","coordinates":[126.978,37.5665]},"properties":{"kind":"circle","radius_m":25000,"label":"20 min"}},{"type":"Feature","geometry":{"type":"Point","coordinates":[126.978,37.5665]},"properties":{"kind":"circle","radius_m":80000,"label":"1 h"}},{"type":"Feature","geometry":{"type":"Point","coordinates":[126.978,37.5665]},"properties":{"kind":"circle","radius_m":160000,"label":"2 h"}},{"type":"Feature","geometry":{"type":"Point","coordinates":[126.9803362,37.5620443]},"properties":{"kind":"poi","name":"한국은행 화폐박물관","category":"museum","color":"#b45309","fa_icon":"fa-landmark"}},{"type":"Feature","geometry":{"type":"Point","coordinates":[126.9834979,37.5738145]},"properties":{"kind":"poi","name":"목인박물관","category":"museum","color":"#b45309","fa_icon":"fa-landmark"}},{"type":"Feature","geometry":{"type":"Point","coordinates":[126.9767418,37.5727447]},"properties":{"kind":"poi","name":"광화문광장","category":"monument","color":"#be123c","fa_icon":"fa-monument"}},{"type":"Feature","geometry":{"type":"Point","coordinates":[126.9702783,37.5704691]},"properties":{"kind":"poi","name":"서울역사박물관","category":"museum","color":"#b45309","fa_icon":"fa-landmark"}},{"type":"Feature","geometry":{"type":"Point","coordinates":[126.9933765,37.5689476]},"properties":{"kind":"poi","name":"청계천공원","category":"monument","color":"#be123c","fa_icon":"fa-monument"}},{"type":"Feature","geometry":{"type":"Point","coordinates":[126.9882659,37.571185]},"properties":{"kind":"poi","name":"탑골공원","category":"monument","color":"#be123c","fa_icon":"fa-monument"}},{"type":"Feature","geometry":{"type":"Point","coordinates":[126.9737645,37.5658861]},"properties":{"kind":"poi","name":"국립현대미술관 덕수궁관","category":"museum","color":"#b45309","fa_icon":"fa-landmark"}},{"type":"Feature","geometry":{"type":"Point","coordinates":[126.9863762,37.5608977]},"properties":{"kind":"poi","name":"명동","category":"train_station","color":"#2563eb","fa_icon":"fa-train"}},{"type":"Feature","geometry":{"type":"Point","coordinates":[126.98665,37.5656109]},"properties":{"kind":"poi","name":"향린교회 기억공간","category":"museum","color":"#b45309","fa_icon":"fa-landmark"}},{"type":"Feature","geometry":{"type":"Point","coordinates":[126.967761,37.566376]},"properties":{"kind":"poi","name":"농협 쌀박물관","category":"museum","color":"#b45309","fa_icon":"fa-landmark"}},{"type":"Feature","geometry":{"type":"Point","coordinates":[126.9751326,37.5596197]},"properties":{"kind":"poi","name":"숭례문광장","category":"park","color":"#16a34a","fa_icon":"fa-tree"}},{"type":"Feature","geometry":{"type":"Point","coordinates":[126.9694611,37.5606253]},"properties":{"kind":"poi","name":"서소문근린공원","category":"park","color":"#16a34a","fa_icon":"fa-tree"}}]}