{"type":"FeatureCollection","features":[{"type":"Feature","geometry":{"type":"Point","coordinates":[121.4737,31.2304]},"properties":{"kind":"circle","radius_m":25000,"label":"20 min"}},{"type":"Feature","geometry":{"type":"Point","coordinates":[121.4737,31.2304]},"properties":{"kind":"circle","radius_m":80000,"label":"1 h"}},{"type":"Feature","geometry":{"type":"Point","coordinates":[121.4737,31.2304]},"properties":{"kind":"circle","radius_m":160000,"label":"2 h"}},{"type":"Feature","geometry":{"type":"Point","coordinates":[121.4666204,31.2326171]},"properties":{"kind":"poi","name":"上海市历史博物馆","category":"museum","color":"#b45309","fa_icon":"fa-landmark"}},{"type":"Feature","geometry":{"type":"Point","coordinates":[121.4749289,31.2291468]},"properties":{"kind":"poi","name":"大世界","category":"train_station","color":"#2563eb","fa_icon":"fa-train"}},{"type":"Feature","geometry":{"type":"Point","coordinates":[121.4693495,31.2249337]},"properties":{"kind":"poi","name":"一大会址·黄陂南路","category":"train_station","color":"#2563eb","fa_icon":"fa-train"}},{"type":"Feature","geometry":{"type":"Point","coordinates":[121.4733589,31.2215911]},"properties":{"kind":"poi","name":"太平桥公园","category":"park","color":"#16a34a","fa_icon":"fa-tree"}},{"type":"Feature","geometry":{"type":"Point","coordinates":[121.4828695,31.2299254]},"properties":{"kind":"poi","name":"豫园","category":"train_station","color":"#2563eb","fa_icon":"fa-train"}},{"type":"Feature","geometry":{"type":"Point","coordinates":[121.4742416,31.2339838]},"properties":{"kind":"poi","name":"春美术馆","category":"museum","color":"#b45309","fa_icon":"fa-landmark"}},{"type":"Feature","geometry":{"type":"Point","coordinates":[121.4638077,31.22577]},"properties":{"kind":"poi","name":"延中公园","category":"park","color":"#16a34a","fa_icon":"fa-tree"}}]}