{"type":"FeatureCollection","features":[{"type":"Feature","geometry":{"type":"Point","coordinates":[18.0686,59.3293]},"properties":{"kind":"circle","radius_m":400,"label":"5 min walk"}},{"type":"Feature","geometry":{"type":"Point","coordinates":[18.0686,59.3293]},"properties":{"kind":"circle","radius_m":800,"label":"10 min walk"}},{"type":"Feature","geometry":{"type":"Point","coordinates":[18.0686,59.3293]},"properties":{"kind":"circle","radius_m":1200,"label":"15 min walk"}},{"type":"Feature","geometry":{"type":"Point","coordinates":[18.0588355,59.3305494]},"properties":{"kind":"poi","name":"Stockholms Centrals gamla klocka","category":"monument","color":"#be123c","fa_icon":"fa-monument","wikidata":"Q18332897","wikipedia_url":"https://sv.wikipedia.org/wiki/Stockholms_Centrals_gamla_klocka"}},{"type":"Feature","geometry":{"type":"Point","coordinates":[18.0846543,59.3258137]},"properties":{"kind":"poi","name":"Arkitektur- och designcentrum","category":"museum","color":"#b45309","fa_icon":"fa-landmark","wikidata":"Q4356728","website":"https://arkdes.se/","ticket_url":"https://arkdes.se/"}},{"type":"Feature","geometry":{"type":"Point","coordinates":[18.0720537,59.3275418]},"properties":{"kind":"poi","name":"Gustav III:s antikmuseum","category":"museum","color":"#b45309","fa_icon":"fa-landmark","wikidata":"Q9282793","website":"http://www.kungahuset.se/besokkungligaslotten/kungligaslottet/gustaviiisantikmuseum","ticket_url":"http://www.kungahuset.se/besokkungligaslotten/kungligaslottet/gustaviiisantikmuseum"}},{"type":"Feature","geometry":{"type":"Point","coordinates":[18.0787824,59.3329611]},"properties":{"kind":"poi","name":"H M Konungens Hovstall","category":"museum","color":"#b45309","fa_icon":"fa-landmark","wikidata":"Q10298650","website":"https://www.kungahuset.se/","ticket_url":"https://www.kungahuset.se/"}},{"type":"Feature","geometry":{"type":"Point","coordinates":[18.0598295,59.336334]},"properties":{"kind":"poi","name":"Centralbadsparken","category":"park","color":"#16a34a","fa_icon":"fa-tree","wikidata":"Q10444879"}},{"type":"Feature","geometry":{"type":"Point","coordinates":[18.0645814,59.3246833]},"properties":{"kind":"poi","name":"Riddarholmskyrkan","category":"monument","color":"#be123c","fa_icon":"fa-monument","wikidata":"Q657118","website":"https://www.kungahuset.se/","wikipedia_url":"https://en.wikipedia.org/wiki/Riddarholmen_Church"}},{"type":"Feature","geometry":{"type":"Point","coordinates":[18.0730616,59.3393197]},"properties":{"kind":"poi","name":"Humlegården","category":"park","color":"#16a34a","fa_icon":"fa-tree","wikidata":"Q1637097"}},{"type":"Feature","geometry":{"type":"Point","coordinates":[18.0600951,59.3207213]},"properties":{"kind":"poi","name":"Mariaberget","category":"park","color":"#16a34a","fa_icon":"fa-tree","wikidata":"Q10577219"}}]}