{"type":"FeatureCollection","features":[{"type":"Feature","geometry":{"type":"Point","coordinates":[151.2093,-33.8688]},"properties":{"kind":"circle","radius_m":25000,"label":"20 min"}},{"type":"Feature","geometry":{"type":"Point","coordinates":[151.2093,-33.8688]},"properties":{"kind":"circle","radius_m":80000,"label":"1 h"}},{"type":"Feature","geometry":{"type":"Point","coordinates":[151.2093,-33.8688]},"properties":{"kind":"circle","radius_m":160000,"label":"2 h"}},{"type":"Feature","geometry":{"type":"Point","coordinates":[151.2122831,-33.8620845]},"properties":{"kind":"poi","name":"Justice & Police Museum","category":"museum","color":"#b45309","fa_icon":"fa-landmark","website":"https://mhnsw.au/visit-us/justice-and-police-museum/","ticket_url":"https://mhnsw.au/visit-us/justice-and-police-museum/"}},{"type":"Feature","geometry":{"type":"Point","coordinates":[151.2026126,-33.876483]},"properties":{"kind":"poi","name":"Chinese Garden of Friendship","category":"park","color":"#16a34a","fa_icon":"fa-tree"}},{"type":"Feature","geometry":{"type":"Point","coordinates":[151.1987411,-33.8693751]},"properties":{"kind":"poi","name":"Australian National Maritime Museum","category":"museum","color":"#b45309","fa_icon":"fa-landmark"}},{"type":"Feature","geometry":{"type":"Point","coordinates":[151.2066855,-33.87177]},"properties":{"kind":"poi","name":"Queen Victoria Building","category":"monument","color":"#be123c","fa_icon":"fa-monument"}},{"type":"Feature","geometry":{"type":"Point","coordinates":[151.2132545,-33.8743465]},"properties":{"kind":"poi","name":"Australian Museum","category":"museum","color":"#b45309","fa_icon":"fa-landmark","website":"https://australian.museum/","ticket_url":"https://australian.museum/"}},{"type":"Feature","geometry":{"type":"Point","coordinates":[151.2128014,-33.8695991]},"properties":{"kind":"poi","name":"Hyde Park Barracks","category":"museum","color":"#b45309","fa_icon":"fa-landmark","website":"https://museum.rba.gov.au/","ticket_url":"https://museum.rba.gov.au/"}},{"type":"Feature","geometry":{"type":"Point","coordinates":[151.206072,-33.8660701]},"properties":{"kind":"poi","name":"Wynyard Park","category":"park","color":"#16a34a","fa_icon":"fa-tree"}},{"type":"Feature","geometry":{"type":"Point","coordinates":[151.2074289,-33.8600915]},"properties":{"kind":"poi","name":"Susannah Place Museum","category":"museum","color":"#b45309","fa_icon":"fa-landmark","website":"https://rocksdiscoverymuseum.com/","ticket_url":"https://rocksdiscoverymuseum.com/"}},{"type":"Feature","geometry":{"type":"Point","coordinates":[151.2187047,-33.8643963]},"properties":{"kind":"poi","name":"Southern Africa Garden","category":"park","color":"#16a34a","fa_icon":"fa-tree"}},{"type":"Feature","geometry":{"type":"Point","coordinates":[151.2199413,-33.8713853]},"properties":{"kind":"poi","name":"Forbes Street Reserve","category":"park","color":"#16a34a","fa_icon":"fa-tree"}},{"type":"Feature","geometry":{"type":"Point","coordinates":[151.2021655,-33.8626029]},"properties":{"kind":"poi","name":"Hickson Park","category":"park","color":"#16a34a","fa_icon":"fa-tree"}}]}