{"type":"FeatureCollection","features":[{"type":"Feature","geometry":{"type":"Point","coordinates":[121.5654,25.033]},"properties":{"kind":"circle","radius_m":400,"label":"5 min walk"}},{"type":"Feature","geometry":{"type":"Point","coordinates":[121.5654,25.033]},"properties":{"kind":"circle","radius_m":800,"label":"10 min walk"}},{"type":"Feature","geometry":{"type":"Point","coordinates":[121.5654,25.033]},"properties":{"kind":"circle","radius_m":1200,"label":"15 min walk"}},{"type":"Feature","geometry":{"type":"Point","coordinates":[121.5641067,25.0374227]},"properties":{"kind":"poi","name":"台北探索館","category":"museum","color":"#b45309","fa_icon":"fa-landmark","wikidata":"Q10914179","website":"http://discovery.gov.taipei","ticket_url":"http://discovery.gov.taipei"}},{"type":"Feature","geometry":{"type":"Point","coordinates":[121.5624453,25.0329794]},"properties":{"kind":"poi","name":"台北101/世貿","category":"transit","color":"#0369a1","fa_icon":"fa-bus","wikidata":"Q7676267"}},{"type":"Feature","geometry":{"type":"Point","coordinates":[121.5553933,25.0298876]},"properties":{"kind":"poi","name":"臨江街觀光夜市","category":"monument","color":"#be123c","fa_icon":"fa-monument","wikidata":"Q6727208"}},{"type":"Feature","geometry":{"type":"Point","coordinates":[121.5614187,25.0251631]},"properties":{"kind":"poi","name":"臺北醫學大學","category":"university","color":"#0891b2","fa_icon":"fa-graduation-cap","wikidata":"Q701818","website":"http://www.tmu.edu.tw/","courses_url":"http://www.tmu.edu.tw/"}},{"type":"Feature","geometry":{"type":"Point","coordinates":[121.5697576,25.0328676]},"properties":{"kind":"poi","name":"象山","category":"transit","color":"#0369a1","fa_icon":"fa-bus","wikidata":"Q4276721"}},{"type":"Feature","geometry":{"type":"Point","coordinates":[121.5596101,25.0394412]},"properties":{"kind":"poi","name":"中山公園","category":"park","color":"#16a34a","fa_icon":"fa-tree","wikidata":"Q9384448"}},{"type":"Feature","geometry":{"type":"Point","coordinates":[121.5696281,25.0394556]},"properties":{"kind":"poi","name":"石油展示館","category":"museum","color":"#b45309","fa_icon":"fa-landmark","ticket_url":"https://wanderboat.ai/attractions/taiwan/xinyi-district/%E7%9F%B3%E6%B2%B9%E6%8E%A2%E7%B4%A2%E9%A4%A8/qrZyva_nRk-qJTleQc0pOg"}},{"type":"Feature","geometry":{"type":"Point","coordinates":[121.5701991,25.0280278]},"properties":{"kind":"poi","name":"三犁公園","category":"park","color":"#16a34a","fa_icon":"fa-tree","website":"https://parks.taipei/parks/m2/pkl_parks_m2C.php?sid=98"}},{"type":"Feature","geometry":{"type":"Point","coordinates":[121.5747042,25.0312273]},"properties":{"kind":"poi","name":"虎林公園","category":"park","color":"#16a34a","fa_icon":"fa-tree"}},{"type":"Feature","geometry":{"type":"Point","coordinates":[121.5558924,25.0355868]},"properties":{"kind":"poi","name":"光信公園","category":"park","color":"#16a34a","fa_icon":"fa-tree"}}]}