{"type":"FeatureCollection","features":[{"type":"Feature","geometry":{"type":"Point","coordinates":[69.2401,41.2995]},"properties":{"kind":"circle","radius_m":400,"label":"5 min walk"}},{"type":"Feature","geometry":{"type":"Point","coordinates":[69.2401,41.2995]},"properties":{"kind":"circle","radius_m":800,"label":"10 min walk"}},{"type":"Feature","geometry":{"type":"Point","coordinates":[69.2401,41.2995]},"properties":{"kind":"circle","radius_m":1200,"label":"15 min walk"}},{"type":"Feature","geometry":{"type":"Point","coordinates":[69.2497545,41.3089559]},"properties":{"kind":"poi","name":"Toshkent davlat iqtisodiyot universiteti","category":"university","color":"#0891b2","fa_icon":"fa-graduation-cap","wikidata":"Q2428356","website":"https://tsue.uz/","courses_url":"https://tsue.uz/"}},{"type":"Feature","geometry":{"type":"Point","coordinates":[69.2356663,41.3033944]},"properties":{"kind":"poi","name":"Milliy bogʻ","category":"transit","color":"#0369a1","fa_icon":"fa-bus","wikidata":"Q4293549"}},{"type":"Feature","geometry":{"type":"Point","coordinates":[69.241241,41.3014757]},"properties":{"kind":"poi","name":"Oʻzbekiston milliy bogʻi","category":"park","color":"#16a34a","fa_icon":"fa-tree"}},{"type":"Feature","geometry":{"type":"Point","coordinates":[69.2292604,41.296238]},"properties":{"kind":"poi","name":"Millat Umidi universiteti","category":"university","color":"#0891b2","fa_icon":"fa-graduation-cap","courses_url":"https://www.businessi.com.au/gurpreet-kaur/"}},{"type":"Feature","geometry":{"type":"Point","coordinates":[69.248773,41.303913]},"properties":{"kind":"poi","name":"Beshyogʻoch","category":"market","color":"#65a30d","fa_icon":"fa-store"}}]}