{"type":"FeatureCollection","features":[{"type":"Feature","geometry":{"type":"Point","coordinates":[34.7818,32.0853]},"properties":{"kind":"circle","radius_m":25000,"label":"20 min"}},{"type":"Feature","geometry":{"type":"Point","coordinates":[34.7818,32.0853]},"properties":{"kind":"circle","radius_m":80000,"label":"1 h"}},{"type":"Feature","geometry":{"type":"Point","coordinates":[34.7818,32.0853]},"properties":{"kind":"circle","radius_m":160000,"label":"2 h"}},{"type":"Feature","geometry":{"type":"Point","coordinates":[34.778498,32.0784496]},"properties":{"kind":"poi","name":"ככר מסריק","category":"park","color":"#16a34a","fa_icon":"fa-tree"}},{"type":"Feature","geometry":{"type":"Point","coordinates":[34.7861598,32.0824124]},"properties":{"kind":"poi","name":"גן סוטין","category":"park","color":"#16a34a","fa_icon":"fa-tree"}},{"type":"Feature","geometry":{"type":"Point","coordinates":[34.791569,32.084789]},"properties":{"kind":"poi","name":"גן הגת","category":"park","color":"#16a34a","fa_icon":"fa-tree"}},{"type":"Feature","geometry":{"type":"Point","coordinates":[34.7863548,32.0773078]},"properties":{"kind":"poi","name":"גן הפסלים ע\"ש לולה אבנר","category":"park","color":"#16a34a","fa_icon":"fa-tree"}},{"type":"Feature","geometry":{"type":"Point","coordinates":[34.7717148,32.0853654]},"properties":{"kind":"poi","name":"בית בן גוריון","category":"museum","color":"#b45309","fa_icon":"fa-landmark"}},{"type":"Feature","geometry":{"type":"Point","coordinates":[34.7819583,32.0944626]},"properties":{"kind":"poi","name":"כיכר היל","category":"park","color":"#16a34a","fa_icon":"fa-tree"}},{"type":"Feature","geometry":{"type":"Point","coordinates":[34.778621,32.087319]},"properties":{"kind":"poi","name":"גן מלץ","category":"park","color":"#16a34a","fa_icon":"fa-tree"}},{"type":"Feature","geometry":{"type":"Point","coordinates":[34.7868119,32.0911406]},"properties":{"kind":"poi","name":"גן נורי","category":"park","color":"#16a34a","fa_icon":"fa-tree"}},{"type":"Feature","geometry":{"type":"Point","coordinates":[34.7752855,32.0920349]},"properties":{"kind":"poi","name":"גן מרקביץ","category":"park","color":"#16a34a","fa_icon":"fa-tree"}}]}