{"type":"FeatureCollection","features":[{"type":"Feature","geometry":{"type":"Point","coordinates":[139.6503,35.6762]},"properties":{"kind":"circle","radius_m":400,"label":"5 min walk"}},{"type":"Feature","geometry":{"type":"Point","coordinates":[139.6503,35.6762]},"properties":{"kind":"circle","radius_m":800,"label":"10 min walk"}},{"type":"Feature","geometry":{"type":"Point","coordinates":[139.6503,35.6762]},"properties":{"kind":"circle","radius_m":1200,"label":"15 min walk"}},{"type":"Feature","geometry":{"type":"Point","coordinates":[139.6426857,35.6866013]},"properties":{"kind":"poi","name":"和田堀公園","category":"park","color":"#16a34a","fa_icon":"fa-tree","wikidata":"Q11417957"}},{"type":"Feature","geometry":{"type":"Point","coordinates":[139.6504275,35.6684337]},"properties":{"kind":"poi","name":"明大前","category":"train_station","color":"#2563eb","fa_icon":"fa-train","wikidata":"Q906793"}},{"type":"Feature","geometry":{"type":"Point","coordinates":[139.6587527,35.6709596]},"properties":{"kind":"poi","name":"代田橋","category":"train_station","color":"#2563eb","fa_icon":"fa-train","wikidata":"Q4154095"}},{"type":"Feature","geometry":{"type":"Point","coordinates":[139.642645,35.6762576]},"properties":{"kind":"poi","name":"永福町","category":"train_station","color":"#2563eb","fa_icon":"fa-train","wikidata":"Q4389461"}},{"type":"Feature","geometry":{"type":"Point","coordinates":[139.6413773,35.6707564]},"properties":{"kind":"poi","name":"杉並区立 永福中央公園","category":"park","color":"#16a34a","fa_icon":"fa-tree"}},{"type":"Feature","geometry":{"type":"Point","coordinates":[139.6497825,35.6772366]},"properties":{"kind":"poi","name":"和泉二丁目公園","category":"park","color":"#16a34a","fa_icon":"fa-tree"}},{"type":"Feature","geometry":{"type":"Point","coordinates":[139.6480591,35.6854568]},"properties":{"kind":"poi","name":"済美山運動広場","category":"park","color":"#16a34a","fa_icon":"fa-tree"}},{"type":"Feature","geometry":{"type":"Point","coordinates":[139.6599268,35.6793246]},"properties":{"kind":"poi","name":"方南中央公園","category":"park","color":"#16a34a","fa_icon":"fa-tree"}},{"type":"Feature","geometry":{"type":"Point","coordinates":[139.6539929,35.6807546]},"properties":{"kind":"poi","name":"弁天橋東緑地","category":"park","color":"#16a34a","fa_icon":"fa-tree"}}]}