{"type":"FeatureCollection","features":[{"type":"Feature","geometry":{"type":"Point","coordinates":[-123.1207,49.2827]},"properties":{"kind":"circle","radius_m":400,"label":"5 min walk"}},{"type":"Feature","geometry":{"type":"Point","coordinates":[-123.1207,49.2827]},"properties":{"kind":"circle","radius_m":800,"label":"10 min walk"}},{"type":"Feature","geometry":{"type":"Point","coordinates":[-123.1207,49.2827]},"properties":{"kind":"circle","radius_m":1200,"label":"15 min walk"}},{"type":"Feature","geometry":{"type":"Point","coordinates":[-123.1176596,49.2893606]},"properties":{"kind":"poi","name":"2010 Olympic Cauldron","category":"monument","color":"#be123c","fa_icon":"fa-monument","wikidata":"Q28034447"}},{"type":"Feature","geometry":{"type":"Point","coordinates":[-123.118923,49.2819919]},"properties":{"kind":"poi","name":"Vancouver City Centre","category":"transit","color":"#0369a1","fa_icon":"fa-bus","wikidata":"Q2153968"}},{"type":"Feature","geometry":{"type":"Point","coordinates":[-123.10889,49.2843841]},"properties":{"kind":"poi","name":"Gastown Steam Clock","category":"monument","color":"#be123c","fa_icon":"fa-monument","wikidata":"Q107352564","wikipedia_url":"https://en.wikipedia.org/wiki/Steam_clock"}},{"type":"Feature","geometry":{"type":"Point","coordinates":[-123.109311,49.279398]},"properties":{"kind":"poi","name":"Stadium–Chinatown","category":"transit","color":"#0369a1","fa_icon":"fa-bus","wikidata":"Q1186497"}},{"type":"Feature","geometry":{"type":"Point","coordinates":[-123.121905,49.2745376]},"properties":{"kind":"poi","name":"Yaletown–Roundhouse","category":"transit","color":"#0369a1","fa_icon":"fa-bus","wikidata":"Q2153961"}},{"type":"Feature","geometry":{"type":"Point","coordinates":[-123.1321516,49.2869083]},"properties":{"kind":"poi","name":"Roedde House Museum","category":"museum","color":"#b45309","fa_icon":"fa-landmark","wikidata":"Q18167820","website":"https://www.roeddehouse.org/","ticket_url":"https://www.roeddehouse.org/"}},{"type":"Feature","geometry":{"type":"Point","coordinates":[-123.1248734,49.2899994]},"properties":{"kind":"poi","name":"Coal Harbour Park","category":"park","color":"#16a34a","fa_icon":"fa-tree"}}]}