{"type":"FeatureCollection","features":[{"type":"Feature","geometry":{"type":"Point","coordinates":[16.3738,48.2082]},"properties":{"kind":"circle","radius_m":400,"label":"5 min walk"}},{"type":"Feature","geometry":{"type":"Point","coordinates":[16.3738,48.2082]},"properties":{"kind":"circle","radius_m":800,"label":"10 min walk"}},{"type":"Feature","geometry":{"type":"Point","coordinates":[16.3738,48.2082]},"properties":{"kind":"circle","radius_m":1200,"label":"15 min walk"}},{"type":"Feature","geometry":{"type":"Point","coordinates":[16.3667068,48.2073067]},"properties":{"kind":"poi","name":"Spanische Hofreitschule","category":"monument","color":"#be123c","fa_icon":"fa-monument","wikidata":"Q269273","website":"https://www.srs.at/","wikipedia_url":"https://de.wikipedia.org/wiki/Spanische_Hofreitschule"}},{"type":"Feature","geometry":{"type":"Point","coordinates":[16.3622586,48.2123903]},"properties":{"kind":"poi","name":"Beethoven Pasqualatihaus","category":"museum","color":"#b45309","fa_icon":"fa-landmark","wikidata":"Q1434092","website":"https://www.wienmuseum.at/de/standorte/beethoven-pasqualatihaus","ticket_url":"https://www.wienmuseum.at/de/standorte/beethoven-pasqualatihaus"}},{"type":"Feature","geometry":{"type":"Point","coordinates":[16.3692172,48.2119107]},"properties":{"kind":"poi","name":"Jüdisches Museum Judenplatz","category":"museum","color":"#b45309","fa_icon":"fa-landmark","wikidata":"Q1716827","website":"https://www.jmw.at/","ticket_url":"https://www.jmw.at/"}},{"type":"Feature","geometry":{"type":"Point","coordinates":[16.3729454,48.1992106]},"properties":{"kind":"poi","name":"Wien Museum Karlsplatz","category":"museum","color":"#b45309","fa_icon":"fa-landmark","wikidata":"Q505873","website":"https://www.wienmuseum.at/","ticket_url":"https://www.wienmuseum.at/"}},{"type":"Feature","geometry":{"type":"Point","coordinates":[16.3818018,48.207442]},"properties":{"kind":"poi","name":"Museum für Angewandte Kunst","category":"museum","color":"#b45309","fa_icon":"fa-landmark","wikidata":"Q478455","website":"https://www.mak.at/","ticket_url":"https://www.mak.at/"}},{"type":"Feature","geometry":{"type":"Point","coordinates":[16.3597531,48.2052686]},"properties":{"kind":"poi","name":"Naturhistorisches Museum","category":"museum","color":"#b45309","fa_icon":"fa-landmark","wikidata":"Q688704","website":"https://www.nhm-wien.ac.at/","ticket_url":"https://www.nhm-wien.ac.at/"}},{"type":"Feature","geometry":{"type":"Point","coordinates":[16.3829469,48.2141267]},"properties":{"kind":"poi","name":"Webster University","category":"university","color":"#0891b2","fa_icon":"fa-graduation-cap","wikidata":"Q2553612","website":"https://webster.ac.at/","courses_url":"https://webster.ac.at/"}},{"type":"Feature","geometry":{"type":"Point","coordinates":[16.3769008,48.2175503]},"properties":{"kind":"poi","name":"Karmelitermarkt","category":"market","color":"#65a30d","fa_icon":"fa-store","wikidata":"Q1734069","website":"https://www.wien.gv.at/freizeit/einkaufen/maerkte/lebensmittel/karmelitermarkt.html"}},{"type":"Feature","geometry":{"type":"Point","coordinates":[16.3749348,48.2082099]},"properties":{"kind":"poi","name":"Mozarthaus Vienna","category":"museum","color":"#b45309","fa_icon":"fa-landmark","wikidata":"Q387667","website":"https://www.mozarthausvienna.at/","ticket_url":"https://www.mozarthausvienna.at/"}},{"type":"Feature","geometry":{"type":"Point","coordinates":[16.3731547,48.203792]},"properties":{"kind":"poi","name":"Haus der Musik","category":"museum","color":"#b45309","fa_icon":"fa-landmark","wikidata":"Q351228","website":"https://www.hausdermusik.com/","ticket_url":"https://www.hausdermusik.com/"}},{"type":"Feature","geometry":{"type":"Point","coordinates":[16.3654876,48.2021016]},"properties":{"kind":"poi","name":"Schillerpark","category":"park","color":"#16a34a","fa_icon":"fa-tree","wikidata":"Q2235771"}}]}