{"type":"FeatureCollection","features":[{"type":"Feature","geometry":{"type":"Point","coordinates":[21.0122,52.2297]},"properties":{"kind":"circle","radius_m":400,"label":"5 min walk"}},{"type":"Feature","geometry":{"type":"Point","coordinates":[21.0122,52.2297]},"properties":{"kind":"circle","radius_m":800,"label":"10 min walk"}},{"type":"Feature","geometry":{"type":"Point","coordinates":[21.0122,52.2297]},"properties":{"kind":"circle","radius_m":1200,"label":"15 min walk"}},{"type":"Feature","geometry":{"type":"Point","coordinates":[21.0121665,52.2381491]},"properties":{"kind":"poi","name":"Muzeum Etnograficzne","category":"museum","color":"#b45309","fa_icon":"fa-landmark","wikidata":"Q961766","website":"https://ethnomuseum.pl/","ticket_url":"https://ethnomuseum.pl/"}},{"type":"Feature","geometry":{"type":"Point","coordinates":[21.0086432,52.2285899]},"properties":{"kind":"poi","name":"Fotoplastikon Warszawski","category":"museum","color":"#b45309","fa_icon":"fa-landmark","wikidata":"Q9261973","website":"https://fotoplastikonwarszawski.pl/","ticket_url":"https://fotoplastikonwarszawski.pl/"}},{"type":"Feature","geometry":{"type":"Point","coordinates":[20.9988509,52.2307885]},"properties":{"kind":"poi","name":"Mur Getta Warszawskiego","category":"monument","color":"#be123c","fa_icon":"fa-monument","wikidata":"Q8123476"}},{"type":"Feature","geometry":{"type":"Point","coordinates":[21.0119722,52.2335931]},"properties":{"kind":"poi","name":"Muzeum Historii Spółdzielczości w Polsce","category":"museum","color":"#b45309","fa_icon":"fa-landmark","wikidata":"Q11787002","website":"https://krs.org.pl/muzeum","ticket_url":"https://krs.org.pl/muzeum"}},{"type":"Feature","geometry":{"type":"Point","coordinates":[21.0247708,52.2316938]},"properties":{"kind":"poi","name":"Muzeum Narodowe w Warszawie","category":"museum","color":"#b45309","fa_icon":"fa-landmark","wikidata":"Q153306","website":"https://www.mnw.art.pl/","ticket_url":"https://www.mnw.art.pl/"}},{"type":"Feature","geometry":{"type":"Point","coordinates":[21.0334475,52.2276853]},"properties":{"kind":"poi","name":"Park im. Marszałka Edwarda Rydza-Śmigłego","category":"park","color":"#16a34a","fa_icon":"fa-tree","wikidata":"Q11811404","website":"https://eko.um.warszawa.pl/-/park-im-marszalka-edwarda-rydza-smiglego"}},{"type":"Feature","geometry":{"type":"Point","coordinates":[21.0204528,52.2231389]},"properties":{"kind":"poi","name":"Skwer Batalionu AK \"Ruczaj\"","category":"park","color":"#16a34a","fa_icon":"fa-tree"}},{"type":"Feature","geometry":{"type":"Point","coordinates":[21.004119,52.2233581]},"properties":{"kind":"poi","name":"Politechnika Warszawska","category":"university","color":"#0891b2","fa_icon":"fa-graduation-cap","courses_url":"https://invoice.etax.nat.gov.tw/"}}]}